[
  {
    "raw": "KGUL 152325Z AUTO 20007KT 6SM HZ SCT019 SCT025 BKN031 29/25 A3000 RMK A01",
    "station": "KGUL",
    "observationTime": 1750029900,
    "temperature": 29,
    "dewpoint": 25,
    "windDirection": 200,
    "windSpeed": 7,
    "visibility": 6,
    "altimeter": 1016,
    "clouds": [
      {
        "type": "SCT",
        "altitude": 1900
      },
      {
        "type": "SCT",
        "altitude": 2500
      },
      {
        "type": "BKN",
        "altitude": 3100
      }
    ],
    "weather": [
      "HZ"
    ],
    "flightCategory": "VFR"
  },
  {
    "raw": "KFCI 152325Z AUTO 07004KT 9SM VCTS RA OVC006 23/22 A3002 RMK AO2 LTG DSNT S AND SW TSB19 P0007",
    "station": "KFCI",
    "observationTime": 1750029900,
    "temperature": 23,
    "dewpoint": 22,
    "windDirection": 70,
    "windSpeed": 4,
    "visibility": 9,
    "altimeter": 1016.7,
    "clouds": [
      {
        "type": "OVC",
        "altitude": 600
      }
    ],
    "weather": [
      "VCTS RA"
    ],
    "flightCategory": "IFR"
  },
  {
    "raw": "KDSF 152325Z AUTO 10014KT 9SM BKN023 BKN031 A3006 RMK A01",
    "station": "KDSF",
    "observationTime": 1750029900,
    "windDirection": 100,
    "windSpeed": 14,
    "visibility": 9,
    "altimeter": 1018,
    "clouds": [
      {
        "type": "BKN",
        "altitude": 2300
      },
      {
        "type": "BKN",
        "altitude": 3100
      }
    ],
    "weather": [],
    "flightCategory": "MVFR"
  },
  {
    "raw": "EHKD 152325Z AUTO 24004KT 8000 BR NCD 14/13 Q1024 BLU",
    "station": "EHKD",
    "observationTime": 1750029900,
    "temperature": 14,
    "dewpoint": 13,
    "windDirection": 240,
    "windSpeed": 4,
    "visibility": 4.97,
    "altimeter": 1024,
    "clouds": [
      {
        "type": "CLR"
      }
    ],
    "weather": [
      "BR"
    ],
    "flightCategory": "MVFR"
  },
  {
    "raw": "UWKD 152324Z 36003MPS 3900 -RA BR OVC002 14/14 Q1003 R11/290050 NOSIG RMK QBB060 QFE742/0990",
    "station": "UWKD",
    "observationTime": 1750029840,
    "temperature": 14,
    "dewpoint": 14,
    "windDirection": 360,
    "windSpeed": 6,
    "visibility": 2.42,
    "altimeter": 1003,
    "clouds": [
      {
        "type": "OVC",
        "altitude": 200
      }
    ],
    "weather": [
      "-RA BR"
    ],
    "flightCategory": "LIFR"
  },
  {
    "raw": "KTTN 152324Z 09005KT 10SM BKN009 OVC014 15/14 A3014 RMK AO2 CIG 007V013 T01500139",
    "station": "KTTN",
    "observationTime": 1750029840,
    "temperature": 15,
    "dewpoint": 13.9,
    "windDirection": 90,
    "windSpeed": 5,
    "visibility": 10,
    "altimeter": 1020.7,
    "clouds": [
      {
        "type": "BKN",
        "altitude": 900
      },
      {
        "type": "OVC",
        "altitude": 1400
      }
    ],
    "weather": [],
    "flightCategory": "IFR"
  },
  {
    "raw": "KSEG 152324Z AUTO 17004KT 10SM BKN013 OVC018 17/16 A3012 RMK AO2 T01720156",
    "station": "KSEG",
    "observationTime": 1750029840,
    "temperature": 17.2,
    "dewpoint": 15.6,
    "windDirection": 170,
    "windSpeed": 4,
    "visibility": 10,
    "altimeter": 1020.1,
    "clouds": [
      {
        "type": "BKN",
        "altitude": 1300
      },
      {
        "type": "OVC",
        "altitude": 1800
      }
    ],
    "weather": [],
    "flightCategory": "MVFR"
  },
  {
    "raw": "KAKQ 152324Z AUTO 08003KT 10SM VCTS BKN007 BKN010 22/22 A3002 RMK AO2 LTG DSNT S-W T02220217",
    "station": "KAKQ",
    "observationTime": 1750029840,
    "temperature": 22.2,
    "dewpoint": 21.7,
    "windDirection": 80,
    "windSpeed": 3,
    "visibility": 10,
    "altimeter": 1016.7,
    "clouds": [
      {
        "type": "BKN",
        "altitude": 700
      },
      {
        "type": "BKN",
        "altitude": 1000
      }
    ],
    "weather": [
      "VCTS"
    ],
    "flightCategory": "IFR"
  },
  {
    "raw": "CYZP 152324Z AUTO 13017G24KT 8SM -RA BKN008 BKN016 BKN039 11/10 A3003 RMK PCPN 0.5MM PAST HR SLP170",
    "station": "CYZP",
    "observationTime": 1750029840,
    "temperature": 11,
    "dewpoint": 10,
    "windDirection": 130,
    "windSpeed": 17,
    "windGust": 24,
    "visibility": 8,
    "altimeter": 1017,
    "clouds": [
      {
        "type": "BKN",
        "altitude": 800
      },
      {
        "type": "BKN",
        "altitude": 1600
      },
      {
        "type": "BKN",
        "altitude": 3900
      }
    ],
    "weather": [
      "-RA"
    ],
    "flightCategory": "IFR"
  },
  {
    "raw": "CYPX 152324Z AUTO 24020G27KT 1 3/4SM -SNRA -UP BKN010 OVC015 00/00 A2956 RMK VIS VRB 1 1/4-2 1/2 SLP014",
    "station": "CYPX",
    "observationTime": 1750029840,
    "windDirection": 240,
    "windSpeed": 20,
    "windGust": 27,
    "visibility": 1.75,
    "altimeter": 1001.1,
    "clouds": [
      {
        "type": "BKN",
        "altitude": 1000
      },
      {
        "type": "OVC",
        "altitude": 1500
      }
    ],
    "weather": [
      "-SN -RA UP"
    ],
    "flightCategory": "IFR"
  },
  {
    "raw": "SBMO 152323Z 18004KT 4000 -RA BR BKN007 BKN025 24/23 Q1018",
    "station": "SBMO",
    "observationTime": 1750029780,
    "temperature": 24,
    "dewpoint": 23,
    "windDirection": 180,
    "windSpeed": 4,
    "visibility": 2.49,
    "altimeter": 1018,
    "clouds": [
      {
        "type": "BKN",
        "altitude": 700
      },
      {
        "type": "BKN",
        "altitude": 2500
      }
    ],
    "weather": [
      "-RA BR"
    ],
    "flightCategory": "IFR"
  },
  {
    "raw": "PAVA 152323Z AUTO 14021G25KT SCT010 BKN014 OVC027 12/09 A2987 RMK AO2 $",
    "station": "PAVA",
    "observationTime": 1750029780,
    "temperature": 12,
    "dewpoint": 9,
    "windDirection": 140,
    "windSpeed": 21,
    "windGust": 25,
    "altimeter": 1011.6,
    "clouds": [
      {
        "type": "SCT",
        "altitude": 1000
      },
      {
        "type": "BKN",
        "altitude": 1400
      },
      {
        "type": "OVC",
        "altitude": 2700
      }
    ],
    "weather": [],
    "flightCategory": "MVFR"
  },
  {
    "raw": "PAPB 152323Z AUTO 22006KT 10SM SCT009 08/04 A2977 RMK AO2 T00780044 TSNO PNO $",
    "station": "PAPB",
    "observationTime": 1750029780,
    "temperature": 7.8,
    "dewpoint": 4.4,
    "windDirection": 220,
    "windSpeed": 6,
    "visibility": 10,
    "altimeter": 1008.2,
    "clouds": [
      {
        "type": "SCT",
        "altitude": 900
      }
    ],
    "weather": [],
    "flightCategory": "VFR"
  },
  {
    "raw": "KVTN 152323Z AUTO 17008KT 10SM VCTS -RA SCT049 SCT060 26/22 A2994 RMK AO2 LTG DSNT W RAB13 TSB00E17 P0001 T02610217",
    "station": "KVTN",
    "observationTime": 1750029780,
    "temperature": 26.1,
    "dewpoint": 21.7,
    "windDirection": 170,
    "windSpeed": 8,
    "visibility": 10,
    "altimeter": 1014,
    "clouds": [
      {
        "type": "SCT",
        "altitude": 4900
      },
      {
        "type": "SCT",
        "altitude": 6000
      }
    ],
    "weather": [
      "VCTS -RA"
    ],
    "flightCategory": "VFR"
  },
  {
    "raw": "KTAZ 152323Z AUTO 10SM CLR 25/20 A3001 RMK AO2",
    "station": "KTAZ",
    "observationTime": 1750029780,
    "temperature": 25,
    "dewpoint": 20,
    "visibility": 10,
    "altimeter": 1016.3,
    "clouds": [
      {
        "type": "CLR"
      }
    ],
    "weather": [],
    "flightCategory": "VFR"
  },
  {
    "raw": "KRWF 152323Z AUTO 35003KT 8SM VCTS FEW030 BKN035 OVC044 21/18 A3004 RMK AO2 LTG DSNT SW AND W RAE2257 P0000 T02110183 $",
    "station": "KRWF",
    "observationTime": 1750029780,
    "temperature": 21.1,
    "dewpoint": 18.3,
    "windDirection": 350,
    "windSpeed": 3,
    "visibility": 8,
    "altimeter": 1017.4,
    "clouds": [
      {
        "type": "FEW",
        "altitude": 3000
      },
      {
        "type": "BKN",
        "altitude": 3500
      },
      {
        "type": "OVC",
        "altitude": 4400
      }
    ],
    "weather": [
      "VCTS"
    ],
    "flightCategory": "VFR"
  },
  {
    "raw": "KPGD 152323Z 24011KT 10SM FEW065 31/23 A3008 RMK AO2 LTG DSNT NE-SE T03110233",
    "station": "KPGD",
    "observationTime": 1750029780,
    "temperature": 31.1,
    "dewpoint": 23.3,
    "windDirection": 240,
    "windSpeed": 11,
    "visibility": 10,
    "altimeter": 1018.7,
    "clouds": [
      {
        "type": "FEW",
        "altitude": 6500
      }
    ],
    "weather": [],
    "flightCategory": "VFR"
  },
  {
    "raw": "KOXI 152323Z AUTO 10006KT 10SM CLR 28/09 A3004 RMK AO1",
    "station": "KOXI",
    "observationTime": 1750029780,
    "temperature": 28,
    "dewpoint": 9,
    "windDirection": 100,
    "windSpeed": 6,
    "visibility": 10,
    "altimeter": 1017.4,
    "clouds": [
      {
        "type": "CLR"
      }
    ],
    "weather": [],
    "flightCategory": "VFR"
  },
  {
    "raw": "KLNS 152323Z 08007KT 2 1/2SM BR OVC010 17/16 A3013 RMK AO2 CIG 007V013 T01670156",
    "station": "KLNS",
    "observationTime": 1750029780,
    "temperature": 16.7,
    "dewpoint": 15.6,
    "windDirection": 80,
    "windSpeed": 7,
    "visibility": 2.5,
    "altimeter": 1020.4,
    "clouds": [
      {
        "type": "OVC",
        "altitude": 1000
      }
    ],
    "weather": [
      "BR"
    ],
    "flightCategory": "IFR"
  },
  {
    "raw": "KECG 152323Z 08016KT 10SM TS BKN040 BKN050 OVC060 23/22 A3002 RMK AO2 LTG DSNT NE-S RAE12 TSE10B17 P0001 T02330222",
    "station": "KECG",
    "observationTime": 1750029780,
    "temperature": 23.3,
    "dewpoint": 22.2,
    "windDirection": 80,
    "windSpeed": 16,
    "visibility": 10,
    "altimeter": 1016.7,
    "clouds": [
      {
        "type": "BKN",
        "altitude": 4000
      },
      {
        "type": "BKN",
        "altitude": 5000
      },
      {
        "type": "OVC",
        "altitude": 6000
      }
    ],
    "weather": [
      "TS"
    ],
    "flightCategory": "VFR"
  },
  {
    "raw": "KDEQ 152323Z AUTO 17011KT 7SM VCTS -RA BKN037 BKN049 OVC060 24/23 A2991 RMK AO2 LTG DSNT NE AND E RAB2258 TSB2254E17 P0010 T02440233",
    "station": "KDEQ",
    "observationTime": 1750029780,
    "temperature": 24.4,
    "dewpoint": 23.3,
    "windDirection": 170,
    "windSpeed": 11,
    "visibility": 7,
    "altimeter": 1013,
    "clouds": [
      {
        "type": "BKN",
        "altitude": 3700
      },
      {
        "type": "BKN",
        "altitude": 4900
      },
      {
        "type": "OVC",
        "altitude": 6000
      }
    ],
    "weather": [
      "VCTS -RA"
    ],
    "flightCategory": "VFR"
  },
  {
    "raw": "KAFP 152323Z AUTO 20004KT 10SM CLR 30/22 A3001 RMK AO2 T02950216",
    "station": "KAFP",
    "observationTime": 1750029780,
    "temperature": 29.5,
    "dewpoint": 21.6,
    "windDirection": 200,
    "windSpeed": 4,
    "visibility": 10,
    "altimeter": 1016.3,
    "clouds": [
      {
        "type": "CLR"
      }
    ],
    "weather": [],
    "flightCategory": "VFR"
  },
  {
    "raw": "CYQU 152323Z 32010KT 20SM -SHRA SCT050TCU BKN090 BKN240 19/08 A3003 RMK TCU4AC1CI2 SLP184 DENSITY ALT 3100FT",
    "station": "CYQU",
    "observationTime": 1750029780,
    "temperature": 19,
    "dewpoint": 8,
    "windDirection": 320,
    "windSpeed": 10,
    "visibility": 20,
    "altimeter": 1017,
    "clouds": [
      {
        "type": "SCT",
        "altitude": 5000
      },
      {
        "type": "BKN",
        "altitude": 9000
      },
      {
        "type": "BKN",
        "altitude": 24000
      }
    ],
    "weather": [
      "-SHRA"
    ],
    "flightCategory": "VFR"
  },
  {
    "raw": "UNNT 152322Z 34003MPS 9999 BKN013 17/17 Q1006 R07/090070 R16/090070 NOSIG RMK QFE744/0993",
    "station": "UNNT",
    "observationTime": 1750029720,
    "temperature": 17,
    "dewpoint": 17,
    "windDirection": 340,
    "windSpeed": 6,
    "visibility": 6,
    "altimeter": 1006,
    "clouds": [
      {
        "type": "BKN",
        "altitude": 1300
      }
    ],
    "weather": [],
    "flightCategory": "MVFR"
  },
  {
    "raw": "MHTG 152322Z 26006KT 2000 RA FEW012 BKN026 OVC080 21/19 Q1019 A3009 NOSIG",
    "station": "MHTG",
    "observationTime": 1750029720,
    "temperature": 21,
    "dewpoint": 19,
    "windDirection": 260,
    "windSpeed": 6,
    "visibility": 1.24,
    "altimeter": 1019,
    "clouds": [
      {
        "type": "FEW",
        "altitude": 1200
      },
      {
        "type": "BKN",
        "altitude": 2600
      },
      {
        "type": "OVC",
        "altitude": 8000
      }
    ],
    "weather": [
      "RA"
    ],
    "flightCategory": "IFR"
  },
  {
    "raw": "KROW 152322Z 14021G37KT 10SM TS FEW120 29/11 A3005 RMK AO2 PK WND 14037/2322 LTG DSNT N AND E TSB18 T02890106",
    "station": "KROW",
    "observationTime": 1750029720,
    "temperature": 28.9,
    "dewpoint": 10.6,
    "windDirection": 140,
    "windSpeed": 21,
    "windGust": 37,
    "visibility": 10,
    "altimeter": 1017.7,
    "clouds": [
      {
        "type": "FEW",
        "altitude": 12000
      }
    ],
    "weather": [
      "TS"
    ],
    "flightCategory": "VFR"
  },
  {
    "raw": "KRDG 152322Z 08005KT 10SM OVC009 17/14 A3013 RMK AO2 T01720144",
    "station": "KRDG",
    "observationTime": 1750029720,
    "temperature": 17.2,
    "dewpoint": 14.4,
    "windDirection": 80,
    "windSpeed": 5,
    "visibility": 10,
    "altimeter": 1020.4,
    "clouds": [
      {
        "type": "OVC",
        "altitude": 900
      }
    ],
    "weather": [],
    "flightCategory": "IFR"
  },
  {
    "raw": "KMPO 152322Z AUTO 08004KT 3SM BR OVC002 13/13 A3016 RMK AO2 T01330128",
    "station": "KMPO",
    "observationTime": 1750029720,
    "temperature": 13.3,
    "dewpoint": 12.8,
    "windDirection": 80,
    "windSpeed": 4,
    "visibility": 3,
    "altimeter": 1021.4,
    "clouds": [
      {
        "type": "OVC",
        "altitude": 200
      }
    ],
    "weather": [
      "BR"
    ],
    "flightCategory": "LIFR"
  },
  {
    "raw": "KGLH 152322Z AUTO 18013G18KT 1/2SM +TSRA FG BKN016 BKN036 OVC095 24/24 A3000 RMK AO2 PK WND 18047/2308 LTG DSNT SE AND SW RAB2254 T02440239 PNO $",
    "station": "KGLH",
    "observationTime": 1750029720,
    "temperature": 24.4,
    "dewpoint": 23.9,
    "windDirection": 180,
    "windSpeed": 13,
    "windGust": 18,
    "visibility": 0.5,
    "altimeter": 1016,
    "clouds": [
      {
        "type": "BKN",
        "altitude": 1600
      },
      {
        "type": "BKN",
        "altitude": 3600
      },
      {
        "type": "OVC",
        "altitude": 9500
      }
    ],
    "weather": [
      "+TSRA FG"
    ],
    "flightCategory": "LIFR"
  },
  {
    "raw": "KCXO 152322Z 29005KT 1 3/4SM TSRA BR FEW016 BKN036 OVC050 23/22 A3005 RMK AO2 LTG DSNT ALQDS TSB02 P0026 T02280217 $",
    "station": "KCXO",
    "observationTime": 1750029720,
    "temperature": 22.8,
    "dewpoint": 21.7,
    "windDirection": 290,
    "windSpeed": 5,
    "visibility": 1.75,
    "altimeter": 1017.7,
    "clouds": [
      {
        "type": "FEW",
        "altitude": 1600
      },
      {
        "type": "BKN",
        "altitude": 3600
      },
      {
        "type": "OVC",
        "altitude": 5000
      }
    ],
    "weather": [
      "TSRA BR"
    ],
    "flightCategory": "IFR"
  },
  {
    "raw": "KCHA 152322Z 11006KT 10SM VCTS SCT037 SCT043 BKN080 26/23 A3003 RMK AO2 LTG DSNT E AND SE RAE05 TSB2259E16 P0005 T02610228",
    "station": "KCHA",
    "observationTime": 1750029720,
    "temperature": 26.1,
    "dewpoint": 22.8,
    "windDirection": 110,
    "windSpeed": 6,
    "visibility": 10,
    "altimeter": 1017,
    "clouds": [
      {
        "type": "SCT",
        "altitude": 3700
      },
      {
        "type": "SCT",
        "altitude": 4300
      },
      {
        "type": "BKN",
        "altitude": 8000
      }
    ],
    "weather": [
      "VCTS"
    ],
    "flightCategory": "VFR"
  },
  {
    "raw": "K4I3 152322Z 01004KT 10SM FEW046 26/18 A3002 RMK AO2",
    "station": "K4I3",
    "observationTime": 1750029720,
    "temperature": 26,
    "dewpoint": 18,
    "windDirection": 10,
    "windSpeed": 4,
    "visibility": 10,
    "altimeter": 1016.7,
    "clouds": [
      {
        "type": "FEW",
        "altitude": 4600
      }
    ],
    "weather": [],
    "flightCategory": "VFR"
  },
  {
    "raw": "CYDL 152322Z AUTO VRB14G19KT 9SM OVC086 17/05 A3001 RMK SLP165 DENSITY ALT 3500FT",
    "station": "CYDL",
    "observationTime": 1750029720,
    "temperature": 17,
    "dewpoint": 5,
    "windSpeed": 14,
    "windGust": 19,
    "visibility": 9,
    "altimeter": 1016.3,
    "clouds": [
      {
        "type": "OVC",
        "altitude": 8600
      }
    ],
    "weather": [],
    "flightCategory": "VFR"
  },
  {
    "raw": "UWKD 152321Z 36003MPS 4100 -RA BR OVC002 14/14 Q1003 R11/290050 NOSIG RMK QBB080 QFE742/0990",
    "station": "UWKD",
    "observationTime": 1750029660,
    "temperature": 14,
    "dewpoint": 14,
    "windDirection": 360,
    "windSpeed": 6,
    "visibility": 2.55,
    "altimeter": 1003,
    "clouds": [
      {
        "type": "OVC",
        "altitude": 200
      }
    ],
    "weather": [
      "-RA BR"
    ],
    "flightCategory": "LIFR"
  },
  {
    "raw": "RCSS 152321Z 27016KT 9999 FEW025 SCT070 BKN220 30/24 Q1007 WS R28 NOSIG RMK 27012G22KT/R10 A2975",
    "station": "RCSS",
    "observationTime": 1750029660,
    "temperature": 30,
    "dewpoint": 24,
    "windDirection": 270,
    "windSpeed": 16,
    "visibility": 6,
    "altimeter": 1007,
    "clouds": [
      {
        "type": "FEW",
        "altitude": 2500
      },
      {
        "type": "SCT",
        "altitude": 7000
      },
      {
        "type": "BKN",
        "altitude": 22000
      }
    ],
    "weather": [],
    "flightCategory": "VFR"
  },
  {
    "raw": "KVLL 152321Z VRB05KT 10SM CLR 26/11 A3008 RMK AO2",
    "station": "KVLL",
    "observationTime": 1750029660,
    "temperature": 26,
    "dewpoint": 11,
    "windSpeed": 5,
    "visibility": 10,
    "altimeter": 1018.7,
    "clouds": [
      {
        "type": "CLR"
      }
    ],
    "weather": [],
    "flightCategory": "VFR"
  },
  {
    "raw": "KSXS 152321Z AUTO 32006KT 2 3/4SM TS +RA BR SCT004 BKN020 BKN035 OVC044 26/24 A3007 RMK AO2 VIS 2 3/4V7 RAE2255RAB2255 TSE08TSB09 CIG 020V025 BKN020 V SCT SLP181",
    "station": "KSXS",
    "observationTime": 1750029660,
    "temperature": 26,
    "dewpoint": 24,
    "windDirection": 320,
    "windSpeed": 6,
    "visibility": 2.75,
    "altimeter": 1018.4,
    "clouds": [
      {
        "type": "SCT",
        "altitude": 400
      },
      {
        "type": "BKN",
        "altitude": 2000
      },
      {
        "type": "BKN",
        "altitude": 3500
      },
      {
        "type": "OVC",
        "altitude": 4400
      }
    ],
    "weather": [
      "TS +RA BR"
    ],
    "flightCategory": "IFR"
  },
  {
    "raw": "KODO 152321Z AUTO 15017G28KT 10SM SCT025 32/16 A2997 RMK AO2 PK WND 17030/2301 T03220161",
    "station": "KODO",
    "observationTime": 1750029660,
    "temperature": 32.2,
    "dewpoint": 16.1,
    "windDirection": 150,
    "windSpeed": 17,
    "windGust": 28,
    "visibility": 10,
    "altimeter": 1015,
    "clouds": [
      {
        "type": "SCT",
        "altitude": 2500
      }
    ],
    "weather": [],
    "flightCategory": "VFR"
  },
  {
    "raw": "KMWT 152321Z AUTO 10003KT 2SM -RA BR BKN017 BKN028 OVC050 23/22 A2994 RMK AO2 P0087 T02330217 $",
    "station": "KMWT",
    "observationTime": 1750029660,
    "temperature": 23.3,
    "dewpoint": 21.7,
    "windDirection": 100,
    "windSpeed": 3,
    "visibility": 2,
    "altimeter": 1014,
    "clouds": [
      {
        "type": "BKN",
        "altitude": 1700
      },
      {
        "type": "BKN",
        "altitude": 2800
      },
      {
        "type": "OVC",
        "altitude": 5000
      }
    ],
    "weather": [
      "-RA BR"
    ],
    "flightCategory": "IFR"
  },
  {
    "raw": "KHEF 152321Z 04005KT 2SM +RA BR BKN007 OVC017 19/19 A3008 RMK AO2 CIG 005V012 PNO $",
    "station": "KHEF",
    "observationTime": 1750029660,
    "temperature": 19,
    "dewpoint": 19,
    "windDirection": 40,
    "windSpeed": 5,
    "visibility": 2,
    "altimeter": 1018.7,
    "clouds": [
      {
        "type": "BKN",
        "altitude": 700
      },
      {
        "type": "OVC",
        "altitude": 1700
      }
    ],
    "weather": [
      "+RA BR"
    ],
    "flightCategory": "IFR"
  },
  {
    "raw": "KDUB 152321Z AUTO 29020G28KT 10SM CLR 27/M08 A3015 RMK AO2",
    "station": "KDUB",
    "observationTime": 1750029660,
    "temperature": 27,
    "dewpoint": -8,
    "windDirection": 290,
    "windSpeed": 20,
    "windGust": 28,
    "visibility": 10,
    "altimeter": 1021.1,
    "clouds": [
      {
        "type": "CLR"
      }
    ],
    "weather": [],
    "flightCategory": "VFR"
  },
  {
    "raw": "KAKQ 152321Z AUTO 09003KT 10SM VCTS SCT007 BKN010 BKN060 22/22 A3002 RMK AO2 LTG DSNT S-W T02220217",
    "station": "KAKQ",
    "observationTime": 1750029660,
    "temperature": 22.2,
    "dewpoint": 21.7,
    "windDirection": 90,
    "windSpeed": 3,
    "visibility": 10,
    "altimeter": 1016.7,
    "clouds": [
      {
        "type": "SCT",
        "altitude": 700
      },
      {
        "type": "BKN",
        "altitude": 1000
      },
      {
        "type": "BKN",
        "altitude": 6000
      }
    ],
    "weather": [
      "VCTS"
    ],
    "flightCategory": "MVFR"
  },
  {
    "raw": "CYPY 152321Z AUTO 14007KT 090V190 6SM HZ CLR 25/07 A2996 RMK SLP155 DENSITY ALT 2100FT",
    "station": "CYPY",
    "observationTime": 1750029660,
    "temperature": 25,
    "dewpoint": 7,
    "windDirection": 140,
    "windSpeed": 7,
    "visibility": 6,
    "altimeter": 1014.6,
    "clouds": [
      {
        "type": "CLR"
      }
    ],
    "weather": [
      "HZ"
    ],
    "flightCategory": "VFR"
  },
  {
    "raw": "YSRI 152320Z AUTO 00000KT 9999 // FEW001 07/05 Q1025",
    "station": "YSRI",
    "observationTime": 1750029600,
    "temperature": 7,
    "dewpoint": 5,
    "visibility": 6,
    "altimeter": 1025,
    "clouds": [
      {
        "type": "FEW",
        "altitude": 100
      }
    ],
    "weather": [],
    "flightCategory": "VFR"
  },
  {
    "raw": "YPJT 152320Z AUTO 00000KT 0050 FG OVC001 09/08 Q1021",
    "station": "YPJT",
    "observationTime": 1750029600,
    "temperature": 9,
    "dewpoint": 8,
    "visibility": 0.03,
    "altimeter": 1021,
    "clouds": [
      {
        "type": "OVC",
        "altitude": 100
      }
    ],
    "weather": [
      "FG"
    ],
    "flightCategory": "LIFR"
  },
  {
    "raw": "PKWA 152320Z AUTO 07012KT 10SM CLR 30/24 A2988 RMK AO2 T03020236",
    "station": "PKWA",
    "observationTime": 1750029600,
    "temperature": 30.2,
    "dewpoint": 23.6,
    "windDirection": 70,
    "windSpeed": 12,
    "visibility": 10,
    "altimeter": 1011.9,
    "clouds": [
      {
        "type": "CLR"
      }
    ],
    "weather": [],
    "flightCategory": "VFR"
  },
  {
    "raw": "PABV 152320Z AUTO 30004KT 10SM SCT018 12/08 A3007 RMK AO2",
    "station": "PABV",
    "observationTime": 1750029600,
    "temperature": 12,
    "dewpoint": 8,
    "windDirection": 300,
    "windSpeed": 4,
    "visibility": 10,
    "altimeter": 1018.4,
    "clouds": [
      {
        "type": "SCT",
        "altitude": 1800
      }
    ],
    "weather": [],
    "flightCategory": "VFR"
  },
  {
    "raw": "LWSK 152320Z VRB02KT CAVOK 15/09 Q1018 NOSIG",
    "station": "LWSK",
    "observationTime": 1750029600,
    "temperature": 15,
    "dewpoint": 9,
    "windSpeed": 2,
    "visibility": 6,
    "altimeter": 1018,
    "clouds": [
      {
        "type": "CAVOK"
      }
    ],
    "weather": [],
    "flightCategory": "VFR"
  },
  {
    "raw": "LSZS 152320Z AUTO 02009KT 9999 BKN048 11/10 Q1027",
    "station": "LSZS",
    "observationTime": 1750029600,
    "temperature": 11,
    "dewpoint": 10,
    "windDirection": 20,
    "windSpeed": 9,
    "visibility": 6,
    "altimeter": 1027,
    "clouds": [
      {
        "type": "BKN",
        "altitude": 4800
      }
    ],
    "weather": [],
    "flightCategory": "VFR"
  },
  {
    "raw": "LSZR 152320Z AUTO 28009KT 7000 -RA FEW015 SCT018 BKN023 18/16 Q1025 RERA",
    "station": "LSZR",
    "observationTime": 1750029600,
    "temperature": 18,
    "dewpoint": 16,
    "windDirection": 280,
    "windSpeed": 9,
    "visibility": 4.35,
    "altimeter": 1025,
    "clouds": [
      {
        "type": "FEW",
        "altitude": 1500
      },
      {
        "type": "SCT",
        "altitude": 1800
      },
      {
        "type": "BKN",
        "altitude": 2300
      }
    ],
    "weather": [
      "-RA"
    ],
    "flightCategory": "MVFR"
  },
  {
    "raw": "LSZL 152320Z AUTO 03005KT 360V060 9999NDV NCD 22/17 Q1018 RMK",
    "station": "LSZL",
    "observationTime": 1750029600,
    "temperature": 22,
    "dewpoint": 17,
    "windDirection": 30,
    "windSpeed": 5,
    "altimeter": 1018,
    "clouds": [
      {
        "type": "CLR"
      }
    ],
    "weather": [],
    "flightCategory": "VFR"
  },
  {
    "raw": "LSZH 152320Z AUTO VRB02KT 9999 FEW009 SCT050 17/15 Q1026 NOSIG",
    "station": "LSZH",
    "observationTime": 1750029600,
    "temperature": 17,
    "dewpoint": 15,
    "windSpeed": 2,
    "visibility": 6,
    "altimeter": 1026,
    "clouds": [
      {
        "type": "FEW",
        "altitude": 900
      },
      {
        "type": "SCT",
        "altitude": 5000
      }
    ],
    "weather": [],
    "flightCategory": "VFR"
  },
  {
    "raw": "LSZG 152320Z AUTO VRB02KT CAVOK 15/15 Q1026",
    "station": "LSZG",
    "observationTime": 1750029600,
    "temperature": 15,
    "dewpoint": 15,
    "windSpeed": 2,
    "visibility": 6,
    "altimeter": 1026,
    "clouds": [
      {
        "type": "CAVOK"
      }
    ],
    "weather": [],
    "flightCategory": "VFR"
  },
  {
    "raw": "LSZC 152320Z AUTO VRB05KT 9999 FEW022 BKN037 BKN041 19/14 Q1026",
    "station": "LSZC",
    "observationTime": 1750029600,
    "temperature": 19,
    "dewpoint": 14,
    "windSpeed": 5,
    "visibility": 6,
    "altimeter": 1026,
    "clouds": [
      {
        "type": "FEW",
        "altitude": 2200
      },
      {
        "type": "BKN",
        "altitude": 3700
      },
      {
        "type": "BKN",
        "altitude": 4100
      }
    ],
    "weather": [],
    "flightCategory": "VFR"
  },
  {
    "raw": "LSZB 152320Z AUTO VRB01KT 9999 SCT027 BKN030 16/14 Q1026",
    "station": "LSZB",
    "observationTime": 1750029600,
    "temperature": 16,
    "dewpoint": 14,
    "windSpeed": 1,
    "visibility": 6,
    "altimeter": 1026,
    "clouds": [
      {
        "type": "SCT",
        "altitude": 2700
      },
      {
        "type": "BKN",
        "altitude": 3000
      }
    ],
    "weather": [],
    "flightCategory": "VFR"
  },
  {
    "raw": "LSZA 152320Z AUTO VRB03KT 9999 SCT100 22/18 Q1017",
    "station": "LSZA",
    "observationTime": 1750029600,
    "temperature": 22,
    "dewpoint": 18,
    "windSpeed": 3,
    "visibility": 6,
    "altimeter": 1017,
    "clouds": [
      {
        "type": "SCT",
        "altitude": 10000
      }
    ],
    "weather": [],
    "flightCategory": "VFR"
  },
  {
    "raw": "LSMP 152320Z AUTO VRB02G12KT 9999NDV FEW088 16/13 Q1026 RMK",
    "station": "LSMP",
    "observationTime": 1750029600,
    "temperature": 16,
    "dewpoint": 13,
    "windSpeed": 2,
    "windGust": 12,
    "altimeter": 1026,
    "clouds": [
      {
        "type": "FEW",
        "altitude": 8800
      }
    ],
    "weather": [],
    "flightCategory": "VFR"
  },
  {
    "raw": "LSMM 152320Z AUTO 00000KT 9999NDV BKN044 OVC057 17/16 Q1026 RMK",
    "station": "LSMM",
    "observationTime": 1750029600,
    "temperature": 17,
    "dewpoint": 16,
    "altimeter": 1026,
    "clouds": [
      {
        "type": "BKN",
        "altitude": 4400
      },
      {
        "type": "OVC",
        "altitude": 5700
      }
    ],
    "weather": [],
    "flightCategory": "VFR"
  },
  {
    "raw": "LSME 152320Z AUTO 04003KT 350V080 9999NDV BKN035 OVC059 18/15 Q1026 RMK",
    "station": "LSME",
    "observationTime": 1750029600,
    "temperature": 18,
    "dewpoint": 15,
    "windDirection": 40,
    "windSpeed": 3,
    "altimeter": 1026,
    "clouds": [
      {
        "type": "BKN",
        "altitude": 3500
      },
      {
        "type": "OVC",
        "altitude": 5900
      }
    ],
    "weather": [],
    "flightCategory": "VFR"
  },
  {
    "raw": "LSGS 152320Z AUTO VRB02KT 9999 FEW090 20/14 Q1024",
    "station": "LSGS",
    "observationTime": 1750029600,
    "temperature": 20,
    "dewpoint": 14,
    "windSpeed": 2,
    "visibility": 6,
    "altimeter": 1024,
    "clouds": [
      {
        "type": "FEW",
        "altitude": 9000
      }
    ],
    "weather": [],
    "flightCategory": "VFR"
  },
  {
    "raw": "LSGG 152320Z AUTO 06005KT 9999 FEW076 19/14 Q1025 NOSIG",
    "station": "LSGG",
    "observationTime": 1750029600,
    "temperature": 19,
    "dewpoint": 14,
    "windDirection": 60,
    "windSpeed": 5,
    "visibility": 6,
    "altimeter": 1025,
    "clouds": [
      {
        "type": "FEW",
        "altitude": 7600
      }
    ],
    "weather": [],
    "flightCategory": "VFR"
  },
  {
    "raw": "LSGC 152320Z AUTO VRB01KT 9999 BKN007 12/11 Q1027",
    "station": "LSGC",
    "observationTime": 1750029600,
    "temperature": 12,
    "dewpoint": 11,
    "windSpeed": 1,
    "visibility": 6,
    "altimeter": 1027,
    "clouds": [
      {
        "type": "BKN",
        "altitude": 700
      }
    ],
    "weather": [],
    "flightCategory": "IFR"
  },
  {
    "raw": "LOWW 152320Z 33006KT CAVOK 22/16 Q1017 TEMPO SHRA",
    "station": "LOWW",
    "observationTime": 1750029600,
    "temperature": 22,
    "dewpoint": 16,
    "windDirection": 330,
    "windSpeed": 6,
    "visibility": 6,
    "altimeter": 1017,
    "clouds": [
      {
        "type": "CAVOK"
      }
    ],
    "weather": [],
    "flightCategory": "VFR"
  },
  {
    "raw": "LOWS 152320Z AUTO 17007KT 140V200 9999 -RA FEW050 SCT090 BKN100 18/17 Q1023",
    "station": "LOWS",
    "observationTime": 1750029600,
    "temperature": 18,
    "dewpoint": 17,
    "windDirection": 170,
    "windSpeed": 7,
    "visibility": 6,
    "altimeter": 1023,
    "clouds": [
      {
        "type": "FEW",
        "altitude": 5000
      },
      {
        "type": "SCT",
        "altitude": 9000
      },
      {
        "type": "BKN",
        "altitude": 10000
      }
    ],
    "weather": [
      "-RA"
    ],
    "flightCategory": "VFR"
  },
  {
    "raw": "LOWL 152320Z AUTO 25012KT 9999 -RA NCD 18/17 Q1020",
    "station": "LOWL",
    "observationTime": 1750029600,
    "temperature": 18,
    "dewpoint": 17,
    "windDirection": 250,
    "windSpeed": 12,
    "visibility": 6,
    "altimeter": 1020,
    "clouds": [
      {
        "type": "CLR"
      }
    ],
    "weather": [
      "-RA"
    ],
    "flightCategory": "VFR"
  },
  {
    "raw": "LOWK 152320Z AUTO 30003KT 9999 NCD 21/16 Q1019",
    "station": "LOWK",
    "observationTime": 1750029600,
    "temperature": 21,
    "dewpoint": 16,
    "windDirection": 300,
    "windSpeed": 3,
    "visibility": 6,
    "altimeter": 1019,
    "clouds": [
      {
        "type": "CLR"
      }
    ],
    "weather": [],
    "flightCategory": "VFR"
  },
  {
    "raw": "LOWI 152320Z AUTO 32005KT 9999 FEW009 SCT013 BKN090 17/15 Q1024",
    "station": "LOWI",
    "observationTime": 1750029600,
    "temperature": 17,
    "dewpoint": 15,
    "windDirection": 320,
    "windSpeed": 5,
    "visibility": 6,
    "altimeter": 1024,
    "clouds": [
      {
        "type": "FEW",
        "altitude": 900
      },
      {
        "type": "SCT",
        "altitude": 1300
      },
      {
        "type": "BKN",
        "altitude": 9000
      }
    ],
    "weather": [],
    "flightCategory": "VFR"
  },
  {
    "raw": "LOWG 152320Z AUTO VRB01KT 9999 NCD 21/16 Q1017",
    "station": "LOWG",
    "observationTime": 1750029600,
    "temperature": 21,
    "dewpoint": 16,
    "windSpeed": 1,
    "visibility": 6,
    "altimeter": 1017,
    "clouds": [
      {
        "type": "CLR"
      }
    ],
    "weather": [],
    "flightCategory": "VFR"
  },
  {
    "raw": "LLBG 152320Z 16005KT 9999 SCT026 23/18 Q1008 NOSIG",
    "station": "LLBG",
    "observationTime": 1750029600,
    "temperature": 23,
    "dewpoint": 18,
    "windDirection": 160,
    "windSpeed": 5,
    "visibility": 6,
    "altimeter": 1008,
    "clouds": [
      {
        "type": "SCT",
        "altitude": 2600
      }
    ],
    "weather": [],
    "flightCategory": "VFR"
  },
  {
    "raw": "LIRZ 152320Z AUTO VRB02KT 9999 NCD 24/18 Q1017",
    "station": "LIRZ",
    "observationTime": 1750029600,
    "temperature": 24,
    "dewpoint": 18,
    "windSpeed": 2,
    "visibility": 6,
    "altimeter": 1017,
    "clouds": [
      {
        "type": "CLR"
      }
    ],
    "weather": [],
    "flightCategory": "VFR"
  },
  {
    "raw": "LIRQ 152320Z 22004KT 200V260 CAVOK 24/21 Q1017",
    "station": "LIRQ",
    "observationTime": 1750029600,
    "temperature": 24,
    "dewpoint": 21,
    "windDirection": 220,
    "windSpeed": 4,
    "visibility": 6,
    "altimeter": 1017,
    "clouds": [
      {
        "type": "CAVOK"
      }
    ],
    "weather": [],
    "flightCategory": "VFR"
  },
  {
    "raw": "LIRN 152320Z 18003KT 110V220 CAVOK 25/22 Q1017 NOSIG",
    "station": "LIRN",
    "observationTime": 1750029600,
    "temperature": 25,
    "dewpoint": 22,
    "windDirection": 180,
    "windSpeed": 3,
    "visibility": 6,
    "altimeter": 1017,
    "clouds": [
      {
        "type": "CAVOK"
      }
    ],
    "weather": [],
    "flightCategory": "VFR"
  },
  {
    "raw": "LIRF 152320Z 29003KT CAVOK 22/19 Q1016 NOSIG",
    "station": "LIRF",
    "observationTime": 1750029600,
    "temperature": 22,
    "dewpoint": 19,
    "windDirection": 290,
    "windSpeed": 3,
    "visibility": 6,
    "altimeter": 1016,
    "clouds": [
      {
        "type": "CAVOK"
      }
    ],
    "weather": [],
    "flightCategory": "VFR"
  },
  {
    "raw": "LIRA 152320Z VRB01KT CAVOK 24/16 Q1017",
    "station": "LIRA",
    "observationTime": 1750029600,
    "temperature": 24,
    "dewpoint": 16,
    "windSpeed": 1,
    "visibility": 6,
    "altimeter": 1017,
    "clouds": [
      {
        "type": "CAVOK"
      }
    ],
    "weather": [],
    "flightCategory": "VFR"
  },
  {
    "raw": "LIPZ 152320Z 04005KT CAVOK 26/22 Q1014 NOSIG",
    "station": "LIPZ",
    "observationTime": 1750029600,
    "temperature": 26,
    "dewpoint": 22,
    "windDirection": 40,
    "windSpeed": 5,
    "visibility": 6,
    "altimeter": 1014,
    "clouds": [
      {
        "type": "CAVOK"
      }
    ],
    "weather": [],
    "flightCategory": "VFR"
  },
  {
    "raw": "LIPY 152320Z AUTO 19003KT 140V230 9999 NCD 25/16 Q1014",
    "station": "LIPY",
    "observationTime": 1750029600,
    "temperature": 25,
    "dewpoint": 16,
    "windDirection": 190,
    "windSpeed": 3,
    "visibility": 6,
    "altimeter": 1014,
    "clouds": [
      {
        "type": "CLR"
      }
    ],
    "weather": [],
    "flightCategory": "VFR"
  },
  {
    "raw": "LIPX 152320Z VRB02KT 9999 SCT090 25/20 Q1014",
    "station": "LIPX",
    "observationTime": 1750029600,
    "temperature": 25,
    "dewpoint": 20,
    "windSpeed": 2,
    "visibility": 6,
    "altimeter": 1014,
    "clouds": [
      {
        "type": "SCT",
        "altitude": 9000
      }
    ],
    "weather": [],
    "flightCategory": "VFR"
  },
  {
    "raw": "LIPR 152320Z AUTO 21004KT 9999 NCD 25/20 Q1014",
    "station": "LIPR",
    "observationTime": 1750029600,
    "temperature": 25,
    "dewpoint": 20,
    "windDirection": 210,
    "windSpeed": 4,
    "visibility": 6,
    "altimeter": 1014,
    "clouds": [
      {
        "type": "CLR"
      }
    ],
    "weather": [],
    "flightCategory": "VFR"
  },
  {
    "raw": "LIPQ 152320Z AUTO 01003KT 9999 BKN170/// 24/21 Q1015",
    "station": "LIPQ",
    "observationTime": 1750029600,
    "temperature": 24,
    "dewpoint": 21,
    "windDirection": 10,
    "windSpeed": 3,
    "visibility": 6,
    "altimeter": 1015,
    "clouds": [
      {
        "type": "BKN",
        "altitude": 17000
      }
    ],
    "weather": [],
    "flightCategory": "VFR"
  },
  {
    "raw": "LIPO 152320Z AUTO 33003KT 280V010 9999 NCD 24/20 Q1015",
    "station": "LIPO",
    "observationTime": 1750029600,
    "temperature": 24,
    "dewpoint": 20,
    "windDirection": 330,
    "windSpeed": 3,
    "visibility": 6,
    "altimeter": 1015,
    "clouds": [
      {
        "type": "CLR"
      }
    ],
    "weather": [],
    "flightCategory": "VFR"
  },
  {
    "raw": "LIPH 152320Z AUTO 02010KT 9999 -TSRA BKN062/// BKN130/// 24/21 Q1015 RERA",
    "station": "LIPH",
    "observationTime": 1750029600,
    "temperature": 24,
    "dewpoint": 21,
    "windDirection": 20,
    "windSpeed": 10,
    "visibility": 6,
    "altimeter": 1015,
    "clouds": [
      {
        "type": "BKN",
        "altitude": 6200
      },
      {
        "type": "BKN",
        "altitude": 13000
      }
    ],
    "weather": [
      "-TSRA"
    ],
    "flightCategory": "VFR"
  },
  {
    "raw": "LIPE 152320Z 21006KT CAVOK 27/18 Q1014",
    "station": "LIPE",
    "observationTime": 1750029600,
    "temperature": 27,
    "dewpoint": 18,
    "windDirection": 210,
    "windSpeed": 6,
    "visibility": 6,
    "altimeter": 1014,
    "clouds": [
      {
        "type": "CAVOK"
      }
    ],
    "weather": [],
    "flightCategory": "VFR"
  },
  {
    "raw": "LIMZ 152320Z AUTO 27004KT 230V290 9999 NCD 20/14 Q1017",
    "station": "LIMZ",
    "observationTime": 1750029600,
    "temperature": 20,
    "dewpoint": 14,
    "windDirection": 270,
    "windSpeed": 4,
    "visibility": 6,
    "altimeter": 1017,
    "clouds": [
      {
        "type": "CLR"
      }
    ],
    "weather": [],
    "flightCategory": "VFR"
  },
  {
    "raw": "LIML 152320Z VRB01KT CAVOK 24/19 Q1015 NOSIG",
    "station": "LIML",
    "observationTime": 1750029600,
    "temperature": 24,
    "dewpoint": 19,
    "windSpeed": 1,
    "visibility": 6,
    "altimeter": 1015,
    "clouds": [
      {
        "type": "CAVOK"
      }
    ],
    "weather": [],
    "flightCategory": "VFR"
  },
  {
    "raw": "LIMJ 152320Z 05004KT CAVOK 24/21 Q1016",
    "station": "LIMJ",
    "observationTime": 1750029600,
    "temperature": 24,
    "dewpoint": 21,
    "windDirection": 50,
    "windSpeed": 4,
    "visibility": 6,
    "altimeter": 1016,
    "clouds": [
      {
        "type": "CAVOK"
      }
    ],
    "weather": [],
    "flightCategory": "VFR"
  },
  {
    "raw": "LIMF 152320Z 30007KT CAVOK 24/16 Q1016",
    "station": "LIMF",
    "observationTime": 1750029600,
    "temperature": 24,
    "dewpoint": 16,
    "windDirection": 300,
    "windSpeed": 7,
    "visibility": 6,
    "altimeter": 1016,
    "clouds": [
      {
        "type": "CAVOK"
      }
    ],
    "weather": [],
    "flightCategory": "VFR"
  },
  {
    "raw": "LIME 152320Z VRB02KT CAVOK 22/20 Q1015 NOSIG",
    "station": "LIME",
    "observationTime": 1750029600,
    "temperature": 22,
    "dewpoint": 20,
    "windSpeed": 2,
    "visibility": 6,
    "altimeter": 1015,
    "clouds": [
      {
        "type": "CAVOK"
      }
    ],
    "weather": [],
    "flightCategory": "VFR"
  },
  {
    "raw": "LIMC 152320Z 36004KT CAVOK 22/18 Q1016 NOSIG",
    "station": "LIMC",
    "observationTime": 1750029600,
    "temperature": 22,
    "dewpoint": 18,
    "windDirection": 360,
    "windSpeed": 4,
    "visibility": 6,
    "altimeter": 1016,
    "clouds": [
      {
        "type": "CAVOK"
      }
    ],
    "weather": [],
    "flightCategory": "VFR"
  },
  {
    "raw": "LIEO 152320Z AUTO 25007KT 9999 NCD 26/08 Q1017",
    "station": "LIEO",
    "observationTime": 1750029600,
    "temperature": 26,
    "dewpoint": 8,
    "windDirection": 250,
    "windSpeed": 7,
    "visibility": 6,
    "altimeter": 1017,
    "clouds": [
      {
        "type": "CLR"
      }
    ],
    "weather": [],
    "flightCategory": "VFR"
  },
  {
    "raw": "LIEE 152320Z 34005KT CAVOK 23/17 Q1017",
    "station": "LIEE",
    "observationTime": 1750029600,
    "temperature": 23,
    "dewpoint": 17,
    "windDirection": 340,
    "windSpeed": 5,
    "visibility": 6,
    "altimeter": 1017,
    "clouds": [
      {
        "type": "CAVOK"
      }
    ],
    "weather": [],
    "flightCategory": "VFR"
  },
  {
    "raw": "LIEA 152320Z 05003KT CAVOK 21/11 Q1018",
    "station": "LIEA",
    "observationTime": 1750029600,
    "temperature": 21,
    "dewpoint": 11,
    "windDirection": 50,
    "windSpeed": 3,
    "visibility": 6,
    "altimeter": 1018,
    "clouds": [
      {
        "type": "CAVOK"
      }
    ],
    "weather": [],
    "flightCategory": "VFR"
  },
  {
    "raw": "LICR 152320Z AUTO 01012KT 9999 NCD 26/21 Q1017",
    "station": "LICR",
    "observationTime": 1750029600,
    "temperature": 26,
    "dewpoint": 21,
    "windDirection": 10,
    "windSpeed": 12,
    "visibility": 6,
    "altimeter": 1017,
    "clouds": [
      {
        "type": "CLR"
      }
    ],
    "weather": [],
    "flightCategory": "VFR"
  },
  {
    "raw": "LICJ 152320Z 20005KT CAVOK 23/22 Q1017",
    "station": "LICJ",
    "observationTime": 1750029600,
    "temperature": 23,
    "dewpoint": 22,
    "windDirection": 200,
    "windSpeed": 5,
    "visibility": 6,
    "altimeter": 1017,
    "clouds": [
      {
        "type": "CAVOK"
      }
    ],
    "weather": [],
    "flightCategory": "VFR"
  },
  {
    "raw": "LICG 152320Z AUTO 04007KT 9999 NCD 25/09 Q1018",
    "station": "LICG",
    "observationTime": 1750029600,
    "temperature": 25,
    "dewpoint": 9,
    "windDirection": 40,
    "windSpeed": 7,
    "visibility": 6,
    "altimeter": 1018,
    "clouds": [
      {
        "type": "CLR"
      }
    ],
    "weather": [],
    "flightCategory": "VFR"
  },
  {
    "raw": "LICD 152320Z AUTO VRB01KT 9999 NCD 24/22 Q1017",
    "station": "LICD",
    "observationTime": 1750029600,
    "temperature": 24,
    "dewpoint": 22,
    "windSpeed": 1,
    "visibility": 6,
    "altimeter": 1017,
    "clouds": [
      {
        "type": "CLR"
      }
    ],
    "weather": [],
    "flightCategory": "VFR"
  },
  {
    "raw": "LICC 152320Z 27005KT CAVOK 22/18 Q1016",
    "station": "LICC",
    "observationTime": 1750029600,
    "temperature": 22,
    "dewpoint": 18,
    "windDirection": 270,
    "windSpeed": 5,
    "visibility": 6,
    "altimeter": 1016,
    "clouds": [
      {
        "type": "CAVOK"
      }
    ],
    "weather": [],
    "flightCategory": "VFR"
  },
  {
    "raw": "LICB 152320Z AUTO 04004KT 9999 NCD 21/08 Q1017",
    "station": "LICB",
    "observationTime": 1750029600,
    "temperature": 21,
    "dewpoint": 8,
    "windDirection": 40,
    "windSpeed": 4,
    "visibility": 6,
    "altimeter": 1017,
    "clouds": [
      {
        "type": "CLR"
      }
    ],
    "weather": [],
    "flightCategory": "VFR"
  },
  {
    "raw": "LICA 152320Z AUTO 20003KT 9999 FEW017/// SCT024/// 24/22 Q1017",
    "station": "LICA",
    "observationTime": 1750029600,
    "temperature": 24,
    "dewpoint": 22,
    "windDirection": 200,
    "windSpeed": 3,
    "visibility": 6,
    "altimeter": 1017,
    "clouds": [
      {
        "type": "FEW",
        "altitude": 1700
      },
      {
        "type": "SCT",
        "altitude": 2400
      }
    ],
    "weather": [],
    "flightCategory": "VFR"
  },
  {
    "raw": "LIBR 152320Z 31004KT CAVOK 21/20 Q1016",
    "station": "LIBR",
    "observationTime": 1750029600,
    "temperature": 21,
    "dewpoint": 20,
    "windDirection": 310,
    "windSpeed": 4,
    "visibility": 6,
    "altimeter": 1016,
    "clouds": [
      {
        "type": "CAVOK"
      }
    ],
    "weather": [],
    "flightCategory": "VFR"
  },
  {
    "raw": "LIBP 152320Z AUTO 23003KT 9999 BKN150/// 24/17 Q1015",
    "station": "LIBP",
    "observationTime": 1750029600,
    "temperature": 24,
    "dewpoint": 17,
    "windDirection": 230,
    "windSpeed": 3,
    "visibility": 6,
    "altimeter": 1015,
    "clouds": [
      {
        "type": "BKN",
        "altitude": 15000
      }
    ],
    "weather": [],
    "flightCategory": "VFR"
  },
  {
    "raw": "LIBD 152320Z 21005KT CAVOK 18/13 Q1016",
    "station": "LIBD",
    "observationTime": 1750029600,
    "temperature": 18,
    "dewpoint": 13,
    "windDirection": 210,
    "windSpeed": 5,
    "visibility": 6,
    "altimeter": 1016,
    "clouds": [
      {
        "type": "CAVOK"
      }
    ],
    "weather": [],
    "flightCategory": "VFR"
  },
  {
    "raw": "LGTS 152320Z 12004KT CAVOK 19/15 Q1017 NOSIG",
    "station": "LGTS",
    "observationTime": 1750029600,
    "temperature": 19,
    "dewpoint": 15,
    "windDirection": 120,
    "windSpeed": 4,
    "visibility": 6,
    "altimeter": 1017,
    "clouds": [
      {
        "type": "CAVOK"
      }
    ],
    "weather": [],
    "flightCategory": "VFR"
  },
  {
    "raw": "LGSO 152320Z AUTO 02011KT //// // ////// 22/16 Q1015 RE//",
    "station": "LGSO",
    "observationTime": 1750029600,
    "temperature": 22,
    "dewpoint": 16,
    "windDirection": 20,
    "windSpeed": 11,
    "altimeter": 1015,
    "clouds": [],
    "weather": [],
    "flightCategory": "VFR"
  },
  {
    "raw": "LGSA 152320Z 27004KT CAVOK 21/17 Q1015",
    "station": "LGSA",
    "observationTime": 1750029600,
    "temperature": 21,
    "dewpoint": 17,
    "windDirection": 270,
    "windSpeed": 4,
    "visibility": 6,
    "altimeter": 1015,
    "clouds": [
      {
        "type": "CAVOK"
      }
    ],
    "weather": [],
    "flightCategory": "VFR"
  },
  {
    "raw": "LGPA 152320Z AUTO 35007KT //// // ////// 20/16 Q1014 RE//",
    "station": "LGPA",
    "observationTime": 1750029600,
    "temperature": 20,
    "dewpoint": 16,
    "windDirection": 350,
    "windSpeed": 7,
    "altimeter": 1014,
    "clouds": [],
    "weather": [],
    "flightCategory": "VFR"
  },
  {
    "raw": "LGKZ 152320Z AUTO 33005KT 300V360 //// // ////// 18/08 Q1019 RE//",
    "station": "LGKZ",
    "observationTime": 1750029600,
    "temperature": 18,
    "dewpoint": 8,
    "windDirection": 330,
    "windSpeed": 5,
    "altimeter": 1019,
    "clouds": [],
    "weather": [],
    "flightCategory": "VFR"
  },
  {
    "raw": "LGKO 152320Z 36016KT CAVOK 23/13 Q1010",
    "station": "LGKO",
    "observationTime": 1750029600,
    "temperature": 23,
    "dewpoint": 13,
    "windDirection": 360,
    "windSpeed": 16,
    "visibility": 6,
    "altimeter": 1010,
    "clouds": [
      {
        "type": "CAVOK"
      }
    ],
    "weather": [],
    "flightCategory": "VFR"
  },
  {
    "raw": "LGKL 152320Z AUTO VRB02KT //// // ////// 19/16 Q1016 RE//",
    "station": "LGKL",
    "observationTime": 1750029600,
    "temperature": 19,
    "dewpoint": 16,
    "windSpeed": 2,
    "altimeter": 1016,
    "clouds": [],
    "weather": [],
    "flightCategory": "VFR"
  },
  {
    "raw": "LGIO 152320Z AUTO VRB01KT //// // ////// 17/17 Q1018 RE//",
    "station": "LGIO",
    "observationTime": 1750029600,
    "temperature": 17,
    "dewpoint": 17,
    "windSpeed": 1,
    "altimeter": 1018,
    "clouds": [],
    "weather": [],
    "flightCategory": "VFR"
  },
  {
    "raw": "LGEL 152320Z VRB03KT CAVOK 22/10 Q1016",
    "station": "LGEL",
    "observationTime": 1750029600,
    "temperature": 22,
    "dewpoint": 10,
    "windSpeed": 3,
    "visibility": 6,
    "altimeter": 1016,
    "clouds": [
      {
        "type": "CAVOK"
      }
    ],
    "weather": [],
    "flightCategory": "VFR"
  },
  {
    "raw": "LGAD 152320Z VRB03KT CAVOK 21/20 Q1016",
    "station": "LGAD",
    "observationTime": 1750029600,
    "temperature": 21,
    "dewpoint": 20,
    "windSpeed": 3,
    "visibility": 6,
    "altimeter": 1016,
    "clouds": [
      {
        "type": "CAVOK"
      }
    ],
    "weather": [],
    "flightCategory": "VFR"
  },
  {
    "raw": "LCRA 152320Z 26005KT CAVOK 23/21 Q1006 NOSIG",
    "station": "LCRA",
    "observationTime": 1750029600,
    "temperature": 23,
    "dewpoint": 21,
    "windDirection": 260,
    "windSpeed": 5,
    "visibility": 6,
    "altimeter": 1006,
    "clouds": [
      {
        "type": "CAVOK"
      }
    ],
    "weather": [],
    "flightCategory": "VFR"
  },
  {
    "raw": "LATI 152320Z 17003KT CAVOK 18/13 Q1016 NOSIG",
    "station": "LATI",
    "observationTime": 1750029600,
    "temperature": 18,
    "dewpoint": 13,
    "windDirection": 170,
    "windSpeed": 3,
    "visibility": 6,
    "altimeter": 1016,
    "clouds": [
      {
        "type": "CAVOK"
      }
    ],
    "weather": [],
    "flightCategory": "VFR"
  },
  {
    "raw": "KUKF 152320Z AUTO 20004KT 10SM CLR 23/21 A3009 RMK AO2",
    "station": "KUKF",
    "observationTime": 1750029600,
    "temperature": 23,
    "dewpoint": 21,
    "windDirection": 200,
    "windSpeed": 4,
    "visibility": 10,
    "altimeter": 1019,
    "clouds": [
      {
        "type": "CLR"
      }
    ],
    "weather": [],
    "flightCategory": "VFR"
  },
  {
    "raw": "KTDF 152320Z AUTO 19004KT 10SM CLR 26/22 A3002 RMK AO2 LTG DSNT ALQDS",
    "station": "KTDF",
    "observationTime": 1750029600,
    "temperature": 26,
    "dewpoint": 22,
    "windDirection": 190,
    "windSpeed": 4,
    "visibility": 10,
    "altimeter": 1016.7,
    "clouds": [
      {
        "type": "CLR"
      }
    ],
    "weather": [],
    "flightCategory": "VFR"
  },
  {
    "raw": "KSNL 152320Z AUTO 01004KT 10SM SCT029 28/19 A2996 RMK AO2 T02760187",
    "station": "KSNL",
    "observationTime": 1750029600,
    "temperature": 27.6,
    "dewpoint": 18.7,
    "windDirection": 10,
    "windSpeed": 4,
    "visibility": 10,
    "altimeter": 1014.6,
    "clouds": [
      {
        "type": "SCT",
        "altitude": 2900
      }
    ],
    "weather": [],
    "flightCategory": "VFR"
  },
  {
    "raw": "KQFX 152320Z AUTO 25001KT 9999 OVC013 23/23 / RMK A02 TSNO",
    "station": "KQFX",
    "observationTime": 1750029600,
    "temperature": 23,
    "dewpoint": 23,
    "windDirection": 250,
    "windSpeed": 1,
    "visibility": 6,
    "clouds": [
      {
        "type": "OVC",
        "altitude": 1300
      }
    ],
    "weather": [],
    "flightCategory": "MVFR"
  },
  {
    "raw": "KQFW 152320Z AUTO 18002KT 6000 OVC010 22/22 A2932 RMK A02 TSNO",
    "station": "KQFW",
    "observationTime": 1750029600,
    "temperature": 22,
    "dewpoint": 22,
    "windDirection": 180,
    "windSpeed": 2,
    "visibility": 3.73,
    "altimeter": 993,
    "clouds": [
      {
        "type": "OVC",
        "altitude": 1000
      }
    ],
    "weather": [],
    "flightCategory": "MVFR"
  },
  {
    "raw": "KQFV 152320Z AUTO 15001KT 9999 OVC005 22/21 A2951 RMK A02 TSNO",
    "station": "KQFV",
    "observationTime": 1750029600,
    "temperature": 22,
    "dewpoint": 21,
    "windDirection": 150,
    "windSpeed": 1,
    "visibility": 6,
    "altimeter": 999.4,
    "clouds": [
      {
        "type": "OVC",
        "altitude": 500
      }
    ],
    "weather": [],
    "flightCategory": "IFR"
  },
  {
    "raw": "KQFU 152320Z AUTO 20002KT 9999 OVC007 22/21 A2951 RMK A02 TSNO",
    "station": "KQFU",
    "observationTime": 1750029600,
    "temperature": 22,
    "dewpoint": 21,
    "windDirection": 200,
    "windSpeed": 2,
    "visibility": 6,
    "altimeter": 999.4,
    "clouds": [
      {
        "type": "OVC",
        "altitude": 700
      }
    ],
    "weather": [],
    "flightCategory": "IFR"
  },
  {
    "raw": "KQFT 152320Z AUTO 17002KT 9999 OVC009 23/23 A2945 RMK A02 TSNO",
    "station": "KQFT",
    "observationTime": 1750029600,
    "temperature": 23,
    "dewpoint": 23,
    "windDirection": 170,
    "windSpeed": 2,
    "visibility": 6,
    "altimeter": 997.4,
    "clouds": [
      {
        "type": "OVC",
        "altitude": 900
      }
    ],
    "weather": [],
    "flightCategory": "IFR"
  },
  {
    "raw": "KQFB 152320Z AUTO 12002KT 9999 OVC013 25/24 A2955 RMK A02 TSNO",
    "station": "KQFB",
    "observationTime": 1750029600,
    "temperature": 25,
    "dewpoint": 24,
    "windDirection": 120,
    "windSpeed": 2,
    "visibility": 6,
    "altimeter": 1000.8,
    "clouds": [
      {
        "type": "OVC",
        "altitude": 1300
      }
    ],
    "weather": [],
    "flightCategory": "MVFR"
  },
  {
    "raw": "KQEX 152320Z AUTO 17004KT 9999 BKN042 25/23 A2942 RMK A02 TSNO",
    "station": "KQEX",
    "observationTime": 1750029600,
    "temperature": 25,
    "dewpoint": 23,
    "windDirection": 170,
    "windSpeed": 4,
    "visibility": 6,
    "altimeter": 996.4,
    "clouds": [
      {
        "type": "BKN",
        "altitude": 4200
      }
    ],
    "weather": [],
    "flightCategory": "VFR"
  },
  {
    "raw": "KQEW 152320Z AUTO 22001KT 9000 // FEW021 SCT028 OVC060 23/21 A2949 RMK A02 TSNO",
    "station": "KQEW",
    "observationTime": 1750029600,
    "temperature": 23,
    "dewpoint": 21,
    "windDirection": 220,
    "windSpeed": 1,
    "visibility": 5.59,
    "altimeter": 998.7,
    "clouds": [
      {
        "type": "FEW",
        "altitude": 2100
      },
      {
        "type": "SCT",
        "altitude": 2800
      },
      {
        "type": "OVC",
        "altitude": 6000
      }
    ],
    "weather": [],
    "flightCategory": "VFR"
  },
  {
    "raw": "KQEV 152320Z AUTO 31002KT 9000 -SHRA OVC011 23/22 A2945 RMK A02 TSNO",
    "station": "KQEV",
    "observationTime": 1750029600,
    "temperature": 23,
    "dewpoint": 22,
    "windDirection": 310,
    "windSpeed": 2,
    "visibility": 5.59,
    "altimeter": 997.4,
    "clouds": [
      {
        "type": "OVC",
        "altitude": 1100
      }
    ],
    "weather": [
      "-SHRA"
    ],
    "flightCategory": "MVFR"
  },
  {
    "raw": "KQER 152320Z AUTO 28001KT 9999 OVC006 22/22 A2944 RMK A02 TSNO",
    "station": "KQER",
    "observationTime": 1750029600,
    "temperature": 22,
    "dewpoint": 22,
    "windDirection": 280,
    "windSpeed": 1,
    "visibility": 6,
    "altimeter": 997,
    "clouds": [
      {
        "type": "OVC",
        "altitude": 600
      }
    ],
    "weather": [],
    "flightCategory": "IFR"
  },
  {
    "raw": "KQEQ 152320Z AUTO 19003KT 6000 OVC004 21/21 A2949 RMK A02 TSNO",
    "station": "KQEQ",
    "observationTime": 1750029600,
    "temperature": 21,
    "dewpoint": 21,
    "windDirection": 190,
    "windSpeed": 3,
    "visibility": 3.73,
    "altimeter": 998.7,
    "clouds": [
      {
        "type": "OVC",
        "altitude": 400
      }
    ],
    "weather": [],
    "flightCategory": "LIFR"
  },
  {
    "raw": "KQEP 152320Z AUTO 17001KT 6000 OVC008 23/23 A2949 RMK A02 TSNO",
    "station": "KQEP",
    "observationTime": 1750029600,
    "temperature": 23,
    "dewpoint": 23,
    "windDirection": 170,
    "windSpeed": 1,
    "visibility": 3.73,
    "altimeter": 998.7,
    "clouds": [
      {
        "type": "OVC",
        "altitude": 800
      }
    ],
    "weather": [],
    "flightCategory": "IFR"
  },
  {
    "raw": "KQEN 152320Z AUTO 9999 OVC009 19/19 A2957 RMK A02 TSNO",
    "station": "KQEN",
    "observationTime": 1750029600,
    "temperature": 19,
    "dewpoint": 19,
    "visibility": 6,
    "altimeter": 1001.4,
    "clouds": [
      {
        "type": "OVC",
        "altitude": 900
      }
    ],
    "weather": [],
    "flightCategory": "IFR"
  },
  {
    "raw": "KQEJ 152320Z AUTO 05001KT 9999 BKN009 22/21 A2946 RMK A02 TSNO",
    "station": "KQEJ",
    "observationTime": 1750029600,
    "temperature": 22,
    "dewpoint": 21,
    "windDirection": 50,
    "windSpeed": 1,
    "visibility": 6,
    "altimeter": 997.7,
    "clouds": [
      {
        "type": "BKN",
        "altitude": 900
      }
    ],
    "weather": [],
    "flightCategory": "IFR"
  },
  {
    "raw": "KQEI 152320Z AUTO 26002KT 9999 OVC014 22/22 A2948 RMK A02 TSNO",
    "station": "KQEI",
    "observationTime": 1750029600,
    "temperature": 22,
    "dewpoint": 22,
    "windDirection": 260,
    "windSpeed": 2,
    "visibility": 6,
    "altimeter": 998.4,
    "clouds": [
      {
        "type": "OVC",
        "altitude": 1400
      }
    ],
    "weather": [],
    "flightCategory": "MVFR"
  },
  {
    "raw": "KPO1 152320Z AUTO 17010KT 10SM FEW100 FEW120 29/12 A2994 RMK AO2 TSNO",
    "station": "KPO1",
    "observationTime": 1750029600,
    "temperature": 29,
    "dewpoint": 12,
    "windDirection": 170,
    "windSpeed": 10,
    "visibility": 10,
    "altimeter": 1014,
    "clouds": [
      {
        "type": "FEW",
        "altitude": 10000
      },
      {
        "type": "FEW",
        "altitude": 12000
      }
    ],
    "weather": [],
    "flightCategory": "VFR"
  },
  {
    "raw": "KPGV 152320Z AUTO 20005KT 10SM VCTS CLR 30/25 A2999 RMK AO2 LTG DSNT NW THRU NE",
    "station": "KPGV",
    "observationTime": 1750029600,
    "temperature": 30,
    "dewpoint": 25,
    "windDirection": 200,
    "windSpeed": 5,
    "visibility": 10,
    "altimeter": 1015.7,
    "clouds": [
      {
        "type": "CLR"
      }
    ],
    "weather": [
      "VCTS"
    ],
    "flightCategory": "VFR"
  },
  {
    "raw": "KOYE 152320Z AUTO 16006KT 9SM CLR 29/25 A3003 RMK A01",
    "station": "KOYE",
    "observationTime": 1750029600,
    "temperature": 29,
    "dewpoint": 25,
    "windDirection": 160,
    "windSpeed": 6,
    "visibility": 9,
    "altimeter": 1017,
    "clouds": [
      {
        "type": "CLR"
      }
    ],
    "weather": [],
    "flightCategory": "VFR"
  },
  {
    "raw": "KOTG 152320Z AUTO 09010G22KT 040V140 4SM TSRA BR SCT015 BKN032 OVC050 22/20 A3003 RMK AO2 WSHFT 2306 LTG DSNT ALQDS RAB08 P0013",
    "station": "KOTG",
    "observationTime": 1750029600,
    "temperature": 22,
    "dewpoint": 20,
    "windDirection": 90,
    "windSpeed": 10,
    "windGust": 22,
    "visibility": 4,
    "altimeter": 1017,
    "clouds": [
      {
        "type": "SCT",
        "altitude": 1500
      },
      {
        "type": "BKN",
        "altitude": 3200
      },
      {
        "type": "OVC",
        "altitude": 5000
      }
    ],
    "weather": [
      "TSRA BR"
    ],
    "flightCategory": "MVFR"
  },
  {
    "raw": "KONX 152320Z AUTO 02004KT 3SM -RA BKN016 BKN029 OVC070 22/22 A3004 RMK AO2 P0022 T02230215",
    "station": "KONX",
    "observationTime": 1750029600,
    "temperature": 22.3,
    "dewpoint": 21.5,
    "windDirection": 20,
    "windSpeed": 4,
    "visibility": 3,
    "altimeter": 1017.4,
    "clouds": [
      {
        "type": "BKN",
        "altitude": 1600
      },
      {
        "type": "BKN",
        "altitude": 2900
      },
      {
        "type": "OVC",
        "altitude": 7000
      }
    ],
    "weather": [
      "-RA"
    ],
    "flightCategory": "MVFR"
  },
  {
    "raw": "KNFE 152320Z AUTO 00000KT 8SM -RA BKN110 22/22 A3004 RMK AO2 TSE19 PRESFR P0003 T02220222",
    "station": "KNFE",
    "observationTime": 1750029600,
    "temperature": 22.2,
    "dewpoint": 22.2,
    "visibility": 8,
    "altimeter": 1017.4,
    "clouds": [
      {
        "type": "BKN",
        "altitude": 11000
      }
    ],
    "weather": [
      "-RA"
    ],
    "flightCategory": "VFR"
  },
  {
    "raw": "KMHV 152320Z AUTO 30020KT 10SM CLR 37/M05 A2994 RMK AO2",
    "station": "KMHV",
    "observationTime": 1750029600,
    "temperature": 37,
    "dewpoint": -5,
    "windDirection": 300,
    "windSpeed": 20,
    "visibility": 10,
    "altimeter": 1014,
    "clouds": [
      {
        "type": "CLR"
      }
    ],
    "weather": [],
    "flightCategory": "VFR"
  },
  {
    "raw": "KM08 152320Z AUTO 21004KT 10SM 30/23 A2997 RMK A01",
    "station": "KM08",
    "observationTime": 1750029600,
    "temperature": 30,
    "dewpoint": 23,
    "windDirection": 210,
    "windSpeed": 4,
    "visibility": 10,
    "altimeter": 1015,
    "clouds": [],
    "weather": [],
    "flightCategory": "VFR"
  },
  {
    "raw": "KLWT 152320Z AUTO 09010KT 10SM FEW021 FEW031 22/15 A2997 RMK AO2 LTG DSNT E RAE12 P0000 T02170150",
    "station": "KLWT",
    "observationTime": 1750029600,
    "temperature": 21.7,
    "dewpoint": 15,
    "windDirection": 90,
    "windSpeed": 10,
    "visibility": 10,
    "altimeter": 1015,
    "clouds": [
      {
        "type": "FEW",
        "altitude": 2100
      },
      {
        "type": "FEW",
        "altitude": 3100
      }
    ],
    "weather": [],
    "flightCategory": "VFR"
  },
  {
    "raw": "KLHZ 152320Z AUTO 17005KT 10SM CLR 24/21 A3003 RMK AO2",
    "station": "KLHZ",
    "observationTime": 1750029600,
    "temperature": 24,
    "dewpoint": 21,
    "windDirection": 170,
    "windSpeed": 5,
    "visibility": 10,
    "altimeter": 1017,
    "clouds": [
      {
        "type": "CLR"
      }
    ],
    "weather": [],
    "flightCategory": "VFR"
  },
  {
    "raw": "KJSL 152320Z AUTO 16011KT 9SM CLR 29/24 A3002 RMK A01",
    "station": "KJSL",
    "observationTime": 1750029600,
    "temperature": 29,
    "dewpoint": 24,
    "windDirection": 160,
    "windSpeed": 11,
    "visibility": 9,
    "altimeter": 1016.7,
    "clouds": [
      {
        "type": "CLR"
      }
    ],
    "weather": [],
    "flightCategory": "VFR"
  },
  {
    "raw": "KJNX 152320Z AUTO 00000KT 10SM TS BKN044 BKN050 OVC085 25/23 A3000 RMK AO2 LTG DSNT ALQDS",
    "station": "KJNX",
    "observationTime": 1750029600,
    "temperature": 25,
    "dewpoint": 23,
    "visibility": 10,
    "altimeter": 1016,
    "clouds": [
      {
        "type": "BKN",
        "altitude": 4400
      },
      {
        "type": "BKN",
        "altitude": 5000
      },
      {
        "type": "OVC",
        "altitude": 8500
      }
    ],
    "weather": [
      "TS"
    ],
    "flightCategory": "VFR"
  },
  {
    "raw": "KIAH 152320Z 26015G23KT 4SM TSRA BR FEW007 BKN025CB OVC100 24/22 A3004 RMK AO2 PRESRR FRQ LTGICCCCG SW-N LN TS SW-N MOVG SE P0000 T02390217 $",
    "station": "KIAH",
    "observationTime": 1750029600,
    "temperature": 23.9,
    "dewpoint": 21.7,
    "windDirection": 260,
    "windSpeed": 15,
    "windGust": 23,
    "visibility": 4,
    "altimeter": 1017.4,
    "clouds": [
      {
        "type": "FEW",
        "altitude": 700
      },
      {
        "type": "BKN",
        "altitude": 2500
      },
      {
        "type": "OVC",
        "altitude": 10000
      }
    ],
    "weather": [
      "TSRA BR"
    ],
    "flightCategory": "MVFR"
  },
  {
    "raw": "KHGR 152320Z 07009KT 1 3/4SM -RA BR OVC008 18/17 A3010 RMK AO2 RAB16 CIG 006V010 P0001 T01830167 $",
    "station": "KHGR",
    "observationTime": 1750029600,
    "temperature": 18.3,
    "dewpoint": 16.7,
    "windDirection": 70,
    "windSpeed": 9,
    "visibility": 1.75,
    "altimeter": 1019.4,
    "clouds": [
      {
        "type": "OVC",
        "altitude": 800
      }
    ],
    "weather": [
      "-RA BR"
    ],
    "flightCategory": "IFR"
  },
  {
    "raw": "KGWW 152320Z AUTO 21005KT 10SM CLR 29/22 A2999 RMK AO2 T02850223",
    "station": "KGWW",
    "observationTime": 1750029600,
    "temperature": 28.5,
    "dewpoint": 22.3,
    "windDirection": 210,
    "windSpeed": 5,
    "visibility": 10,
    "altimeter": 1015.7,
    "clouds": [
      {
        "type": "CLR"
      }
    ],
    "weather": [],
    "flightCategory": "VFR"
  },
  {
    "raw": "KGNG 152320Z AUTO 26013KT 10SM CLR 31/01 A3000 RMK AO2",
    "station": "KGNG",
    "observationTime": 1750029600,
    "temperature": 31,
    "dewpoint": 1,
    "windDirection": 260,
    "windSpeed": 13,
    "visibility": 10,
    "altimeter": 1016,
    "clouds": [
      {
        "type": "CLR"
      }
    ],
    "weather": [],
    "flightCategory": "VFR"
  },
  {
    "raw": "KGHB 152320Z AUTO 16004KT 10SM FEW022 29/25 A3003 RMK A01",
    "station": "KGHB",
    "observationTime": 1750029600,
    "temperature": 29,
    "dewpoint": 25,
    "windDirection": 160,
    "windSpeed": 4,
    "visibility": 10,
    "altimeter": 1017,
    "clouds": [
      {
        "type": "FEW",
        "altitude": 2200
      }
    ],
    "weather": [],
    "flightCategory": "VFR"
  },
  {
    "raw": "KGEV 152320Z AUTO 25004KT 10SM SCT024 BKN029 OVC055 22/17 A3014 RMK AO2 LTG DSNT NE AND W T02200173",
    "station": "KGEV",
    "observationTime": 1750029600,
    "temperature": 22,
    "dewpoint": 17.3,
    "windDirection": 250,
    "windSpeed": 4,
    "visibility": 10,
    "altimeter": 1020.7,
    "clouds": [
      {
        "type": "SCT",
        "altitude": 2400
      },
      {
        "type": "BKN",
        "altitude": 2900
      },
      {
        "type": "OVC",
        "altitude": 5500
      }
    ],
    "weather": [],
    "flightCategory": "MVFR"
  },
  {
    "raw": "KFTK 152320Z AUTO 13003KT 4SM -RA BKN034 BKN046 BKN060 26/22 A2995 RMK AO2 LTG DSNT NW RAE2256RAB10 TSE2255TSB05E20 SLP137",
    "station": "KFTK",
    "observationTime": 1750029600,
    "temperature": 26,
    "dewpoint": 22,
    "windDirection": 130,
    "windSpeed": 3,
    "visibility": 4,
    "altimeter": 1014.3,
    "clouds": [
      {
        "type": "BKN",
        "altitude": 3400
      },
      {
        "type": "BKN",
        "altitude": 4600
      },
      {
        "type": "BKN",
        "altitude": 6000
      }
    ],
    "weather": [
      "-RA"
    ],
    "flightCategory": "MVFR"
  },
  {
    "raw": "KFFA 152320Z AUTO 00000KT 10SM SCT065 SCT090 SCT110 25/23 A3002 RMK AO2 T02520233",
    "station": "KFFA",
    "observationTime": 1750029600,
    "temperature": 25.2,
    "dewpoint": 23.3,
    "visibility": 10,
    "altimeter": 1016.7,
    "clouds": [
      {
        "type": "SCT",
        "altitude": 6500
      },
      {
        "type": "SCT",
        "altitude": 9000
      },
      {
        "type": "SCT",
        "altitude": 11000
      }
    ],
    "weather": [],
    "flightCategory": "VFR"
  },
  {
    "raw": "KF95 152320Z AUTO 00000KT 10SM FEW009 26/25 A3006 RMK AO2 LTG DSNT W",
    "station": "KF95",
    "observationTime": 1750029600,
    "temperature": 26,
    "dewpoint": 25,
    "visibility": 10,
    "altimeter": 1018,
    "clouds": [
      {
        "type": "FEW",
        "altitude": 900
      }
    ],
    "weather": [],
    "flightCategory": "VFR"
  },
  {
    "raw": "KEYF 152320Z AUTO 19009G16KT 10SM CLR 29/24 A3002 RMK AO2 LTG DSNT SW T02940244",
    "station": "KEYF",
    "observationTime": 1750029600,
    "temperature": 29.4,
    "dewpoint": 24.4,
    "windDirection": 190,
    "windSpeed": 9,
    "windGust": 16,
    "visibility": 10,
    "altimeter": 1016.7,
    "clouds": [
      {
        "type": "CLR"
      }
    ],
    "weather": [],
    "flightCategory": "VFR"
  },
  {
    "raw": "KEDU 152320Z AUTO 00000KT 10SM OVC001 30/05 A2993 RMK AO1",
    "station": "KEDU",
    "observationTime": 1750029600,
    "temperature": 30,
    "dewpoint": 5,
    "visibility": 10,
    "altimeter": 1013.6,
    "clouds": [
      {
        "type": "OVC",
        "altitude": 100
      }
    ],
    "weather": [],
    "flightCategory": "LIFR"
  },
  {
    "raw": "KEDE 152320Z AUTO 00000KT 10SM CLR 27/26 A3001 RMK AO2 T02720263",
    "station": "KEDE",
    "observationTime": 1750029600,
    "temperature": 27.2,
    "dewpoint": 26.3,
    "visibility": 10,
    "altimeter": 1016.3,
    "clouds": [
      {
        "type": "CLR"
      }
    ],
    "weather": [],
    "flightCategory": "VFR"
  },
  {
    "raw": "KDPL 152320Z AUTO 20006KT 10SM CLR 28/23 A3001 RMK AO2",
    "station": "KDPL",
    "observationTime": 1750029600,
    "temperature": 28,
    "dewpoint": 23,
    "windDirection": 200,
    "windSpeed": 6,
    "visibility": 10,
    "altimeter": 1016.3,
    "clouds": [
      {
        "type": "CLR"
      }
    ],
    "weather": [],
    "flightCategory": "VFR"
  },
  {
    "raw": "KDAA 152320Z AUTO 00000KT 1 3/8SM +RA BR OVC016 20/19 A3004 RMK AO2 VIS 7/8V1 3/8 SLP175 $",
    "station": "KDAA",
    "observationTime": 1750029600,
    "temperature": 20,
    "dewpoint": 19,
    "visibility": 1.38,
    "altimeter": 1017.4,
    "clouds": [
      {
        "type": "OVC",
        "altitude": 1600
      }
    ],
    "weather": [
      "+RA BR"
    ],
    "flightCategory": "IFR"
  },
  {
    "raw": "KCGS 152320Z AUTO 06006KT 7SM OVC009 19/18 A3009 RMK AO2 T01930176",
    "station": "KCGS",
    "observationTime": 1750029600,
    "temperature": 19.3,
    "dewpoint": 17.6,
    "windDirection": 60,
    "windSpeed": 6,
    "visibility": 7,
    "altimeter": 1019,
    "clouds": [
      {
        "type": "OVC",
        "altitude": 900
      }
    ],
    "weather": [],
    "flightCategory": "IFR"
  },
  {
    "raw": "KC99 152320Z AUTO 17005KT 10SM SCT120 15/01 A3056 RMK AO2",
    "station": "KC99",
    "observationTime": 1750029600,
    "temperature": 15,
    "dewpoint": 1,
    "windDirection": 170,
    "windSpeed": 5,
    "visibility": 10,
    "altimeter": 1035,
    "clouds": [
      {
        "type": "SCT",
        "altitude": 12000
      }
    ],
    "weather": [],
    "flightCategory": "VFR"
  },
  {
    "raw": "KABH 152320Z AUTO 18016G19KT 10SM FEW140 BKN200 29/06 A3015 RMK AO2 WSHFT 16 LTG DSNT NW SLP134",
    "station": "KABH",
    "observationTime": 1750029600,
    "temperature": 29,
    "dewpoint": 6,
    "windDirection": 180,
    "windSpeed": 16,
    "windGust": 19,
    "visibility": 10,
    "altimeter": 1021.1,
    "clouds": [
      {
        "type": "FEW",
        "altitude": 14000
      },
      {
        "type": "BKN",
        "altitude": 20000
      }
    ],
    "weather": [],
    "flightCategory": "VFR"
  },
  {
    "raw": "K40B 152320Z AUTO 00000KT 19/06 A3010 RMK AO1 SLP185 T01850062 54001",
    "station": "K40B",
    "observationTime": 1750029600,
    "temperature": 18.5,
    "dewpoint": 6.2,
    "altimeter": 1019.4,
    "clouds": [],
    "weather": [],
    "flightCategory": "VFR"
  },
  {
    "raw": "K3L4 152320Z AUTO 21013KT 10SM FEW025 31/30 A3000 RMK A01",
    "station": "K3L4",
    "observationTime": 1750029600,
    "temperature": 31,
    "dewpoint": 30,
    "windDirection": 210,
    "windSpeed": 13,
    "visibility": 10,
    "altimeter": 1016,
    "clouds": [
      {
        "type": "FEW",
        "altitude": 2500
      }
    ],
    "weather": [],
    "flightCategory": "VFR"
  },
  {
    "raw": "EYVI 152320Z VRB01KT CAVOK 13/09 Q1016 NOSIG",
    "station": "EYVI",
    "observationTime": 1750029600,
    "temperature": 13,
    "dewpoint": 9,
    "windSpeed": 1,
    "visibility": 6,
    "altimeter": 1016,
    "clouds": [
      {
        "type": "CAVOK"
      }
    ],
    "weather": [],
    "flightCategory": "VFR"
  },
  {
    "raw": "EYPA 152320Z AUTO 16002KT 9999 NCD 10/08 Q1015",
    "station": "EYPA",
    "observationTime": 1750029600,
    "temperature": 10,
    "dewpoint": 8,
    "windDirection": 160,
    "windSpeed": 2,
    "visibility": 6,
    "altimeter": 1015,
    "clouds": [
      {
        "type": "CLR"
      }
    ],
    "weather": [],
    "flightCategory": "VFR"
  },
  {
    "raw": "EYKA 152320Z AUTO 00000KT 9999 NCD 12/11 Q1016",
    "station": "EYKA",
    "observationTime": 1750029600,
    "temperature": 12,
    "dewpoint": 11,
    "visibility": 6,
    "altimeter": 1016,
    "clouds": [
      {
        "type": "CLR"
      }
    ],
    "weather": [],
    "flightCategory": "VFR"
  },
  {
    "raw": "EVVA 152320Z AUTO 00000KT 0450 FG NSC 06/06 Q1015",
    "station": "EVVA",
    "observationTime": 1750029600,
    "temperature": 6,
    "dewpoint": 6,
    "visibility": 0.28,
    "altimeter": 1015,
    "clouds": [
      {
        "type": "CLR"
      }
    ],
    "weather": [
      "FG"
    ],
    "flightCategory": "LIFR"
  },
  {
    "raw": "EVRA 152320Z 00000KT CAVOK 09/08 Q1015 NOSIG",
    "station": "EVRA",
    "observationTime": 1750029600,
    "temperature": 9,
    "dewpoint": 8,
    "visibility": 6,
    "altimeter": 1015,
    "clouds": [
      {
        "type": "CAVOK"
      }
    ],
    "weather": [],
    "flightCategory": "VFR"
  },
  {
    "raw": "EVLA 152320Z AUTO 10002KT 9999 NCD 07/06 Q1015",
    "station": "EVLA",
    "observationTime": 1750029600,
    "temperature": 7,
    "dewpoint": 6,
    "windDirection": 100,
    "windSpeed": 2,
    "visibility": 6,
    "altimeter": 1015,
    "clouds": [
      {
        "type": "CLR"
      }
    ],
    "weather": [],
    "flightCategory": "VFR"
  },
  {
    "raw": "EVGA 152320Z AUTO 00000KT CAVOK 10/09 Q1015",
    "station": "EVGA",
    "observationTime": 1750029600,
    "temperature": 10,
    "dewpoint": 9,
    "visibility": 6,
    "altimeter": 1015,
    "clouds": [
      {
        "type": "CAVOK"
      }
    ],
    "weather": [],
    "flightCategory": "VFR"
  },
  {
    "raw": "ETWM 152320Z AUTO VRB03KT //// // ////// 13/11 Q1024 ///",
    "station": "ETWM",
    "observationTime": 1750029600,
    "temperature": 13,
    "dewpoint": 11,
    "windSpeed": 3,
    "altimeter": 1024,
    "clouds": [],
    "weather": [],
    "flightCategory": "VFR"
  },
  {
    "raw": "ETSN 152320Z 30006KT 9999 -RA SCT012 BKN050 18/16 Q1022 BLU",
    "station": "ETSN",
    "observationTime": 1750029600,
    "temperature": 18,
    "dewpoint": 16,
    "windDirection": 300,
    "windSpeed": 6,
    "visibility": 6,
    "altimeter": 1022,
    "clouds": [
      {
        "type": "SCT",
        "altitude": 1200
      },
      {
        "type": "BKN",
        "altitude": 5000
      }
    ],
    "weather": [
      "-RA"
    ],
    "flightCategory": "VFR"
  },
  {
    "raw": "ETSL 152320Z 21009KT 8000 -SHRA SCT007 SCT020TCU BKN090 16/16 Q1023 RESHRA BLU",
    "station": "ETSL",
    "observationTime": 1750029600,
    "temperature": 16,
    "dewpoint": 16,
    "windDirection": 210,
    "windSpeed": 9,
    "visibility": 4.97,
    "altimeter": 1023,
    "clouds": [
      {
        "type": "SCT",
        "altitude": 700
      },
      {
        "type": "SCT",
        "altitude": 2000
      },
      {
        "type": "BKN",
        "altitude": 9000
      }
    ],
    "weather": [
      "-SHRA"
    ],
    "flightCategory": "MVFR"
  },
  {
    "raw": "ETSI 152320Z AUTO 26004KT //// // ////// 18/17 Q1022 ///",
    "station": "ETSI",
    "observationTime": 1750029600,
    "temperature": 18,
    "dewpoint": 17,
    "windDirection": 260,
    "windSpeed": 4,
    "altimeter": 1022,
    "clouds": [],
    "weather": [],
    "flightCategory": "VFR"
  },
  {
    "raw": "ETSH 152320Z 30007KT 9999 BKN045 16/14 Q1019 BLU",
    "station": "ETSH",
    "observationTime": 1750029600,
    "temperature": 16,
    "dewpoint": 14,
    "windDirection": 300,
    "windSpeed": 7,
    "visibility": 6,
    "altimeter": 1019,
    "clouds": [
      {
        "type": "BKN",
        "altitude": 4500
      }
    ],
    "weather": [],
    "flightCategory": "VFR"
  },
  {
    "raw": "ETSB 152320Z AUTO 34005KT //// // ////// 14/09 Q1025 ///",
    "station": "ETSB",
    "observationTime": 1750029600,
    "temperature": 14,
    "dewpoint": 9,
    "windDirection": 340,
    "windSpeed": 5,
    "altimeter": 1025,
    "clouds": [],
    "weather": [],
    "flightCategory": "VFR"
  },
  {
    "raw": "ETNW 152320Z 31006KT 9999 SCT220 16/11 Q1023 BLU+",
    "station": "ETNW",
    "observationTime": 1750029600,
    "temperature": 16,
    "dewpoint": 11,
    "windDirection": 310,
    "windSpeed": 6,
    "visibility": 6,
    "altimeter": 1023,
    "clouds": [
      {
        "type": "SCT",
        "altitude": 22000
      }
    ],
    "weather": [],
    "flightCategory": "VFR"
  },
  {
    "raw": "ETNT 152320Z AUTO 26004KT //// // ////// 13/12 Q1023 ///",
    "station": "ETNT",
    "observationTime": 1750029600,
    "temperature": 13,
    "dewpoint": 12,
    "windDirection": 260,
    "windSpeed": 4,
    "altimeter": 1023,
    "clouds": [],
    "weather": [],
    "flightCategory": "VFR"
  },
  {
    "raw": "ETNS 152320Z AUTO 26006KT //// // ////// 14/12 Q1020 ///",
    "station": "ETNS",
    "observationTime": 1750029600,
    "temperature": 14,
    "dewpoint": 12,
    "windDirection": 260,
    "windSpeed": 6,
    "altimeter": 1020,
    "clouds": [],
    "weather": [],
    "flightCategory": "VFR"
  },
  {
    "raw": "ETNL 152320Z 29008KT 9999 SCT009 BKN022 16/16 Q1018 WHT",
    "station": "ETNL",
    "observationTime": 1750029600,
    "temperature": 16,
    "dewpoint": 16,
    "windDirection": 290,
    "windSpeed": 8,
    "visibility": 6,
    "altimeter": 1018,
    "clouds": [
      {
        "type": "SCT",
        "altitude": 900
      },
      {
        "type": "BKN",
        "altitude": 2200
      }
    ],
    "weather": [],
    "flightCategory": "MVFR"
  },
  {
    "raw": "ETNH 152320Z AUTO 25007KT 9999 // ////// 14/13 Q1020 ///",
    "station": "ETNH",
    "observationTime": 1750029600,
    "temperature": 14,
    "dewpoint": 13,
    "windDirection": 250,
    "windSpeed": 7,
    "visibility": 6,
    "altimeter": 1020,
    "clouds": [],
    "weather": [],
    "flightCategory": "VFR"
  },
  {
    "raw": "ETMN 152320Z 29010KT 9999 BKN017 15/13 Q1022 WHT",
    "station": "ETMN",
    "observationTime": 1750029600,
    "temperature": 15,
    "dewpoint": 13,
    "windDirection": 290,
    "windSpeed": 10,
    "visibility": 6,
    "altimeter": 1022,
    "clouds": [
      {
        "type": "BKN",
        "altitude": 1700
      }
    ],
    "weather": [],
    "flightCategory": "MVFR"
  },
  {
    "raw": "ETHS 152320Z 28005KT 9999 BKN220 14/13 Q1022 BLU+",
    "station": "ETHS",
    "observationTime": 1750029600,
    "temperature": 14,
    "dewpoint": 13,
    "windDirection": 280,
    "windSpeed": 5,
    "visibility": 6,
    "altimeter": 1022,
    "clouds": [
      {
        "type": "BKN",
        "altitude": 22000
      }
    ],
    "weather": [],
    "flightCategory": "VFR"
  },
  {
    "raw": "ETHN 152320Z 33006KT 9999 -RA SCT060 BKN080 14/12 Q1024 BLU",
    "station": "ETHN",
    "observationTime": 1750029600,
    "temperature": 14,
    "dewpoint": 12,
    "windDirection": 330,
    "windSpeed": 6,
    "visibility": 6,
    "altimeter": 1024,
    "clouds": [
      {
        "type": "SCT",
        "altitude": 6000
      },
      {
        "type": "BKN",
        "altitude": 8000
      }
    ],
    "weather": [
      "-RA"
    ],
    "flightCategory": "VFR"
  },
  {
    "raw": "ETHL 152320Z 29007KT 9999 BKN013 15/13 Q1025 GRN",
    "station": "ETHL",
    "observationTime": 1750029600,
    "temperature": 15,
    "dewpoint": 13,
    "windDirection": 290,
    "windSpeed": 7,
    "visibility": 6,
    "altimeter": 1025,
    "clouds": [
      {
        "type": "BKN",
        "altitude": 1300
      }
    ],
    "weather": [],
    "flightCategory": "MVFR"
  },
  {
    "raw": "ETHF 152320Z 30003KT 9999 BKN060 BKN150 15/13 Q1023 BLU",
    "station": "ETHF",
    "observationTime": 1750029600,
    "temperature": 15,
    "dewpoint": 13,
    "windDirection": 300,
    "windSpeed": 3,
    "visibility": 6,
    "altimeter": 1023,
    "clouds": [
      {
        "type": "BKN",
        "altitude": 6000
      },
      {
        "type": "BKN",
        "altitude": 15000
      }
    ],
    "weather": [],
    "flightCategory": "VFR"
  },
  {
    "raw": "ETHC 152320Z 25004KT 9999 SCT080 BKN220 15/13 Q1022 BLU+",
    "station": "ETHC",
    "observationTime": 1750029600,
    "temperature": 15,
    "dewpoint": 13,
    "windDirection": 250,
    "windSpeed": 4,
    "visibility": 6,
    "altimeter": 1022,
    "clouds": [
      {
        "type": "SCT",
        "altitude": 8000
      },
      {
        "type": "BKN",
        "altitude": 22000
      }
    ],
    "weather": [],
    "flightCategory": "VFR"
  },
  {
    "raw": "ETHB 152320Z AUTO 34004KT 9999 // ////// 15/12 Q1023 ///",
    "station": "ETHB",
    "observationTime": 1750029600,
    "temperature": 15,
    "dewpoint": 12,
    "windDirection": 340,
    "windSpeed": 4,
    "visibility": 6,
    "altimeter": 1023,
    "clouds": [],
    "weather": [],
    "flightCategory": "VFR"
  },
  {
    "raw": "ETHA 152320Z AUTO 30007KT 9999 // ////// 15/14 Q1025 ///",
    "station": "ETHA",
    "observationTime": 1750029600,
    "temperature": 15,
    "dewpoint": 14,
    "windDirection": 300,
    "windSpeed": 7,
    "visibility": 6,
    "altimeter": 1025,
    "clouds": [],
    "weather": [],
    "flightCategory": "VFR"
  },
  {
    "raw": "ETGG 152320Z AUTO 26012KT 9999 // ////// 14/13 Q1020 ///",
    "station": "ETGG",
    "observationTime": 1750029600,
    "temperature": 14,
    "dewpoint": 13,
    "windDirection": 260,
    "windSpeed": 12,
    "visibility": 6,
    "altimeter": 1020,
    "clouds": [],
    "weather": [],
    "flightCategory": "VFR"
  },
  {
    "raw": "ESUT 152320Z AUTO 12012KT 090V150 9999 SCT090/// BKN140/// 16/11 Q1011",
    "station": "ESUT",
    "observationTime": 1750029600,
    "temperature": 16,
    "dewpoint": 11,
    "windDirection": 120,
    "windSpeed": 12,
    "visibility": 6,
    "altimeter": 1011,
    "clouds": [
      {
        "type": "SCT",
        "altitude": 9000
      },
      {
        "type": "BKN",
        "altitude": 14000
      }
    ],
    "weather": [],
    "flightCategory": "VFR"
  },
  {
    "raw": "ESUP 152320Z AUTO 36003KT 300V020 7000 ///////// 05/02 Q1018",
    "station": "ESUP",
    "observationTime": 1750029600,
    "temperature": 5,
    "dewpoint": 2,
    "windDirection": 360,
    "windSpeed": 3,
    "visibility": 4.35,
    "altimeter": 1018,
    "clouds": [],
    "weather": [],
    "flightCategory": "MVFR"
  },
  {
    "raw": "ESTL 152320Z AUTO 29012KT 8000 DZ OVC003/// ///// Q1016",
    "station": "ESTL",
    "observationTime": 1750029600,
    "windDirection": 290,
    "windSpeed": 12,
    "visibility": 4.97,
    "altimeter": 1016,
    "clouds": [
      {
        "type": "OVC",
        "altitude": 300
      }
    ],
    "weather": [
      "DZ"
    ],
    "flightCategory": "LIFR"
  },
  {
    "raw": "ESTA 152320Z AUTO 29006KT 9999 -RA SCT004/// OVC037/// 15/15 Q1017",
    "station": "ESTA",
    "observationTime": 1750029600,
    "temperature": 15,
    "dewpoint": 15,
    "windDirection": 290,
    "windSpeed": 6,
    "visibility": 6,
    "altimeter": 1017,
    "clouds": [
      {
        "type": "SCT",
        "altitude": 400
      },
      {
        "type": "OVC",
        "altitude": 3700
      }
    ],
    "weather": [
      "-RA"
    ],
    "flightCategory": "VFR"
  },
  {
    "raw": "ESSV 152320Z AUTO 20012KT 9999 NCD 16/08 Q1013",
    "station": "ESSV",
    "observationTime": 1750029600,
    "temperature": 16,
    "dewpoint": 8,
    "windDirection": 200,
    "windSpeed": 12,
    "visibility": 6,
    "altimeter": 1013,
    "clouds": [
      {
        "type": "CLR"
      }
    ],
    "weather": [],
    "flightCategory": "VFR"
  },
  {
    "raw": "ESST 152320Z AUTO 14003KT 100V170 4400 RA SCT010/// BKN023/// OVC090/// 16/15 Q1012",
    "station": "ESST",
    "observationTime": 1750029600,
    "temperature": 16,
    "dewpoint": 15,
    "windDirection": 140,
    "windSpeed": 3,
    "visibility": 2.73,
    "altimeter": 1012,
    "clouds": [
      {
        "type": "SCT",
        "altitude": 1000
      },
      {
        "type": "BKN",
        "altitude": 2300
      },
      {
        "type": "OVC",
        "altitude": 9000
      }
    ],
    "weather": [
      "RA"
    ],
    "flightCategory": "IFR"
  },
  {
    "raw": "ESSP 152320Z AUTO 00000KT 9999 BKN130/// OVC160/// 16/13 Q1012",
    "station": "ESSP",
    "observationTime": 1750029600,
    "temperature": 16,
    "dewpoint": 13,
    "visibility": 6,
    "altimeter": 1012,
    "clouds": [
      {
        "type": "BKN",
        "altitude": 13000
      },
      {
        "type": "OVC",
        "altitude": 16000
      }
    ],
    "weather": [],
    "flightCategory": "VFR"
  },
  {
    "raw": "ESSL 152320Z AUTO 29009KT 9999 FEW170/// BKN220/// 18/13 Q1013",
    "station": "ESSL",
    "observationTime": 1750029600,
    "temperature": 18,
    "dewpoint": 13,
    "windDirection": 290,
    "windSpeed": 9,
    "visibility": 6,
    "altimeter": 1013,
    "clouds": [
      {
        "type": "FEW",
        "altitude": 17000
      },
      {
        "type": "BKN",
        "altitude": 22000
      }
    ],
    "weather": [],
    "flightCategory": "VFR"
  },
  {
    "raw": "ESSD 152320Z AUTO 25003KT 9999 OVC098/// 18/14 Q1012",
    "station": "ESSD",
    "observationTime": 1750029600,
    "temperature": 18,
    "dewpoint": 14,
    "windDirection": 250,
    "windSpeed": 3,
    "visibility": 6,
    "altimeter": 1012,
    "clouds": [
      {
        "type": "OVC",
        "altitude": 9800
      }
    ],
    "weather": [],
    "flightCategory": "VFR"
  },
  {
    "raw": "ESSB 152320Z AUTO 00000KT 9999 FEW090/// 15/11 Q1012",
    "station": "ESSB",
    "observationTime": 1750029600,
    "temperature": 15,
    "dewpoint": 11,
    "visibility": 6,
    "altimeter": 1012,
    "clouds": [
      {
        "type": "FEW",
        "altitude": 9000
      }
    ],
    "weather": [],
    "flightCategory": "VFR"
  },
  {
    "raw": "ESSA 152320Z 18006KT CAVOK 16/10 Q1012 NOSIG",
    "station": "ESSA",
    "observationTime": 1750029600,
    "temperature": 16,
    "dewpoint": 10,
    "windDirection": 180,
    "windSpeed": 6,
    "visibility": 6,
    "altimeter": 1012,
    "clouds": [
      {
        "type": "CAVOK"
      }
    ],
    "weather": [],
    "flightCategory": "VFR"
  },
  {
    "raw": "ESPE 152320Z AUTO VRB01KT 9999 NCD 09/06 Q1016",
    "station": "ESPE",
    "observationTime": 1750029600,
    "temperature": 9,
    "dewpoint": 6,
    "windSpeed": 1,
    "visibility": 6,
    "altimeter": 1016,
    "clouds": [
      {
        "type": "CLR"
      }
    ],
    "weather": [],
    "flightCategory": "VFR"
  },
  {
    "raw": "ESPA 152320Z AUTO 06005KT 9999 NCD 13/06 Q1016",
    "station": "ESPA",
    "observationTime": 1750029600,
    "temperature": 13,
    "dewpoint": 6,
    "windDirection": 60,
    "windSpeed": 5,
    "visibility": 6,
    "altimeter": 1016,
    "clouds": [
      {
        "type": "CLR"
      }
    ],
    "weather": [],
    "flightCategory": "VFR"
  },
  {
    "raw": "ESOW 152320Z AUTO VRB01KT 9999 FEW150/// 17/13 Q1012",
    "station": "ESOW",
    "observationTime": 1750029600,
    "temperature": 17,
    "dewpoint": 13,
    "windSpeed": 1,
    "visibility": 6,
    "altimeter": 1012,
    "clouds": [
      {
        "type": "FEW",
        "altitude": 15000
      }
    ],
    "weather": [],
    "flightCategory": "VFR"
  },
  {
    "raw": "ESOK 152320Z AUTO 22004KT 7000 -RA FEW008/// SCT035/// 15/15 Q1013",
    "station": "ESOK",
    "observationTime": 1750029600,
    "temperature": 15,
    "dewpoint": 15,
    "windDirection": 220,
    "windSpeed": 4,
    "visibility": 4.35,
    "altimeter": 1013,
    "clouds": [
      {
        "type": "FEW",
        "altitude": 800
      },
      {
        "type": "SCT",
        "altitude": 3500
      }
    ],
    "weather": [
      "-RA"
    ],
    "flightCategory": "MVFR"
  },
  {
    "raw": "ESOH 152320Z AUTO VRB02KT 9999 -RA BKN013/// BKN022/// OVC055/// 16/15 Q1013 RERA",
    "station": "ESOH",
    "observationTime": 1750029600,
    "temperature": 16,
    "dewpoint": 15,
    "windSpeed": 2,
    "visibility": 6,
    "altimeter": 1013,
    "clouds": [
      {
        "type": "BKN",
        "altitude": 1300
      },
      {
        "type": "BKN",
        "altitude": 2200
      },
      {
        "type": "OVC",
        "altitude": 5500
      }
    ],
    "weather": [
      "-RA"
    ],
    "flightCategory": "MVFR"
  },
  {
    "raw": "ESOE 152320Z AUTO 24005KT 9999 BKN092/// 18/13 Q1012",
    "station": "ESOE",
    "observationTime": 1750029600,
    "temperature": 18,
    "dewpoint": 13,
    "windDirection": 240,
    "windSpeed": 5,
    "visibility": 6,
    "altimeter": 1012,
    "clouds": [
      {
        "type": "BKN",
        "altitude": 9200
      }
    ],
    "weather": [],
    "flightCategory": "VFR"
  },
  {
    "raw": "ESNZ 152320Z AUTO 13010KT 9999 SCT130/// 17/13 Q1009",
    "station": "ESNZ",
    "observationTime": 1750029600,
    "temperature": 17,
    "dewpoint": 13,
    "windDirection": 130,
    "windSpeed": 10,
    "visibility": 6,
    "altimeter": 1009,
    "clouds": [
      {
        "type": "SCT",
        "altitude": 13000
      }
    ],
    "weather": [],
    "flightCategory": "VFR"
  },
  {
    "raw": "ESNX 152320Z AUTO 09004KT 9999 OVC120/// 11/06 Q1016",
    "station": "ESNX",
    "observationTime": 1750029600,
    "temperature": 11,
    "dewpoint": 6,
    "windDirection": 90,
    "windSpeed": 4,
    "visibility": 6,
    "altimeter": 1016,
    "clouds": [
      {
        "type": "OVC",
        "altitude": 12000
      }
    ],
    "weather": [],
    "flightCategory": "VFR"
  },
  {
    "raw": "ESNV 152320Z AUTO 11007KT 9999 FEW067/// SCT093/// BKN120/// 13/06 Q1013",
    "station": "ESNV",
    "observationTime": 1750029600,
    "temperature": 13,
    "dewpoint": 6,
    "windDirection": 110,
    "windSpeed": 7,
    "visibility": 6,
    "altimeter": 1013,
    "clouds": [
      {
        "type": "FEW",
        "altitude": 6700
      },
      {
        "type": "SCT",
        "altitude": 9300
      },
      {
        "type": "BKN",
        "altitude": 12000
      }
    ],
    "weather": [],
    "flightCategory": "VFR"
  },
  {
    "raw": "ESNU 152320Z 02004KT 340V070 CAVOK 14/04 Q1014",
    "station": "ESNU",
    "observationTime": 1750029600,
    "temperature": 14,
    "dewpoint": 4,
    "windDirection": 20,
    "windSpeed": 4,
    "visibility": 6,
    "altimeter": 1014,
    "clouds": [
      {
        "type": "CAVOK"
      }
    ],
    "weather": [],
    "flightCategory": "VFR"
  },
  {
    "raw": "ESNS 152320Z AUTO 01004KT 9999 FEW088/// BKN130/// 11/07 Q1015",
    "station": "ESNS",
    "observationTime": 1750029600,
    "temperature": 11,
    "dewpoint": 7,
    "windDirection": 10,
    "windSpeed": 4,
    "visibility": 6,
    "altimeter": 1015,
    "clouds": [
      {
        "type": "FEW",
        "altitude": 8800
      },
      {
        "type": "BKN",
        "altitude": 13000
      }
    ],
    "weather": [],
    "flightCategory": "VFR"
  },
  {
    "raw": "ESNQ 152320Z AUTO 09005KT 9999 NCD 06/01 Q1017",
    "station": "ESNQ",
    "observationTime": 1750029600,
    "temperature": 6,
    "dewpoint": 1,
    "windDirection": 90,
    "windSpeed": 5,
    "visibility": 6,
    "altimeter": 1017,
    "clouds": [
      {
        "type": "CLR"
      }
    ],
    "weather": [],
    "flightCategory": "VFR"
  },
  {
    "raw": "ESNO 152320Z AUTO 06006KT 010V090 9999 SCT072/// OVC130/// 13/03 Q1013",
    "station": "ESNO",
    "observationTime": 1750029600,
    "temperature": 13,
    "dewpoint": 3,
    "windDirection": 60,
    "windSpeed": 6,
    "visibility": 6,
    "altimeter": 1013,
    "clouds": [
      {
        "type": "SCT",
        "altitude": 7200
      },
      {
        "type": "OVC",
        "altitude": 13000
      }
    ],
    "weather": [],
    "flightCategory": "VFR"
  },
  {
    "raw": "ESNN 152320Z AUTO 33003KT 270V020 9999 SCT096/// OVC120/// 14/08 Q1012",
    "station": "ESNN",
    "observationTime": 1750029600,
    "temperature": 14,
    "dewpoint": 8,
    "windDirection": 330,
    "windSpeed": 3,
    "visibility": 6,
    "altimeter": 1012,
    "clouds": [
      {
        "type": "SCT",
        "altitude": 9600
      },
      {
        "type": "OVC",
        "altitude": 12000
      }
    ],
    "weather": [],
    "flightCategory": "VFR"
  },
  {
    "raw": "ESNL 152320Z AUTO 10002KT 9999 BKN059/// 13/04 Q1014",
    "station": "ESNL",
    "observationTime": 1750029600,
    "temperature": 13,
    "dewpoint": 4,
    "windDirection": 100,
    "windSpeed": 2,
    "visibility": 6,
    "altimeter": 1014,
    "clouds": [
      {
        "type": "BKN",
        "altitude": 5900
      }
    ],
    "weather": [],
    "flightCategory": "VFR"
  },
  {
    "raw": "ESNK 152320Z AUTO 27004KT 170V310 //// R17///// R35///// // OVC100/// 14/05 Q1012",
    "station": "ESNK",
    "observationTime": 1750029600,
    "temperature": 14,
    "dewpoint": 5,
    "windDirection": 270,
    "windSpeed": 4,
    "altimeter": 1012,
    "clouds": [
      {
        "type": "OVC",
        "altitude": 10000
      }
    ],
    "weather": [],
    "flightCategory": "VFR"
  },
  {
    "raw": "ESNG 152320Z AUTO 07005KT 9999 NCD ///// Q1017",
    "station": "ESNG",
    "observationTime": 1750029600,
    "windDirection": 70,
    "windSpeed": 5,
    "visibility": 6,
    "altimeter": 1017,
    "clouds": [
      {
        "type": "CLR"
      }
    ],
    "weather": [],
    "flightCategory": "VFR"
  },
  {
    "raw": "ESND 152320Z AUTO 00000KT 9999 OVC140/// 15/13 Q1010",
    "station": "ESND",
    "observationTime": 1750029600,
    "temperature": 15,
    "dewpoint": 13,
    "visibility": 6,
    "altimeter": 1010,
    "clouds": [
      {
        "type": "OVC",
        "altitude": 14000
      }
    ],
    "weather": [],
    "flightCategory": "VFR"
  },
  {
    "raw": "ESMX 152320Z AUTO 26005KT 9999 BKN053/// OVC068/// 18/15 Q1015",
    "station": "ESMX",
    "observationTime": 1750029600,
    "temperature": 18,
    "dewpoint": 15,
    "windDirection": 260,
    "windSpeed": 5,
    "visibility": 6,
    "altimeter": 1015,
    "clouds": [
      {
        "type": "BKN",
        "altitude": 5300
      },
      {
        "type": "OVC",
        "altitude": 6800
      }
    ],
    "weather": [],
    "flightCategory": "VFR"
  },
  {
    "raw": "ESMV 152320Z AUTO 26004KT 230V300 9999 -RA OVC074/// 16/15 Q1015",
    "station": "ESMV",
    "observationTime": 1750029600,
    "temperature": 16,
    "dewpoint": 15,
    "windDirection": 260,
    "windSpeed": 4,
    "visibility": 6,
    "altimeter": 1015,
    "clouds": [
      {
        "type": "OVC",
        "altitude": 7400
      }
    ],
    "weather": [
      "-RA"
    ],
    "flightCategory": "VFR"
  },
  {
    "raw": "ESMT 152320Z AUTO 30007KT 9999 -RA FEW004/// SCT009/// BKN048/// 16/15 Q1016 REDZ",
    "station": "ESMT",
    "observationTime": 1750029600,
    "temperature": 16,
    "dewpoint": 15,
    "windDirection": 300,
    "windSpeed": 7,
    "visibility": 6,
    "altimeter": 1016,
    "clouds": [
      {
        "type": "FEW",
        "altitude": 400
      },
      {
        "type": "SCT",
        "altitude": 900
      },
      {
        "type": "BKN",
        "altitude": 4800
      }
    ],
    "weather": [
      "-RA"
    ],
    "flightCategory": "VFR"
  },
  {
    "raw": "ESMS 152320Z 32009KT 8000 -RA BKN008 16/16 Q1016",
    "station": "ESMS",
    "observationTime": 1750029600,
    "temperature": 16,
    "dewpoint": 16,
    "windDirection": 320,
    "windSpeed": 9,
    "visibility": 4.97,
    "altimeter": 1016,
    "clouds": [
      {
        "type": "BKN",
        "altitude": 800
      }
    ],
    "weather": [
      "-RA"
    ],
    "flightCategory": "IFR"
  },
  {
    "raw": "ESMQ 152320Z AUTO 19003KT 9999 NCD 13/10 Q1014",
    "station": "ESMQ",
    "observationTime": 1750029600,
    "temperature": 13,
    "dewpoint": 10,
    "windDirection": 190,
    "windSpeed": 3,
    "visibility": 6,
    "altimeter": 1014,
    "clouds": [
      {
        "type": "CLR"
      }
    ],
    "weather": [],
    "flightCategory": "VFR"
  },
  {
    "raw": "ESMK 152320Z AUTO 28008KT 9999 -DZ SCT047/// BKN098/// 17/16 Q1015",
    "station": "ESMK",
    "observationTime": 1750029600,
    "temperature": 17,
    "dewpoint": 16,
    "windDirection": 280,
    "windSpeed": 8,
    "visibility": 6,
    "altimeter": 1015,
    "clouds": [
      {
        "type": "SCT",
        "altitude": 4700
      },
      {
        "type": "BKN",
        "altitude": 9800
      }
    ],
    "weather": [
      "-DZ"
    ],
    "flightCategory": "VFR"
  },
  {
    "raw": "ESKS 152320Z AUTO 20005KT 9999 OVC005/// 15/14 Q1012",
    "station": "ESKS",
    "observationTime": 1750029600,
    "temperature": 15,
    "dewpoint": 14,
    "windDirection": 200,
    "windSpeed": 5,
    "visibility": 6,
    "altimeter": 1012,
    "clouds": [
      {
        "type": "OVC",
        "altitude": 500
      }
    ],
    "weather": [],
    "flightCategory": "IFR"
  },
  {
    "raw": "ESKN 152320Z 08003KT CAVOK 15/13 Q1012",
    "station": "ESKN",
    "observationTime": 1750029600,
    "temperature": 15,
    "dewpoint": 13,
    "windDirection": 80,
    "windSpeed": 3,
    "visibility": 6,
    "altimeter": 1012,
    "clouds": [
      {
        "type": "CAVOK"
      }
    ],
    "weather": [],
    "flightCategory": "VFR"
  },
  {
    "raw": "ESKM 152320Z AUTO 23003KT 190V280 9999 -DZ SCT090/// 17/15 Q1011",
    "station": "ESKM",
    "observationTime": 1750029600,
    "temperature": 17,
    "dewpoint": 15,
    "windDirection": 230,
    "windSpeed": 3,
    "visibility": 6,
    "altimeter": 1011,
    "clouds": [
      {
        "type": "SCT",
        "altitude": 9000
      }
    ],
    "weather": [
      "-DZ"
    ],
    "flightCategory": "VFR"
  },
  {
    "raw": "ESIB 152320Z AUTO 25010KT 9999 OVC070/// 16/14 Q1014",
    "station": "ESIB",
    "observationTime": 1750029600,
    "temperature": 16,
    "dewpoint": 14,
    "windDirection": 250,
    "windSpeed": 10,
    "visibility": 6,
    "altimeter": 1014,
    "clouds": [
      {
        "type": "OVC",
        "altitude": 7000
      }
    ],
    "weather": [],
    "flightCategory": "VFR"
  },
  {
    "raw": "ESIA 152320Z AUTO 29010KT 9999 OVC068/// 18/15 Q1013",
    "station": "ESIA",
    "observationTime": 1750029600,
    "temperature": 18,
    "dewpoint": 15,
    "windDirection": 290,
    "windSpeed": 10,
    "visibility": 6,
    "altimeter": 1013,
    "clouds": [
      {
        "type": "OVC",
        "altitude": 6800
      }
    ],
    "weather": [],
    "flightCategory": "VFR"
  },
  {
    "raw": "ESGT 152320Z AUTO 23010KT 9999 FEW074/// BKN096/// BKN160/// 14/12 Q1015",
    "station": "ESGT",
    "observationTime": 1750029600,
    "temperature": 14,
    "dewpoint": 12,
    "windDirection": 230,
    "windSpeed": 10,
    "visibility": 6,
    "altimeter": 1015,
    "clouds": [
      {
        "type": "FEW",
        "altitude": 7400
      },
      {
        "type": "BKN",
        "altitude": 9600
      },
      {
        "type": "BKN",
        "altitude": 16000
      }
    ],
    "weather": [],
    "flightCategory": "VFR"
  },
  {
    "raw": "ESGP 152320Z AUTO 26006KT 9999 FEW010/// SCT013/// 14/12 Q1016",
    "station": "ESGP",
    "observationTime": 1750029600,
    "temperature": 14,
    "dewpoint": 12,
    "windDirection": 260,
    "windSpeed": 6,
    "visibility": 6,
    "altimeter": 1016,
    "clouds": [
      {
        "type": "FEW",
        "altitude": 1000
      },
      {
        "type": "SCT",
        "altitude": 1300
      }
    ],
    "weather": [],
    "flightCategory": "VFR"
  },
  {
    "raw": "ESGJ 152320Z AUTO 26005KT 9999 -DZ NCD 16/15 Q1015 REDZ",
    "station": "ESGJ",
    "observationTime": 1750029600,
    "temperature": 16,
    "dewpoint": 15,
    "windDirection": 260,
    "windSpeed": 5,
    "visibility": 6,
    "altimeter": 1015,
    "clouds": [
      {
        "type": "CLR"
      }
    ],
    "weather": [
      "-DZ"
    ],
    "flightCategory": "VFR"
  },
  {
    "raw": "ESGG 152320Z 26005KT 9999 SCT007 13/13 Q1016",
    "station": "ESGG",
    "observationTime": 1750029600,
    "temperature": 13,
    "dewpoint": 13,
    "windDirection": 260,
    "windSpeed": 5,
    "visibility": 6,
    "altimeter": 1016,
    "clouds": [
      {
        "type": "SCT",
        "altitude": 700
      }
    ],
    "weather": [],
    "flightCategory": "VFR"
  },
  {
    "raw": "ESDF 152320Z AUTO 01003KT 300V070 9999 BKN170/// 14/12 Q1014",
    "station": "ESDF",
    "observationTime": 1750029600,
    "temperature": 14,
    "dewpoint": 12,
    "windDirection": 10,
    "windSpeed": 3,
    "visibility": 6,
    "altimeter": 1014,
    "clouds": [
      {
        "type": "BKN",
        "altitude": 17000
      }
    ],
    "weather": [],
    "flightCategory": "VFR"
  },
  {
    "raw": "ESCM 152320Z AUTO 18003KT //// BKN130/// OVC160/// 18/12 Q1011",
    "station": "ESCM",
    "observationTime": 1750029600,
    "temperature": 18,
    "dewpoint": 12,
    "windDirection": 180,
    "windSpeed": 3,
    "altimeter": 1011,
    "clouds": [
      {
        "type": "BKN",
        "altitude": 13000
      },
      {
        "type": "OVC",
        "altitude": 16000
      }
    ],
    "weather": [],
    "flightCategory": "VFR"
  },
  {
    "raw": "ESCF 152320Z AUTO 28008KT 9999 SCT190/// 16/14 Q1013",
    "station": "ESCF",
    "observationTime": 1750029600,
    "temperature": 16,
    "dewpoint": 14,
    "windDirection": 280,
    "windSpeed": 8,
    "visibility": 6,
    "altimeter": 1013,
    "clouds": [
      {
        "type": "SCT",
        "altitude": 19000
      }
    ],
    "weather": [],
    "flightCategory": "VFR"
  },
  {
    "raw": "ENZV 152320Z 26007KT 9999 FEW009 SCT012 BKN016 13/11 Q1018",
    "station": "ENZV",
    "observationTime": 1750029600,
    "temperature": 13,
    "dewpoint": 11,
    "windDirection": 260,
    "windSpeed": 7,
    "visibility": 6,
    "altimeter": 1018,
    "clouds": [
      {
        "type": "FEW",
        "altitude": 900
      },
      {
        "type": "SCT",
        "altitude": 1200
      },
      {
        "type": "BKN",
        "altitude": 1600
      }
    ],
    "weather": [],
    "flightCategory": "MVFR"
  },
  {
    "raw": "ENWV 152320Z AUTO 22021KT 9999NDV BKN041/// 14/12 Q1020 W///S3",
    "station": "ENWV",
    "observationTime": 1750029600,
    "temperature": 14,
    "dewpoint": 12,
    "windDirection": 220,
    "windSpeed": 21,
    "altimeter": 1020,
    "clouds": [
      {
        "type": "BKN",
        "altitude": 4100
      }
    ],
    "weather": [],
    "flightCategory": "VFR"
  },
  {
    "raw": "ENVD 152320Z AUTO 30002KT 9999 OVC015/// 06/03 Q1018",
    "station": "ENVD",
    "observationTime": 1750029600,
    "temperature": 6,
    "dewpoint": 3,
    "windDirection": 300,
    "windSpeed": 2,
    "visibility": 6,
    "altimeter": 1018,
    "clouds": [
      {
        "type": "OVC",
        "altitude": 1500
      }
    ],
    "weather": [],
    "flightCategory": "MVFR"
  },
  {
    "raw": "ENVA 152320Z 27012KT CAVOK 16/13 Q1010 RMK WIND 670FT 28009KT",
    "station": "ENVA",
    "observationTime": 1750029600,
    "temperature": 16,
    "dewpoint": 13,
    "windDirection": 270,
    "windSpeed": 12,
    "visibility": 6,
    "altimeter": 1010,
    "clouds": [
      {
        "type": "CAVOK"
      }
    ],
    "weather": [],
    "flightCategory": "VFR"
  },
  {
    "raw": "ENUN 152320Z AUTO 06011KT CAVOK 10/08 Q1012 W09/S4",
    "station": "ENUN",
    "observationTime": 1750029600,
    "temperature": 10,
    "dewpoint": 8,
    "windDirection": 60,
    "windSpeed": 11,
    "visibility": 6,
    "altimeter": 1012,
    "clouds": [
      {
        "type": "CAVOK"
      }
    ],
    "weather": [],
    "flightCategory": "VFR"
  },
  {
    "raw": "ENUG 152320Z AUTO 05004KT 020V100 9999NDV OVC023/// 05/M01 Q1020 W///S4",
    "station": "ENUG",
    "observationTime": 1750029600,
    "temperature": 5,
    "dewpoint": -1,
    "windDirection": 50,
    "windSpeed": 4,
    "altimeter": 1020,
    "clouds": [
      {
        "type": "OVC",
        "altitude": 2300
      }
    ],
    "weather": [],
    "flightCategory": "MVFR"
  },
  {
    "raw": "ENTO 152320Z AUTO 21004KT 4600 // BKN004/// OVC005/// 14/14 Q1013",
    "station": "ENTO",
    "observationTime": 1750029600,
    "temperature": 14,
    "dewpoint": 14,
    "windDirection": 210,
    "windSpeed": 4,
    "visibility": 2.86,
    "altimeter": 1013,
    "clouds": [
      {
        "type": "BKN",
        "altitude": 400
      },
      {
        "type": "OVC",
        "altitude": 500
      }
    ],
    "weather": [],
    "flightCategory": "LIFR"
  },
  {
    "raw": "ENTC 152320Z 02011KT CAVOK 06/02 Q1017 RMK WIND 2600FT 13015KT",
    "station": "ENTC",
    "observationTime": 1750029600,
    "temperature": 6,
    "dewpoint": 2,
    "windDirection": 20,
    "windSpeed": 11,
    "visibility": 6,
    "altimeter": 1017,
    "clouds": [
      {
        "type": "CAVOK"
      }
    ],
    "weather": [],
    "flightCategory": "VFR"
  },
  {
    "raw": "ENST 152320Z AUTO 00000KT 9999 BKN074/// OVC118/// 15/12 Q1007 RMK WIND 0300FT 08004KT",
    "station": "ENST",
    "observationTime": 1750029600,
    "temperature": 15,
    "dewpoint": 12,
    "visibility": 6,
    "altimeter": 1007,
    "clouds": [
      {
        "type": "BKN",
        "altitude": 7400
      },
      {
        "type": "OVC",
        "altitude": 11800
      }
    ],
    "weather": [],
    "flightCategory": "VFR"
  },
  {
    "raw": "ENSS 152320Z AUTO 35015KT 9999 OVC013/// 06/03 Q1017 RMK WIND 0500FT 01022KT",
    "station": "ENSS",
    "observationTime": 1750029600,
    "temperature": 6,
    "dewpoint": 3,
    "windDirection": 350,
    "windSpeed": 15,
    "visibility": 6,
    "altimeter": 1017,
    "clouds": [
      {
        "type": "OVC",
        "altitude": 1300
      }
    ],
    "weather": [],
    "flightCategory": "MVFR"
  },
  {
    "raw": "ENSR 152320Z AUTO 12003KT 9999 NCD 04/03 Q1019 RMK WIND RWY 32 VRB01KT WIND 1119FT 08010KT",
    "station": "ENSR",
    "observationTime": 1750029600,
    "temperature": 4,
    "dewpoint": 3,
    "windDirection": 120,
    "windSpeed": 3,
    "visibility": 6,
    "altimeter": 1019,
    "clouds": [
      {
        "type": "CLR"
      }
    ],
    "weather": [],
    "flightCategory": "VFR"
  },
  {
    "raw": "ENSL 152320Z AUTO 24022KT 9999 SCT010/// BKN028/// BKN072/// 13/12 Q1017 W11/S3",
    "station": "ENSL",
    "observationTime": 1750029600,
    "temperature": 13,
    "dewpoint": 12,
    "windDirection": 240,
    "windSpeed": 22,
    "visibility": 6,
    "altimeter": 1017,
    "clouds": [
      {
        "type": "SCT",
        "altitude": 1000
      },
      {
        "type": "BKN",
        "altitude": 2800
      },
      {
        "type": "BKN",
        "altitude": 7200
      }
    ],
    "weather": [],
    "flightCategory": "MVFR"
  },
  {
    "raw": "ENSK 152320Z AUTO 08008KT 9999 NCD 10/04 Q1012",
    "station": "ENSK",
    "observationTime": 1750029600,
    "temperature": 10,
    "dewpoint": 4,
    "windDirection": 80,
    "windSpeed": 8,
    "visibility": 6,
    "altimeter": 1012,
    "clouds": [
      {
        "type": "CLR"
      }
    ],
    "weather": [],
    "flightCategory": "VFR"
  },
  {
    "raw": "ENSH 152320Z AUTO 03008KT 360V060 9999 NCD 12/03 Q1011 RMK WIND 0150FT VRB05KT",
    "station": "ENSH",
    "observationTime": 1750029600,
    "temperature": 12,
    "dewpoint": 3,
    "windDirection": 30,
    "windSpeed": 8,
    "visibility": 6,
    "altimeter": 1011,
    "clouds": [
      {
        "type": "CLR"
      }
    ],
    "weather": [],
    "flightCategory": "VFR"
  },
  {
    "raw": "ENSF 152320Z AUTO 27022KT 9999 BKN010/// 11/10 Q1012 W/////",
    "station": "ENSF",
    "observationTime": 1750029600,
    "temperature": 11,
    "dewpoint": 10,
    "windDirection": 270,
    "windSpeed": 22,
    "visibility": 6,
    "altimeter": 1012,
    "clouds": [
      {
        "type": "BKN",
        "altitude": 1000
      }
    ],
    "weather": [],
    "flightCategory": "MVFR"
  },
  {
    "raw": "ENSE 152320Z AUTO 28016KT 5000 SHRA BKN004/// OVC070/// 11/10 Q1012 W/////",
    "station": "ENSE",
    "observationTime": 1750029600,
    "temperature": 11,
    "dewpoint": 10,
    "windDirection": 280,
    "windSpeed": 16,
    "visibility": 3.11,
    "altimeter": 1012,
    "clouds": [
      {
        "type": "BKN",
        "altitude": 400
      },
      {
        "type": "OVC",
        "altitude": 7000
      }
    ],
    "weather": [
      "SHRA"
    ],
    "flightCategory": "LIFR"
  },
  {
    "raw": "ENSD 152320Z AUTO VRB02KT 9999 OVC033/// 15/12 Q1011 RMK WIND RWY 26 00000KT WIND 1140FT 20006KT",
    "station": "ENSD",
    "observationTime": 1750029600,
    "temperature": 15,
    "dewpoint": 12,
    "windSpeed": 2,
    "visibility": 6,
    "altimeter": 1011,
    "clouds": [
      {
        "type": "OVC",
        "altitude": 3300
      }
    ],
    "weather": [],
    "flightCategory": "VFR"
  },
  {
    "raw": "ENSB 152320Z 25008KT 8000 -DZ SCT010 BKN015 03/02 Q1012 RMK WIND 1400FT 26009KT",
    "station": "ENSB",
    "observationTime": 1750029600,
    "temperature": 3,
    "dewpoint": 2,
    "windDirection": 250,
    "windSpeed": 8,
    "visibility": 4.97,
    "altimeter": 1012,
    "clouds": [
      {
        "type": "SCT",
        "altitude": 1000
      },
      {
        "type": "BKN",
        "altitude": 1500
      }
    ],
    "weather": [
      "-DZ"
    ],
    "flightCategory": "MVFR"
  },
  {
    "raw": "ENRY 152320Z AUTO 20005KT 170V230 9000 FEW003/// BKN005/// BKN006/// 14/13 Q1013",
    "station": "ENRY",
    "observationTime": 1750029600,
    "temperature": 14,
    "dewpoint": 13,
    "windDirection": 200,
    "windSpeed": 5,
    "visibility": 5.59,
    "altimeter": 1013,
    "clouds": [
      {
        "type": "FEW",
        "altitude": 300
      },
      {
        "type": "BKN",
        "altitude": 500
      },
      {
        "type": "BKN",
        "altitude": 600
      }
    ],
    "weather": [],
    "flightCategory": "IFR"
  },
  {
    "raw": "ENRS 152320Z AUTO 05011KT 9999 BKN127/// OVC157/// 11/07 Q1010",
    "station": "ENRS",
    "observationTime": 1750029600,
    "temperature": 11,
    "dewpoint": 7,
    "windDirection": 50,
    "windSpeed": 11,
    "visibility": 6,
    "altimeter": 1010,
    "clouds": [
      {
        "type": "BKN",
        "altitude": 12700
      },
      {
        "type": "OVC",
        "altitude": 15700
      }
    ],
    "weather": [],
    "flightCategory": "VFR"
  },
  {
    "raw": "ENRO 152320Z AUTO 18004KT 9999 OVC028/// 16/12 Q1010",
    "station": "ENRO",
    "observationTime": 1750029600,
    "temperature": 16,
    "dewpoint": 12,
    "windDirection": 180,
    "windSpeed": 4,
    "visibility": 6,
    "altimeter": 1010,
    "clouds": [
      {
        "type": "OVC",
        "altitude": 2800
      }
    ],
    "weather": [],
    "flightCategory": "MVFR"
  },
  {
    "raw": "ENRM 152320Z AUTO 25004KT 9999 FEW006/// BKN094/// 13/12 Q1009",
    "station": "ENRM",
    "observationTime": 1750029600,
    "temperature": 13,
    "dewpoint": 12,
    "windDirection": 250,
    "windSpeed": 4,
    "visibility": 6,
    "altimeter": 1009,
    "clouds": [
      {
        "type": "FEW",
        "altitude": 600
      },
      {
        "type": "BKN",
        "altitude": 9400
      }
    ],
    "weather": [],
    "flightCategory": "VFR"
  },
  {
    "raw": "ENRA 152320Z AUTO 08009KT 050V190 9999 BKN067/// 19/09 Q1010",
    "station": "ENRA",
    "observationTime": 1750029600,
    "temperature": 19,
    "dewpoint": 9,
    "windDirection": 80,
    "windSpeed": 9,
    "visibility": 6,
    "altimeter": 1010,
    "clouds": [
      {
        "type": "BKN",
        "altitude": 6700
      }
    ],
    "weather": [],
    "flightCategory": "VFR"
  },
  {
    "raw": "ENQR 152320Z AUTO 25019KT 8000 -RA OVC004/// 11/11 Q1011 W23///",
    "station": "ENQR",
    "observationTime": 1750029600,
    "temperature": 11,
    "dewpoint": 11,
    "windDirection": 250,
    "windSpeed": 19,
    "visibility": 4.97,
    "altimeter": 1011,
    "clouds": [
      {
        "type": "OVC",
        "altitude": 400
      }
    ],
    "weather": [
      "-RA"
    ],
    "flightCategory": "LIFR"
  },
  {
    "raw": "ENQC 152320Z AUTO 22017KT 5000 BKN005/// OVC073/// 11/11 Q1013 W///S3",
    "station": "ENQC",
    "observationTime": 1750029600,
    "temperature": 11,
    "dewpoint": 11,
    "windDirection": 220,
    "windSpeed": 17,
    "visibility": 3.11,
    "altimeter": 1013,
    "clouds": [
      {
        "type": "BKN",
        "altitude": 500
      },
      {
        "type": "OVC",
        "altitude": 7300
      }
    ],
    "weather": [],
    "flightCategory": "IFR"
  },
  {
    "raw": "ENQA 152320Z AUTO 22018KT 9999 FEW008/// BKN081/// OVC100/// 11/10 Q1014 W10/S3",
    "station": "ENQA",
    "observationTime": 1750029600,
    "temperature": 11,
    "dewpoint": 10,
    "windDirection": 220,
    "windSpeed": 18,
    "visibility": 6,
    "altimeter": 1014,
    "clouds": [
      {
        "type": "FEW",
        "altitude": 800
      },
      {
        "type": "BKN",
        "altitude": 8100
      },
      {
        "type": "OVC",
        "altitude": 10000
      }
    ],
    "weather": [],
    "flightCategory": "VFR"
  },
  {
    "raw": "ENOV 152320Z AUTO VRB02KT 9999 OVC028/// 13/12 Q1011 RMK WIND RWY 24 VRB01KT WIND 2090FT 18005KT",
    "station": "ENOV",
    "observationTime": 1750029600,
    "temperature": 13,
    "dewpoint": 12,
    "windSpeed": 2,
    "visibility": 6,
    "altimeter": 1011,
    "clouds": [
      {
        "type": "OVC",
        "altitude": 2800
      }
    ],
    "weather": [],
    "flightCategory": "MVFR"
  },
  {
    "raw": "ENOL 152320Z 29005KT 9999 -RA FEW010 BKN022 13/12 Q1010",
    "station": "ENOL",
    "observationTime": 1750029600,
    "temperature": 13,
    "dewpoint": 12,
    "windDirection": 290,
    "windSpeed": 5,
    "visibility": 6,
    "altimeter": 1010,
    "clouds": [
      {
        "type": "FEW",
        "altitude": 1000
      },
      {
        "type": "BKN",
        "altitude": 2200
      }
    ],
    "weather": [
      "-RA"
    ],
    "flightCategory": "MVFR"
  },
  {
    "raw": "ENOA 152320Z 25022KT 9999 FEW008 BKN018 12/10 Q1014 W///S3",
    "station": "ENOA",
    "observationTime": 1750029600,
    "temperature": 12,
    "dewpoint": 10,
    "windDirection": 250,
    "windSpeed": 22,
    "visibility": 6,
    "altimeter": 1014,
    "clouds": [
      {
        "type": "FEW",
        "altitude": 800
      },
      {
        "type": "BKN",
        "altitude": 1800
      }
    ],
    "weather": [],
    "flightCategory": "MVFR"
  },
  {
    "raw": "ENNM 152320Z AUTO 00000KT 9999 BKN094/// BKN118/// 16/13 Q1009",
    "station": "ENNM",
    "observationTime": 1750029600,
    "temperature": 16,
    "dewpoint": 13,
    "visibility": 6,
    "altimeter": 1009,
    "clouds": [
      {
        "type": "BKN",
        "altitude": 9400
      },
      {
        "type": "BKN",
        "altitude": 11800
      }
    ],
    "weather": [],
    "flightCategory": "VFR"
  },
  {
    "raw": "ENNE 152320Z AUTO 36008KT CAVOK 10/08 Q1010 W///S4",
    "station": "ENNE",
    "observationTime": 1750029600,
    "temperature": 10,
    "dewpoint": 8,
    "windDirection": 360,
    "windSpeed": 8,
    "visibility": 6,
    "altimeter": 1010,
    "clouds": [
      {
        "type": "CAVOK"
      }
    ],
    "weather": [],
    "flightCategory": "VFR"
  },
  {
    "raw": "ENNA 152320Z AUTO 01007KT 9999 OVC023/// 05/03 Q1020 RMK WIND 1800FT 33005KT",
    "station": "ENNA",
    "observationTime": 1750029600,
    "temperature": 5,
    "dewpoint": 3,
    "windDirection": 10,
    "windSpeed": 7,
    "visibility": 6,
    "altimeter": 1020,
    "clouds": [
      {
        "type": "OVC",
        "altitude": 2300
      }
    ],
    "weather": [],
    "flightCategory": "MVFR"
  },
  {
    "raw": "ENMS 152320Z AUTO VRB01KT 9999 NCD 15/12 Q1008 RMK WIND 412FT VRB01KT",
    "station": "ENMS",
    "observationTime": 1750029600,
    "temperature": 15,
    "dewpoint": 12,
    "windSpeed": 1,
    "visibility": 6,
    "altimeter": 1008,
    "clouds": [
      {
        "type": "CLR"
      }
    ],
    "weather": [],
    "flightCategory": "VFR"
  },
  {
    "raw": "ENML 152320Z AUTO 01003KT 9999 BKN090/// BKN127/// 14/14 Q1010 RMK WIND 1587FT /////KT",
    "station": "ENML",
    "observationTime": 1750029600,
    "temperature": 14,
    "dewpoint": 14,
    "windDirection": 10,
    "windSpeed": 3,
    "visibility": 6,
    "altimeter": 1010,
    "clouds": [
      {
        "type": "BKN",
        "altitude": 9000
      },
      {
        "type": "BKN",
        "altitude": 12700
      }
    ],
    "weather": [],
    "flightCategory": "VFR"
  },
  {
    "raw": "ENMH 152320Z AUTO 36009KT 9999 -DZ FEW008/// OVC015/// 05/05 Q1019",
    "station": "ENMH",
    "observationTime": 1750029600,
    "temperature": 5,
    "dewpoint": 5,
    "windDirection": 360,
    "windSpeed": 9,
    "visibility": 6,
    "altimeter": 1019,
    "clouds": [
      {
        "type": "FEW",
        "altitude": 800
      },
      {
        "type": "OVC",
        "altitude": 1500
      }
    ],
    "weather": [
      "-DZ"
    ],
    "flightCategory": "MVFR"
  },
  {
    "raw": "ENLK 152320Z AUTO VRB02KT 9999 SCT216/// 08/04 Q1011",
    "station": "ENLK",
    "observationTime": 1750029600,
    "temperature": 8,
    "dewpoint": 4,
    "windSpeed": 2,
    "visibility": 6,
    "altimeter": 1011,
    "clouds": [
      {
        "type": "SCT",
        "altitude": 21600
      }
    ],
    "weather": [],
    "flightCategory": "VFR"
  },
  {
    "raw": "ENLE 152320Z 20018KT 9999 FEW025 13/11 Q1020 W13/S3",
    "station": "ENLE",
    "observationTime": 1750029600,
    "temperature": 13,
    "dewpoint": 11,
    "windDirection": 200,
    "windSpeed": 18,
    "visibility": 6,
    "altimeter": 1020,
    "clouds": [
      {
        "type": "FEW",
        "altitude": 2500
      }
    ],
    "weather": [],
    "flightCategory": "VFR"
  },
  {
    "raw": "ENLA 152320Z AUTO 20020KT 9999NDV FEW060/// SCT073/// 13/12 Q1018 W///S3",
    "station": "ENLA",
    "observationTime": 1750029600,
    "temperature": 13,
    "dewpoint": 12,
    "windDirection": 200,
    "windSpeed": 20,
    "altimeter": 1018,
    "clouds": [
      {
        "type": "FEW",
        "altitude": 6000
      },
      {
        "type": "SCT",
        "altitude": 7300
      }
    ],
    "weather": [],
    "flightCategory": "VFR"
  },
  {
    "raw": "ENKR 152320Z 34010KT 9999 BKN011 05/03 Q1018 RMK WIND 731FT 35012KT",
    "station": "ENKR",
    "observationTime": 1750029600,
    "temperature": 5,
    "dewpoint": 3,
    "windDirection": 340,
    "windSpeed": 10,
    "visibility": 6,
    "altimeter": 1018,
    "clouds": [
      {
        "type": "BKN",
        "altitude": 1100
      }
    ],
    "weather": [],
    "flightCategory": "MVFR"
  },
  {
    "raw": "ENKB 152320Z AUTO 32004KT 280V360 7000 RA FEW040/// OVC059/// 14/13 Q1011 RMK WIND 745FT 31005KT",
    "station": "ENKB",
    "observationTime": 1750029600,
    "temperature": 14,
    "dewpoint": 13,
    "windDirection": 320,
    "windSpeed": 4,
    "visibility": 4.35,
    "altimeter": 1011,
    "clouds": [
      {
        "type": "FEW",
        "altitude": 4000
      },
      {
        "type": "OVC",
        "altitude": 5900
      }
    ],
    "weather": [
      "RA"
    ],
    "flightCategory": "MVFR"
  },
  {
    "raw": "ENJS 152320Z 23017KT 9999 BKN026 12/11 Q1017 W12/S4",
    "station": "ENJS",
    "observationTime": 1750029600,
    "temperature": 12,
    "dewpoint": 11,
    "windDirection": 230,
    "windSpeed": 17,
    "visibility": 6,
    "altimeter": 1017,
    "clouds": [
      {
        "type": "BKN",
        "altitude": 2600
      }
    ],
    "weather": [],
    "flightCategory": "MVFR"
  },
  {
    "raw": "ENHV 152320Z AUTO 35004KT 310V030 9999 -DZ OVC012/// 05/03 Q1020",
    "station": "ENHV",
    "observationTime": 1750029600,
    "temperature": 5,
    "dewpoint": 3,
    "windDirection": 350,
    "windSpeed": 4,
    "visibility": 6,
    "altimeter": 1020,
    "clouds": [
      {
        "type": "OVC",
        "altitude": 1200
      }
    ],
    "weather": [
      "-DZ"
    ],
    "flightCategory": "MVFR"
  },
  {
    "raw": "ENHK 152320Z AUTO 08006KT 9999 ////// 05/01 Q1020",
    "station": "ENHK",
    "observationTime": 1750029600,
    "temperature": 5,
    "dewpoint": 1,
    "windDirection": 80,
    "windSpeed": 6,
    "visibility": 6,
    "altimeter": 1020,
    "clouds": [],
    "weather": [],
    "flightCategory": "VFR"
  },
  {
    "raw": "ENHF 152320Z AUTO 06003KT 9999 -DZ OVC019/// 05/03 Q1019 RMK WIND 1253FT 08003KT",
    "station": "ENHF",
    "observationTime": 1750029600,
    "temperature": 5,
    "dewpoint": 3,
    "windDirection": 60,
    "windSpeed": 3,
    "visibility": 6,
    "altimeter": 1019,
    "clouds": [
      {
        "type": "OVC",
        "altitude": 1900
      }
    ],
    "weather": [
      "-DZ"
    ],
    "flightCategory": "MVFR"
  },
  {
    "raw": "ENHE 152320Z 05011KT 6000 -RA SCT025 BKN050 10/09 Q1010 W///S4",
    "station": "ENHE",
    "observationTime": 1750029600,
    "temperature": 10,
    "dewpoint": 9,
    "windDirection": 50,
    "windSpeed": 11,
    "visibility": 3.73,
    "altimeter": 1010,
    "clouds": [
      {
        "type": "SCT",
        "altitude": 2500
      },
      {
        "type": "BKN",
        "altitude": 5000
      }
    ],
    "weather": [
      "-RA"
    ],
    "flightCategory": "MVFR"
  },
  {
    "raw": "ENHD 152320Z AUTO 24011KT 9999 BKN006/// BKN009/// OVC013/// 12/11 Q1017",
    "station": "ENHD",
    "observationTime": 1750029600,
    "temperature": 12,
    "dewpoint": 11,
    "windDirection": 240,
    "windSpeed": 11,
    "visibility": 6,
    "altimeter": 1017,
    "clouds": [
      {
        "type": "BKN",
        "altitude": 600
      },
      {
        "type": "BKN",
        "altitude": 900
      },
      {
        "type": "OVC",
        "altitude": 1300
      }
    ],
    "weather": [],
    "flightCategory": "IFR"
  },
  {
    "raw": "ENGM 152320Z 19007KT 9999 FEW005 OVC006 14/13 Q1012",
    "station": "ENGM",
    "observationTime": 1750029600,
    "temperature": 14,
    "dewpoint": 13,
    "windDirection": 190,
    "windSpeed": 7,
    "visibility": 6,
    "altimeter": 1012,
    "clouds": [
      {
        "type": "FEW",
        "altitude": 500
      },
      {
        "type": "OVC",
        "altitude": 600
      }
    ],
    "weather": [],
    "flightCategory": "IFR"
  },
  {
    "raw": "ENGC 152320Z 26020KT 9000 BKN004 11/11 Q1013 W10/S3",
    "station": "ENGC",
    "observationTime": 1750029600,
    "temperature": 11,
    "dewpoint": 11,
    "windDirection": 260,
    "windSpeed": 20,
    "visibility": 5.59,
    "altimeter": 1013,
    "clouds": [
      {
        "type": "BKN",
        "altitude": 400
      }
    ],
    "weather": [],
    "flightCategory": "LIFR"
  },
  {
    "raw": "ENFL 152320Z AUTO 24016KT 2200NDV -SHRA SCT007/// OVC012/// 12/11 Q1012",
    "station": "ENFL",
    "observationTime": 1750029600,
    "temperature": 12,
    "dewpoint": 11,
    "windDirection": 240,
    "windSpeed": 16,
    "altimeter": 1012,
    "clouds": [
      {
        "type": "SCT",
        "altitude": 700
      },
      {
        "type": "OVC",
        "altitude": 1200
      }
    ],
    "weather": [
      "-SHRA"
    ],
    "flightCategory": "MVFR"
  },
  {
    "raw": "ENFB 152320Z AUTO /////// 9999 -SHRA BKN011/// 11/10 Q1013 W/////",
    "station": "ENFB",
    "observationTime": 1750029600,
    "temperature": 11,
    "dewpoint": 10,
    "visibility": 6,
    "altimeter": 1013,
    "clouds": [
      {
        "type": "BKN",
        "altitude": 1100
      }
    ],
    "weather": [
      "-SHRA"
    ],
    "flightCategory": "MVFR"
  },
  {
    "raw": "ENEV 152320Z 02007KT CAVOK 09/06 Q1014 RMK WIND 1400FT 08012KT",
    "station": "ENEV",
    "observationTime": 1750029600,
    "temperature": 9,
    "dewpoint": 6,
    "windDirection": 20,
    "windSpeed": 7,
    "visibility": 6,
    "altimeter": 1014,
    "clouds": [
      {
        "type": "CAVOK"
      }
    ],
    "weather": [],
    "flightCategory": "VFR"
  },
  {
    "raw": "ENDU 152320Z 36004KT CAVOK 08/03 Q1015 RMK WIND 1100FT 07008KT WIND 2200FT 09012KT",
    "station": "ENDU",
    "observationTime": 1750029600,
    "temperature": 8,
    "dewpoint": 3,
    "windDirection": 360,
    "windSpeed": 4,
    "visibility": 6,
    "altimeter": 1015,
    "clouds": [
      {
        "type": "CAVOK"
      }
    ],
    "weather": [],
    "flightCategory": "VFR"
  },
  {
    "raw": "ENCN 152320Z AUTO 25008KT 9999 FEW022/// 14/11 Q1015",
    "station": "ENCN",
    "observationTime": 1750029600,
    "temperature": 14,
    "dewpoint": 11,
    "windDirection": 250,
    "windSpeed": 8,
    "visibility": 6,
    "altimeter": 1015,
    "clouds": [
      {
        "type": "FEW",
        "altitude": 2200
      }
    ],
    "weather": [],
    "flightCategory": "VFR"
  },
  {
    "raw": "ENBV 152320Z AUTO 35010KT 9999 FEW006/// BKN009/// OVC017/// 06/04 Q1019",
    "station": "ENBV",
    "observationTime": 1750029600,
    "temperature": 6,
    "dewpoint": 4,
    "windDirection": 350,
    "windSpeed": 10,
    "visibility": 6,
    "altimeter": 1019,
    "clouds": [
      {
        "type": "FEW",
        "altitude": 600
      },
      {
        "type": "BKN",
        "altitude": 900
      },
      {
        "type": "OVC",
        "altitude": 1700
      }
    ],
    "weather": [],
    "flightCategory": "IFR"
  },
  {
    "raw": "ENBS 152320Z AUTO 36007KT 9999 OVC005/// 04/04 Q1017",
    "station": "ENBS",
    "observationTime": 1750029600,
    "temperature": 4,
    "dewpoint": 4,
    "windDirection": 360,
    "windSpeed": 7,
    "visibility": 6,
    "altimeter": 1017,
    "clouds": [
      {
        "type": "OVC",
        "altitude": 500
      }
    ],
    "weather": [],
    "flightCategory": "IFR"
  },
  {
    "raw": "ENBR 152320Z 22006KT 9999 -RA SCT007 BKN012 11/11 Q1016 RERA REDZRA RMK WIND 1200FT 25015KT",
    "station": "ENBR",
    "observationTime": 1750029600,
    "temperature": 11,
    "dewpoint": 11,
    "windDirection": 220,
    "windSpeed": 6,
    "visibility": 6,
    "altimeter": 1016,
    "clouds": [
      {
        "type": "SCT",
        "altitude": 700
      },
      {
        "type": "BKN",
        "altitude": 1200
      }
    ],
    "weather": [
      "-RA RA"
    ],
    "flightCategory": "MVFR"
  },
  {
    "raw": "ENBO 152320Z 10021KT CAVOK 17/04 Q1009",
    "station": "ENBO",
    "observationTime": 1750029600,
    "temperature": 17,
    "dewpoint": 4,
    "windDirection": 100,
    "windSpeed": 21,
    "visibility": 6,
    "altimeter": 1009,
    "clouds": [
      {
        "type": "CAVOK"
      }
    ],
    "weather": [],
    "flightCategory": "VFR"
  },
  {
    "raw": "ENBN 152320Z AUTO 21016KT 9999NDV BKN110/// 14/12 Q1008",
    "station": "ENBN",
    "observationTime": 1750029600,
    "temperature": 14,
    "dewpoint": 12,
    "windDirection": 210,
    "windSpeed": 16,
    "altimeter": 1008,
    "clouds": [
      {
        "type": "BKN",
        "altitude": 11000
      }
    ],
    "weather": [],
    "flightCategory": "VFR"
  },
  {
    "raw": "ENBL 152320Z AUTO 22003KT 160V300 9999 -RA FEW009/// OVC013/// 12/10 Q1012",
    "station": "ENBL",
    "observationTime": 1750029600,
    "temperature": 12,
    "dewpoint": 10,
    "windDirection": 220,
    "windSpeed": 3,
    "visibility": 6,
    "altimeter": 1012,
    "clouds": [
      {
        "type": "FEW",
        "altitude": 900
      },
      {
        "type": "OVC",
        "altitude": 1300
      }
    ],
    "weather": [
      "-RA"
    ],
    "flightCategory": "MVFR"
  },
  {
    "raw": "ENAT 152320Z AUTO 10004KT 9999 OVC032/// 06/01 Q1020 RMK WIND 700FT 10006KT",
    "station": "ENAT",
    "observationTime": 1750029600,
    "temperature": 6,
    "dewpoint": 1,
    "windDirection": 100,
    "windSpeed": 4,
    "visibility": 6,
    "altimeter": 1020,
    "clouds": [
      {
        "type": "OVC",
        "altitude": 3200
      }
    ],
    "weather": [],
    "flightCategory": "VFR"
  },
  {
    "raw": "ENAN 152320Z AUTO 05016KT 9999 NCD 08/06 Q1014",
    "station": "ENAN",
    "observationTime": 1750029600,
    "temperature": 8,
    "dewpoint": 6,
    "windDirection": 50,
    "windSpeed": 16,
    "visibility": 6,
    "altimeter": 1014,
    "clouds": [
      {
        "type": "CLR"
      }
    ],
    "weather": [],
    "flightCategory": "VFR"
  },
  {
    "raw": "ELLX 152320Z 29005KT CAVOK 14/12 Q1026 NOSIG",
    "station": "ELLX",
    "observationTime": 1750029600,
    "temperature": 14,
    "dewpoint": 12,
    "windDirection": 290,
    "windSpeed": 5,
    "visibility": 6,
    "altimeter": 1026,
    "clouds": [
      {
        "type": "CAVOK"
      }
    ],
    "weather": [],
    "flightCategory": "VFR"
  },
  {
    "raw": "EKYT 152320Z AUTO 26008KT 9999 FEW017/// BKN030/// BKN180/// 14/12 Q1017",
    "station": "EKYT",
    "observationTime": 1750029600,
    "temperature": 14,
    "dewpoint": 12,
    "windDirection": 260,
    "windSpeed": 8,
    "visibility": 6,
    "altimeter": 1017,
    "clouds": [
      {
        "type": "FEW",
        "altitude": 1700
      },
      {
        "type": "BKN",
        "altitude": 3000
      },
      {
        "type": "BKN",
        "altitude": 18000
      }
    ],
    "weather": [],
    "flightCategory": "VFR"
  },
  {
    "raw": "EKVG 152320Z AUTO 26012KT 9999 OVC007/// 10/08 Q1011 RMK OVC008/// WIND SKEID 28019KT",
    "station": "EKVG",
    "observationTime": 1750029600,
    "temperature": 10,
    "dewpoint": 8,
    "windDirection": 260,
    "windSpeed": 12,
    "visibility": 6,
    "altimeter": 1011,
    "clouds": [
      {
        "type": "OVC",
        "altitude": 700
      }
    ],
    "weather": [],
    "flightCategory": "IFR"
  },
  {
    "raw": "EKVD 152320Z AUTO 27006KT //// ///////// 13/12 Q1019",
    "station": "EKVD",
    "observationTime": 1750029600,
    "temperature": 13,
    "dewpoint": 12,
    "windDirection": 270,
    "windSpeed": 6,
    "altimeter": 1019,
    "clouds": [],
    "weather": [],
    "flightCategory": "VFR"
  },
  {
    "raw": "EKSP 152320Z 27008KT 9999 FEW011 SCT170 BKN210 13/12 Q1019",
    "station": "EKSP",
    "observationTime": 1750029600,
    "temperature": 13,
    "dewpoint": 12,
    "windDirection": 270,
    "windSpeed": 8,
    "visibility": 6,
    "altimeter": 1019,
    "clouds": [
      {
        "type": "FEW",
        "altitude": 1100
      },
      {
        "type": "SCT",
        "altitude": 17000
      },
      {
        "type": "BKN",
        "altitude": 21000
      }
    ],
    "weather": [],
    "flightCategory": "VFR"
  },
  {
    "raw": "EKSB 152320Z AUTO 25005KT 9999 BKN180/// 13/12 Q1020",
    "station": "EKSB",
    "observationTime": 1750029600,
    "temperature": 13,
    "dewpoint": 12,
    "windDirection": 250,
    "windSpeed": 5,
    "visibility": 6,
    "altimeter": 1020,
    "clouds": [
      {
        "type": "BKN",
        "altitude": 18000
      }
    ],
    "weather": [],
    "flightCategory": "VFR"
  },
  {
    "raw": "EKRS 152320Z AUTO 29006KT 240V330 9999 BKN005/// OVC068/// 16/16 Q1018",
    "station": "EKRS",
    "observationTime": 1750029600,
    "temperature": 16,
    "dewpoint": 16,
    "windDirection": 290,
    "windSpeed": 6,
    "visibility": 6,
    "altimeter": 1018,
    "clouds": [
      {
        "type": "BKN",
        "altitude": 500
      },
      {
        "type": "OVC",
        "altitude": 6800
      }
    ],
    "weather": [],
    "flightCategory": "IFR"
  },
  {
    "raw": "EKRN 152320Z AUTO 30007KT 9999 BKN092/// 16/14 Q1015",
    "station": "EKRN",
    "observationTime": 1750029600,
    "temperature": 16,
    "dewpoint": 14,
    "windDirection": 300,
    "windSpeed": 7,
    "visibility": 6,
    "altimeter": 1015,
    "clouds": [
      {
        "type": "BKN",
        "altitude": 9200
      }
    ],
    "weather": [],
    "flightCategory": "VFR"
  },
  {
    "raw": "EKRK 152320Z AUTO 31005KT 9999 BKN009/// BKN043/// 15/14 Q1017",
    "station": "EKRK",
    "observationTime": 1750029600,
    "temperature": 15,
    "dewpoint": 14,
    "windDirection": 310,
    "windSpeed": 5,
    "visibility": 6,
    "altimeter": 1017,
    "clouds": [
      {
        "type": "BKN",
        "altitude": 900
      },
      {
        "type": "BKN",
        "altitude": 4300
      }
    ],
    "weather": [],
    "flightCategory": "IFR"
  },
  {
    "raw": "EKOD 152320Z AUTO 26005KT 9999 BKN160/// 13/12 Q1019",
    "station": "EKOD",
    "observationTime": 1750029600,
    "temperature": 13,
    "dewpoint": 12,
    "windDirection": 260,
    "windSpeed": 5,
    "visibility": 6,
    "altimeter": 1019,
    "clouds": [
      {
        "type": "BKN",
        "altitude": 16000
      }
    ],
    "weather": [],
    "flightCategory": "VFR"
  },
  {
    "raw": "EKKA 152320Z AUTO 23005KT 9999 BKN026/// BKN170/// 13/12 Q1019",
    "station": "EKKA",
    "observationTime": 1750029600,
    "temperature": 13,
    "dewpoint": 12,
    "windDirection": 230,
    "windSpeed": 5,
    "visibility": 6,
    "altimeter": 1019,
    "clouds": [
      {
        "type": "BKN",
        "altitude": 2600
      },
      {
        "type": "BKN",
        "altitude": 17000
      }
    ],
    "weather": [],
    "flightCategory": "MVFR"
  },
  {
    "raw": "EKEB 152320Z AUTO 27007KT 9999 OVC032/// 14/13 Q1020",
    "station": "EKEB",
    "observationTime": 1750029600,
    "temperature": 14,
    "dewpoint": 13,
    "windDirection": 270,
    "windSpeed": 7,
    "visibility": 6,
    "altimeter": 1020,
    "clouds": [
      {
        "type": "OVC",
        "altitude": 3200
      }
    ],
    "weather": [],
    "flightCategory": "VFR"
  },
  {
    "raw": "EKCH 152320Z 31007KT 9999 BKN032 16/15 Q1017 TEMPO BKN008",
    "station": "EKCH",
    "observationTime": 1750029600,
    "temperature": 16,
    "dewpoint": 15,
    "windDirection": 310,
    "windSpeed": 7,
    "visibility": 6,
    "altimeter": 1017,
    "clouds": [
      {
        "type": "BKN",
        "altitude": 3200
      }
    ],
    "weather": [],
    "flightCategory": "VFR"
  },
  {
    "raw": "EKBI 152320Z AUTO 26008KT 9999 FEW010/// SCT190/// 13/12 Q1019",
    "station": "EKBI",
    "observationTime": 1750029600,
    "temperature": 13,
    "dewpoint": 12,
    "windDirection": 260,
    "windSpeed": 8,
    "visibility": 6,
    "altimeter": 1019,
    "clouds": [
      {
        "type": "FEW",
        "altitude": 1000
      },
      {
        "type": "SCT",
        "altitude": 19000
      }
    ],
    "weather": [],
    "flightCategory": "VFR"
  },
  {
    "raw": "EKAH 152320Z AUTO 27006KT 9999 FEW098/// OVC160/// 14/13 Q1018",
    "station": "EKAH",
    "observationTime": 1750029600,
    "temperature": 14,
    "dewpoint": 13,
    "windDirection": 270,
    "windSpeed": 6,
    "visibility": 6,
    "altimeter": 1018,
    "clouds": [
      {
        "type": "FEW",
        "altitude": 9800
      },
      {
        "type": "OVC",
        "altitude": 16000
      }
    ],
    "weather": [],
    "flightCategory": "VFR"
  },
  {
    "raw": "EGVN 152320Z 25003KT 9999 BKN036 16/13 Q1027 NOSIG",
    "station": "EGVN",
    "observationTime": 1750029600,
    "temperature": 16,
    "dewpoint": 13,
    "windDirection": 250,
    "windSpeed": 3,
    "visibility": 6,
    "altimeter": 1027,
    "clouds": [
      {
        "type": "BKN",
        "altitude": 3600
      }
    ],
    "weather": [],
    "flightCategory": "VFR"
  },
  {
    "raw": "EGTE 152320Z 29006KT 250V330 9999 BKN040 15/13 Q1028",
    "station": "EGTE",
    "observationTime": 1750029600,
    "temperature": 15,
    "dewpoint": 13,
    "windDirection": 290,
    "windSpeed": 6,
    "visibility": 6,
    "altimeter": 1028,
    "clouds": [
      {
        "type": "BKN",
        "altitude": 4000
      }
    ],
    "weather": [],
    "flightCategory": "VFR"
  },
  {
    "raw": "EGSY 152320Z AUTO 27008KT 9999 OVC006/// 16/14 Q1028",
    "station": "EGSY",
    "observationTime": 1750029600,
    "temperature": 16,
    "dewpoint": 14,
    "windDirection": 270,
    "windSpeed": 8,
    "visibility": 6,
    "altimeter": 1028,
    "clouds": [
      {
        "type": "OVC",
        "altitude": 600
      }
    ],
    "weather": [],
    "flightCategory": "IFR"
  },
  {
    "raw": "EGSS 152320Z AUTO 29004KT 9999 NCD 15/11 Q1026",
    "station": "EGSS",
    "observationTime": 1750029600,
    "temperature": 15,
    "dewpoint": 11,
    "windDirection": 290,
    "windSpeed": 4,
    "visibility": 6,
    "altimeter": 1026,
    "clouds": [
      {
        "type": "CLR"
      }
    ],
    "weather": [],
    "flightCategory": "VFR"
  },
  {
    "raw": "EGSH 152320Z AUTO 27004KT 9999 FEW041/// 15/11 Q1025",
    "station": "EGSH",
    "observationTime": 1750029600,
    "temperature": 15,
    "dewpoint": 11,
    "windDirection": 270,
    "windSpeed": 4,
    "visibility": 6,
    "altimeter": 1025,
    "clouds": [
      {
        "type": "FEW",
        "altitude": 4100
      }
    ],
    "weather": [],
    "flightCategory": "VFR"
  },
  {
    "raw": "EGPU 152320Z AUTO 20015KT //// // ///////// ///// Q////",
    "station": "EGPU",
    "observationTime": 1750029600,
    "windDirection": 200,
    "windSpeed": 15,
    "clouds": [],
    "weather": [],
    "flightCategory": "VFR"
  },
  {
    "raw": "EGPO 152320Z AUTO 19014KT 9999 BKN002/// OVC025/// 12/11 Q1017 RERA",
    "station": "EGPO",
    "observationTime": 1750029600,
    "temperature": 12,
    "dewpoint": 11,
    "windDirection": 190,
    "windSpeed": 14,
    "visibility": 6,
    "altimeter": 1017,
    "clouds": [
      {
        "type": "BKN",
        "altitude": 200
      },
      {
        "type": "OVC",
        "altitude": 2500
      }
    ],
    "weather": [],
    "flightCategory": "LIFR"
  },
  {
    "raw": "EGPL 152320Z AUTO 20019KT 4800 -DZ OVC000/// 13/13 Q1018 RERA",
    "station": "EGPL",
    "observationTime": 1750029600,
    "temperature": 13,
    "dewpoint": 13,
    "windDirection": 200,
    "windSpeed": 19,
    "visibility": 2.98,
    "altimeter": 1018,
    "clouds": [
      {
        "type": "OVC"
      }
    ],
    "weather": [
      "-DZ"
    ],
    "flightCategory": "IFR"
  },
  {
    "raw": "EGPK 152320Z 19008KT 9999 OVC026 13/11 Q1023",
    "station": "EGPK",
    "observationTime": 1750029600,
    "temperature": 13,
    "dewpoint": 11,
    "windDirection": 190,
    "windSpeed": 8,
    "visibility": 6,
    "altimeter": 1023,
    "clouds": [
      {
        "type": "OVC",
        "altitude": 2600
      }
    ],
    "weather": [],
    "flightCategory": "MVFR"
  },
  {
    "raw": "EGPI 152320Z AUTO 14004KT 9999 OVC021/// 12/11 Q1023",
    "station": "EGPI",
    "observationTime": 1750029600,
    "temperature": 12,
    "dewpoint": 11,
    "windDirection": 140,
    "windSpeed": 4,
    "visibility": 6,
    "altimeter": 1023,
    "clouds": [
      {
        "type": "OVC",
        "altitude": 2100
      }
    ],
    "weather": [],
    "flightCategory": "MVFR"
  },
  {
    "raw": "EGPH 152320Z 25010KT 9999 BKN018 12/10 Q1022",
    "station": "EGPH",
    "observationTime": 1750029600,
    "temperature": 12,
    "dewpoint": 10,
    "windDirection": 250,
    "windSpeed": 10,
    "visibility": 6,
    "altimeter": 1022,
    "clouds": [
      {
        "type": "BKN",
        "altitude": 1800
      }
    ],
    "weather": [],
    "flightCategory": "MVFR"
  },
  {
    "raw": "EGPF 152320Z AUTO 23007KT 9999 BKN022 OVC027 13/13 Q1023",
    "station": "EGPF",
    "observationTime": 1750029600,
    "temperature": 13,
    "dewpoint": 13,
    "windDirection": 230,
    "windSpeed": 7,
    "visibility": 6,
    "altimeter": 1023,
    "clouds": [
      {
        "type": "BKN",
        "altitude": 2200
      },
      {
        "type": "OVC",
        "altitude": 2700
      }
    ],
    "weather": [],
    "flightCategory": "MVFR"
  },
  {
    "raw": "EGPE 152320Z AUTO 23007KT 9999 FEW038/// 13/10 Q1019",
    "station": "EGPE",
    "observationTime": 1750029600,
    "temperature": 13,
    "dewpoint": 10,
    "windDirection": 230,
    "windSpeed": 7,
    "visibility": 6,
    "altimeter": 1019,
    "clouds": [
      {
        "type": "FEW",
        "altitude": 3800
      }
    ],
    "weather": [],
    "flightCategory": "VFR"
  },
  {
    "raw": "EGPD 152320Z AUTO VRB02KT 9999 NCD 12/10 Q1019 NOSIG",
    "station": "EGPD",
    "observationTime": 1750029600,
    "temperature": 12,
    "dewpoint": 10,
    "windSpeed": 2,
    "visibility": 6,
    "altimeter": 1019,
    "clouds": [
      {
        "type": "CLR"
      }
    ],
    "weather": [],
    "flightCategory": "VFR"
  },
  {
    "raw": "EGPC 152320Z AUTO VRB01KT 9999 FEW030/// 11/09 Q1018",
    "station": "EGPC",
    "observationTime": 1750029600,
    "temperature": 11,
    "dewpoint": 9,
    "windSpeed": 1,
    "visibility": 6,
    "altimeter": 1018,
    "clouds": [
      {
        "type": "FEW",
        "altitude": 3000
      }
    ],
    "weather": [],
    "flightCategory": "VFR"
  },
  {
    "raw": "EGPB 152320Z AUTO 27014KT 9999 FEW017/// OVC024/// 11/10 Q1015",
    "station": "EGPB",
    "observationTime": 1750029600,
    "temperature": 11,
    "dewpoint": 10,
    "windDirection": 270,
    "windSpeed": 14,
    "visibility": 6,
    "altimeter": 1015,
    "clouds": [
      {
        "type": "FEW",
        "altitude": 1700
      },
      {
        "type": "OVC",
        "altitude": 2400
      }
    ],
    "weather": [],
    "flightCategory": "MVFR"
  },
  {
    "raw": "EGNX 152320Z 26007KT 9999 BKN040 16/13 Q1026",
    "station": "EGNX",
    "observationTime": 1750029600,
    "temperature": 16,
    "dewpoint": 13,
    "windDirection": 260,
    "windSpeed": 7,
    "visibility": 6,
    "altimeter": 1026,
    "clouds": [
      {
        "type": "BKN",
        "altitude": 4000
      }
    ],
    "weather": [],
    "flightCategory": "VFR"
  },
  {
    "raw": "EGNV 152320Z AUTO 25008KT 9999 BKN025/// 14/10 Q1024",
    "station": "EGNV",
    "observationTime": 1750029600,
    "temperature": 14,
    "dewpoint": 10,
    "windDirection": 250,
    "windSpeed": 8,
    "visibility": 6,
    "altimeter": 1024,
    "clouds": [
      {
        "type": "BKN",
        "altitude": 2500
      }
    ],
    "weather": [],
    "flightCategory": "MVFR"
  },
  {
    "raw": "EGNT 152320Z 29012KT 260V320 9999 FEW017 13/10 Q1023",
    "station": "EGNT",
    "observationTime": 1750029600,
    "temperature": 13,
    "dewpoint": 10,
    "windDirection": 290,
    "windSpeed": 12,
    "visibility": 6,
    "altimeter": 1023,
    "clouds": [
      {
        "type": "FEW",
        "altitude": 1700
      }
    ],
    "weather": [],
    "flightCategory": "VFR"
  },
  {
    "raw": "EGNM 152320Z 25007KT 200V280 9999 FEW020 13/11 Q1024",
    "station": "EGNM",
    "observationTime": 1750029600,
    "temperature": 13,
    "dewpoint": 11,
    "windDirection": 250,
    "windSpeed": 7,
    "visibility": 6,
    "altimeter": 1024,
    "clouds": [
      {
        "type": "FEW",
        "altitude": 2000
      }
    ],
    "weather": [],
    "flightCategory": "VFR"
  },
  {
    "raw": "EGNJ 152320Z AUTO 25009KT 9999 OVC030/// 17/11 Q1025",
    "station": "EGNJ",
    "observationTime": 1750029600,
    "temperature": 17,
    "dewpoint": 11,
    "windDirection": 250,
    "windSpeed": 9,
    "visibility": 6,
    "altimeter": 1025,
    "clouds": [
      {
        "type": "OVC",
        "altitude": 3000
      }
    ],
    "weather": [],
    "flightCategory": "VFR"
  },
  {
    "raw": "EGMD 152320Z AUTO 27005KT 9999 NCD 14/13 Q1026",
    "station": "EGMD",
    "observationTime": 1750029600,
    "temperature": 14,
    "dewpoint": 13,
    "windDirection": 270,
    "windSpeed": 5,
    "visibility": 6,
    "altimeter": 1026,
    "clouds": [
      {
        "type": "CLR"
      }
    ],
    "weather": [],
    "flightCategory": "VFR"
  },
  {
    "raw": "EGMC 152320Z 28004KT CAVOK 16/11 Q1026",
    "station": "EGMC",
    "observationTime": 1750029600,
    "temperature": 16,
    "dewpoint": 11,
    "windDirection": 280,
    "windSpeed": 4,
    "visibility": 6,
    "altimeter": 1026,
    "clouds": [
      {
        "type": "CAVOK"
      }
    ],
    "weather": [],
    "flightCategory": "VFR"
  },
  {
    "raw": "EGLL 152320Z AUTO 27008KT 9999 NCD 15/12 Q1027",
    "station": "EGLL",
    "observationTime": 1750029600,
    "temperature": 15,
    "dewpoint": 12,
    "windDirection": 270,
    "windSpeed": 8,
    "visibility": 6,
    "altimeter": 1027,
    "clouds": [
      {
        "type": "CLR"
      }
    ],
    "weather": [],
    "flightCategory": "VFR"
  },
  {
    "raw": "EGLF 152320Z AUTO 25004KT 220V300 9999 NCD 15/12 Q1027",
    "station": "EGLF",
    "observationTime": 1750029600,
    "temperature": 15,
    "dewpoint": 12,
    "windDirection": 250,
    "windSpeed": 4,
    "visibility": 6,
    "altimeter": 1027,
    "clouds": [
      {
        "type": "CLR"
      }
    ],
    "weather": [],
    "flightCategory": "VFR"
  },
  {
    "raw": "EGLC 152320Z AUTO 28008KT 260V320 9999 NCD 19/12 Q1026",
    "station": "EGLC",
    "observationTime": 1750029600,
    "temperature": 19,
    "dewpoint": 12,
    "windDirection": 280,
    "windSpeed": 8,
    "visibility": 6,
    "altimeter": 1026,
    "clouds": [
      {
        "type": "CLR"
      }
    ],
    "weather": [],
    "flightCategory": "VFR"
  },
  {
    "raw": "EGKK 152320Z 24004KT CAVOK 15/10 Q1027",
    "station": "EGKK",
    "observationTime": 1750029600,
    "temperature": 15,
    "dewpoint": 10,
    "windDirection": 240,
    "windSpeed": 4,
    "visibility": 6,
    "altimeter": 1027,
    "clouds": [
      {
        "type": "CAVOK"
      }
    ],
    "weather": [],
    "flightCategory": "VFR"
  },
  {
    "raw": "EGKB 152320Z AUTO 28006KT 9999 NCD 15/11 Q1027",
    "station": "EGKB",
    "observationTime": 1750029600,
    "temperature": 15,
    "dewpoint": 11,
    "windDirection": 280,
    "windSpeed": 6,
    "visibility": 6,
    "altimeter": 1027,
    "clouds": [
      {
        "type": "CLR"
      }
    ],
    "weather": [],
    "flightCategory": "VFR"
  },
  {
    "raw": "EGJJ 152320Z AUTO 28007KT 9999 SCT006/// BKN007/// BKN008/// 15/14 Q1029",
    "station": "EGJJ",
    "observationTime": 1750029600,
    "temperature": 15,
    "dewpoint": 14,
    "windDirection": 280,
    "windSpeed": 7,
    "visibility": 6,
    "altimeter": 1029,
    "clouds": [
      {
        "type": "SCT",
        "altitude": 600
      },
      {
        "type": "BKN",
        "altitude": 700
      },
      {
        "type": "BKN",
        "altitude": 800
      }
    ],
    "weather": [],
    "flightCategory": "IFR"
  },
  {
    "raw": "EGHQ 152320Z AUTO 27007KT 9999 OVC008/// 14/13 Q1029",
    "station": "EGHQ",
    "observationTime": 1750029600,
    "temperature": 14,
    "dewpoint": 13,
    "windDirection": 270,
    "windSpeed": 7,
    "visibility": 6,
    "altimeter": 1029,
    "clouds": [
      {
        "type": "OVC",
        "altitude": 800
      }
    ],
    "weather": [],
    "flightCategory": "IFR"
  },
  {
    "raw": "EGGW 152320Z AUTO 29008KT 9999 NCD 15/11 Q1026",
    "station": "EGGW",
    "observationTime": 1750029600,
    "temperature": 15,
    "dewpoint": 11,
    "windDirection": 290,
    "windSpeed": 8,
    "visibility": 6,
    "altimeter": 1026,
    "clouds": [
      {
        "type": "CLR"
      }
    ],
    "weather": [],
    "flightCategory": "VFR"
  },
  {
    "raw": "EGGP 152320Z 26004KT 9999 BKN045 14/12 Q1026",
    "station": "EGGP",
    "observationTime": 1750029600,
    "temperature": 14,
    "dewpoint": 12,
    "windDirection": 260,
    "windSpeed": 4,
    "visibility": 6,
    "altimeter": 1026,
    "clouds": [
      {
        "type": "BKN",
        "altitude": 4500
      }
    ],
    "weather": [],
    "flightCategory": "VFR"
  },
  {
    "raw": "EGGD 152320Z AUTO 26006KT 220V290 9999 OVC004 15/14 Q1028",
    "station": "EGGD",
    "observationTime": 1750029600,
    "temperature": 15,
    "dewpoint": 14,
    "windDirection": 260,
    "windSpeed": 6,
    "visibility": 6,
    "altimeter": 1028,
    "clouds": [
      {
        "type": "OVC",
        "altitude": 400
      }
    ],
    "weather": [],
    "flightCategory": "LIFR"
  },
  {
    "raw": "EGFF 152320Z AUTO 29007KT 9999 BKN006 OVC010 15/15 Q1028",
    "station": "EGFF",
    "observationTime": 1750029600,
    "temperature": 15,
    "dewpoint": 15,
    "windDirection": 290,
    "windSpeed": 7,
    "visibility": 6,
    "altimeter": 1028,
    "clouds": [
      {
        "type": "BKN",
        "altitude": 600
      },
      {
        "type": "OVC",
        "altitude": 1000
      }
    ],
    "weather": [],
    "flightCategory": "IFR"
  },
  {
    "raw": "EGCK 152320Z AUTO 20005KT 9999 SCT046/// 15/13 Q1026",
    "station": "EGCK",
    "observationTime": 1750029600,
    "temperature": 15,
    "dewpoint": 13,
    "windDirection": 200,
    "windSpeed": 5,
    "visibility": 6,
    "altimeter": 1026,
    "clouds": [
      {
        "type": "SCT",
        "altitude": 4600
      }
    ],
    "weather": [],
    "flightCategory": "VFR"
  },
  {
    "raw": "EGCC 152320Z AUTO 27002KT 9999 BKN039 15/12 Q1026 NOSIG",
    "station": "EGCC",
    "observationTime": 1750029600,
    "temperature": 15,
    "dewpoint": 12,
    "windDirection": 270,
    "windSpeed": 2,
    "visibility": 6,
    "altimeter": 1026,
    "clouds": [
      {
        "type": "BKN",
        "altitude": 3900
      }
    ],
    "weather": [],
    "flightCategory": "VFR"
  },
  {
    "raw": "EGBB 152320Z 27006KT 9999 BKN039 17/12 Q1026",
    "station": "EGBB",
    "observationTime": 1750029600,
    "temperature": 17,
    "dewpoint": 12,
    "windDirection": 270,
    "windSpeed": 6,
    "visibility": 6,
    "altimeter": 1026,
    "clouds": [
      {
        "type": "BKN",
        "altitude": 3900
      }
    ],
    "weather": [],
    "flightCategory": "VFR"
  },
  {
    "raw": "EGAC 152320Z AUTO 20004KT 9999 NCD 14/11 Q1024",
    "station": "EGAC",
    "observationTime": 1750029600,
    "temperature": 14,
    "dewpoint": 11,
    "windDirection": 200,
    "windSpeed": 4,
    "visibility": 6,
    "altimeter": 1024,
    "clouds": [
      {
        "type": "CLR"
      }
    ],
    "weather": [],
    "flightCategory": "VFR"
  },
  {
    "raw": "EGAA 152320Z AUTO 18005KT 9999 FEW030 12/11 Q1024",
    "station": "EGAA",
    "observationTime": 1750029600,
    "temperature": 12,
    "dewpoint": 11,
    "windDirection": 180,
    "windSpeed": 5,
    "visibility": 6,
    "altimeter": 1024,
    "clouds": [
      {
        "type": "FEW",
        "altitude": 3000
      }
    ],
    "weather": [],
    "flightCategory": "VFR"
  },
  {
    "raw": "EFVA 152320Z AUTO 06005KT CAVOK 14/04 Q1013",
    "station": "EFVA",
    "observationTime": 1750029600,
    "temperature": 14,
    "dewpoint": 4,
    "windDirection": 60,
    "windSpeed": 5,
    "visibility": 6,
    "altimeter": 1013,
    "clouds": [
      {
        "type": "CAVOK"
      }
    ],
    "weather": [],
    "flightCategory": "VFR"
  },
  {
    "raw": "EFUT 152320Z AUTO 29005KT CAVOK 18/11 Q1010",
    "station": "EFUT",
    "observationTime": 1750029600,
    "temperature": 18,
    "dewpoint": 11,
    "windDirection": 290,
    "windSpeed": 5,
    "visibility": 6,
    "altimeter": 1010,
    "clouds": [
      {
        "type": "CAVOK"
      }
    ],
    "weather": [],
    "flightCategory": "VFR"
  },
  {
    "raw": "EFTU 152320Z AUTO VRB02KT CAVOK 13/08 Q1012",
    "station": "EFTU",
    "observationTime": 1750029600,
    "temperature": 13,
    "dewpoint": 8,
    "windSpeed": 2,
    "visibility": 6,
    "altimeter": 1012,
    "clouds": [
      {
        "type": "CAVOK"
      }
    ],
    "weather": [],
    "flightCategory": "VFR"
  },
  {
    "raw": "EFTP 152320Z AUTO VRB02KT CAVOK 13/09 Q1012",
    "station": "EFTP",
    "observationTime": 1750029600,
    "temperature": 13,
    "dewpoint": 9,
    "windSpeed": 2,
    "visibility": 6,
    "altimeter": 1012,
    "clouds": [
      {
        "type": "CAVOK"
      }
    ],
    "weather": [],
    "flightCategory": "VFR"
  },
  {
    "raw": "EFSI 152320Z AUTO VRB02KT CAVOK 14/07 Q1013",
    "station": "EFSI",
    "observationTime": 1750029600,
    "temperature": 14,
    "dewpoint": 7,
    "windSpeed": 2,
    "visibility": 6,
    "altimeter": 1013,
    "clouds": [
      {
        "type": "CAVOK"
      }
    ],
    "weather": [],
    "flightCategory": "VFR"
  },
  {
    "raw": "EFSA 152320Z AUTO 36007KT CAVOK 17/11 Q1010",
    "station": "EFSA",
    "observationTime": 1750029600,
    "temperature": 17,
    "dewpoint": 11,
    "windDirection": 360,
    "windSpeed": 7,
    "visibility": 6,
    "altimeter": 1010,
    "clouds": [
      {
        "type": "CAVOK"
      }
    ],
    "weather": [],
    "flightCategory": "VFR"
  },
  {
    "raw": "EFRO 152320Z AUTO 03009KT 9999 2100 NCD 06/02 Q1017",
    "station": "EFRO",
    "observationTime": 1750029600,
    "temperature": 6,
    "dewpoint": 2,
    "windDirection": 30,
    "windSpeed": 9,
    "visibility": 6,
    "altimeter": 1017,
    "clouds": [
      {
        "type": "CLR"
      }
    ],
    "weather": [],
    "flightCategory": "VFR"
  },
  {
    "raw": "EFPO 152320Z AUTO 15002KT CAVOK 16/10 Q1012",
    "station": "EFPO",
    "observationTime": 1750029600,
    "temperature": 16,
    "dewpoint": 10,
    "windDirection": 150,
    "windSpeed": 2,
    "visibility": 6,
    "altimeter": 1012,
    "clouds": [
      {
        "type": "CAVOK"
      }
    ],
    "weather": [],
    "flightCategory": "VFR"
  },
  {
    "raw": "EFOU 152320Z AUTO 05005KT CAVOK 13/05 Q1015",
    "station": "EFOU",
    "observationTime": 1750029600,
    "temperature": 13,
    "dewpoint": 5,
    "windDirection": 50,
    "windSpeed": 5,
    "visibility": 6,
    "altimeter": 1015,
    "clouds": [
      {
        "type": "CAVOK"
      }
    ],
    "weather": [],
    "flightCategory": "VFR"
  },
  {
    "raw": "EFMI 152320Z AUTO 34003KT 260V070 CAVOK 17/11 Q1011",
    "station": "EFMI",
    "observationTime": 1750029600,
    "temperature": 17,
    "dewpoint": 11,
    "windDirection": 340,
    "windSpeed": 3,
    "visibility": 6,
    "altimeter": 1011,
    "clouds": [
      {
        "type": "CAVOK"
      }
    ],
    "weather": [],
    "flightCategory": "VFR"
  },
  {
    "raw": "EFMA 152320Z AUTO 16003KT CAVOK 12/10 Q1012",
    "station": "EFMA",
    "observationTime": 1750029600,
    "temperature": 12,
    "dewpoint": 10,
    "windDirection": 160,
    "windSpeed": 3,
    "visibility": 6,
    "altimeter": 1012,
    "clouds": [
      {
        "type": "CAVOK"
      }
    ],
    "weather": [],
    "flightCategory": "VFR"
  },
  {
    "raw": "EFLP 152320Z AUTO 35004KT 320V020 CAVOK 19/12 Q1010",
    "station": "EFLP",
    "observationTime": 1750029600,
    "temperature": 19,
    "dewpoint": 12,
    "windDirection": 350,
    "windSpeed": 4,
    "visibility": 6,
    "altimeter": 1010,
    "clouds": [
      {
        "type": "CAVOK"
      }
    ],
    "weather": [],
    "flightCategory": "VFR"
  },
  {
    "raw": "EFKU 152320Z AUTO VRB03KT CAVOK 14/05 Q1012",
    "station": "EFKU",
    "observationTime": 1750029600,
    "temperature": 14,
    "dewpoint": 5,
    "windSpeed": 3,
    "visibility": 6,
    "altimeter": 1012,
    "clouds": [
      {
        "type": "CAVOK"
      }
    ],
    "weather": [],
    "flightCategory": "VFR"
  },
  {
    "raw": "EFKT 152320Z AUTO 02004KT 330V040 CAVOK 05/01 Q1018",
    "station": "EFKT",
    "observationTime": 1750029600,
    "temperature": 5,
    "dewpoint": 1,
    "windDirection": 20,
    "windSpeed": 4,
    "visibility": 6,
    "altimeter": 1018,
    "clouds": [
      {
        "type": "CAVOK"
      }
    ],
    "weather": [],
    "flightCategory": "VFR"
  },
  {
    "raw": "EFKS 152320Z AUTO 01006KT CAVOK 07/02 Q1016",
    "station": "EFKS",
    "observationTime": 1750029600,
    "temperature": 7,
    "dewpoint": 2,
    "windDirection": 10,
    "windSpeed": 6,
    "visibility": 6,
    "altimeter": 1016,
    "clouds": [
      {
        "type": "CAVOK"
      }
    ],
    "weather": [],
    "flightCategory": "VFR"
  },
  {
    "raw": "EFKK 152320Z AUTO 02005KT CAVOK 11/06 Q1014",
    "station": "EFKK",
    "observationTime": 1750029600,
    "temperature": 11,
    "dewpoint": 6,
    "windDirection": 20,
    "windSpeed": 5,
    "visibility": 6,
    "altimeter": 1014,
    "clouds": [
      {
        "type": "CAVOK"
      }
    ],
    "weather": [],
    "flightCategory": "VFR"
  },
  {
    "raw": "EFKI 152320Z AUTO 04004KT CAVOK 05/03 Q1014",
    "station": "EFKI",
    "observationTime": 1750029600,
    "temperature": 5,
    "dewpoint": 3,
    "windDirection": 40,
    "windSpeed": 4,
    "visibility": 6,
    "altimeter": 1014,
    "clouds": [
      {
        "type": "CAVOK"
      }
    ],
    "weather": [],
    "flightCategory": "VFR"
  },
  {
    "raw": "EFKE 152320Z AUTO 03005KT CAVOK 08/03 Q1017",
    "station": "EFKE",
    "observationTime": 1750029600,
    "temperature": 8,
    "dewpoint": 3,
    "windDirection": 30,
    "windSpeed": 5,
    "visibility": 6,
    "altimeter": 1017,
    "clouds": [
      {
        "type": "CAVOK"
      }
    ],
    "weather": [],
    "flightCategory": "VFR"
  },
  {
    "raw": "EFJY 152320Z AUTO 35004KT CAVOK 14/08 Q1012",
    "station": "EFJY",
    "observationTime": 1750029600,
    "temperature": 14,
    "dewpoint": 8,
    "windDirection": 350,
    "windSpeed": 4,
    "visibility": 6,
    "altimeter": 1012,
    "clouds": [
      {
        "type": "CAVOK"
      }
    ],
    "weather": [],
    "flightCategory": "VFR"
  },
  {
    "raw": "EFJO 152320Z AUTO 04007KT 360V070 CAVOK 16/07 Q1011",
    "station": "EFJO",
    "observationTime": 1750029600,
    "temperature": 16,
    "dewpoint": 7,
    "windDirection": 40,
    "windSpeed": 7,
    "visibility": 6,
    "altimeter": 1011,
    "clouds": [
      {
        "type": "CAVOK"
      }
    ],
    "weather": [],
    "flightCategory": "VFR"
  },
  {
    "raw": "EFIV 152320Z AUTO 36005KT 330V030 9999 OVC018 06/02 Q1018",
    "station": "EFIV",
    "observationTime": 1750029600,
    "temperature": 6,
    "dewpoint": 2,
    "windDirection": 360,
    "windSpeed": 5,
    "visibility": 6,
    "altimeter": 1018,
    "clouds": [
      {
        "type": "OVC",
        "altitude": 1800
      }
    ],
    "weather": [],
    "flightCategory": "MVFR"
  },
  {
    "raw": "EFHK 152320Z 25003KT CAVOK 14/09 Q1012 NOSIG",
    "station": "EFHK",
    "observationTime": 1750029600,
    "temperature": 14,
    "dewpoint": 9,
    "windDirection": 250,
    "windSpeed": 3,
    "visibility": 6,
    "altimeter": 1012,
    "clouds": [
      {
        "type": "CAVOK"
      }
    ],
    "weather": [],
    "flightCategory": "VFR"
  },
  {
    "raw": "EFHA 152320Z AUTO 36004KT CAVOK 16/10 Q1012",
    "station": "EFHA",
    "observationTime": 1750029600,
    "temperature": 16,
    "dewpoint": 10,
    "windDirection": 360,
    "windSpeed": 4,
    "visibility": 6,
    "altimeter": 1012,
    "clouds": [
      {
        "type": "CAVOK"
      }
    ],
    "weather": [],
    "flightCategory": "VFR"
  },
  {
    "raw": "EFET 152320Z AUTO 03003KT CAVOK 03/M01 Q1018",
    "station": "EFET",
    "observationTime": 1750029600,
    "temperature": 3,
    "dewpoint": -1,
    "windDirection": 30,
    "windSpeed": 3,
    "visibility": 6,
    "altimeter": 1018,
    "clouds": [
      {
        "type": "CAVOK"
      }
    ],
    "weather": [],
    "flightCategory": "VFR"
  },
  {
    "raw": "EETU 152320Z AUTO 27009KT 9999 FEW170/// 12/08 Q1014",
    "station": "EETU",
    "observationTime": 1750029600,
    "temperature": 12,
    "dewpoint": 8,
    "windDirection": 270,
    "windSpeed": 9,
    "visibility": 6,
    "altimeter": 1014,
    "clouds": [
      {
        "type": "FEW",
        "altitude": 17000
      }
    ],
    "weather": [],
    "flightCategory": "VFR"
  },
  {
    "raw": "EETN 152320Z 25006KT CAVOK 13/07 Q1014",
    "station": "EETN",
    "observationTime": 1750029600,
    "temperature": 13,
    "dewpoint": 7,
    "windDirection": 250,
    "windSpeed": 6,
    "visibility": 6,
    "altimeter": 1014,
    "clouds": [
      {
        "type": "CAVOK"
      }
    ],
    "weather": [],
    "flightCategory": "VFR"
  },
  {
    "raw": "EEPU 152320Z AUTO 00000KT 9999 NCD 09/09 Q1015",
    "station": "EEPU",
    "observationTime": 1750029600,
    "temperature": 9,
    "dewpoint": 9,
    "visibility": 6,
    "altimeter": 1015,
    "clouds": [
      {
        "type": "CLR"
      }
    ],
    "weather": [],
    "flightCategory": "VFR"
  },
  {
    "raw": "EEKE 152320Z AUTO 22005KT 9999 NCD 13/10 Q1015",
    "station": "EEKE",
    "observationTime": 1750029600,
    "temperature": 13,
    "dewpoint": 10,
    "windDirection": 220,
    "windSpeed": 5,
    "visibility": 6,
    "altimeter": 1015,
    "clouds": [
      {
        "type": "CLR"
      }
    ],
    "weather": [],
    "flightCategory": "VFR"
  },
  {
    "raw": "EEKA 152320Z AUTO 20005KT 150V230 9999 BKN170/// 12/10 Q1014",
    "station": "EEKA",
    "observationTime": 1750029600,
    "temperature": 12,
    "dewpoint": 10,
    "windDirection": 200,
    "windSpeed": 5,
    "visibility": 6,
    "altimeter": 1014,
    "clouds": [
      {
        "type": "BKN",
        "altitude": 17000
      }
    ],
    "weather": [],
    "flightCategory": "VFR"
  },
  {
    "raw": "EDXW 152320Z AUTO 29012KT 9999 // BKN010/// BKN029/// OVC036/// 15/13 Q1020",
    "station": "EDXW",
    "observationTime": 1750029600,
    "temperature": 15,
    "dewpoint": 13,
    "windDirection": 290,
    "windSpeed": 12,
    "visibility": 6,
    "altimeter": 1020,
    "clouds": [
      {
        "type": "BKN",
        "altitude": 1000
      },
      {
        "type": "BKN",
        "altitude": 2900
      },
      {
        "type": "OVC",
        "altitude": 3600
      }
    ],
    "weather": [],
    "flightCategory": "MVFR"
  },
  {
    "raw": "EDWE 152320Z AUTO 24007KT 9999 FEW021 13/12 Q1023",
    "station": "EDWE",
    "observationTime": 1750029600,
    "temperature": 13,
    "dewpoint": 12,
    "windDirection": 240,
    "windSpeed": 7,
    "visibility": 6,
    "altimeter": 1023,
    "clouds": [
      {
        "type": "FEW",
        "altitude": 2100
      }
    ],
    "weather": [],
    "flightCategory": "VFR"
  },
  {
    "raw": "EDVK 152320Z AUTO 28007KT 9999 // FEW039/// BKN067/// 16/12 Q1023",
    "station": "EDVK",
    "observationTime": 1750029600,
    "temperature": 16,
    "dewpoint": 12,
    "windDirection": 280,
    "windSpeed": 7,
    "visibility": 6,
    "altimeter": 1023,
    "clouds": [
      {
        "type": "FEW",
        "altitude": 3900
      },
      {
        "type": "BKN",
        "altitude": 6700
      }
    ],
    "weather": [],
    "flightCategory": "VFR"
  },
  {
    "raw": "EDVE 152320Z AUTO 29005KT CAVOK 16/13 Q1022",
    "station": "EDVE",
    "observationTime": 1750029600,
    "temperature": 16,
    "dewpoint": 13,
    "windDirection": 290,
    "windSpeed": 5,
    "visibility": 6,
    "altimeter": 1022,
    "clouds": [
      {
        "type": "CAVOK"
      }
    ],
    "weather": [],
    "flightCategory": "VFR"
  },
  {
    "raw": "EDTY 152320Z AUTO 25004KT 9999 // FEW003/// BKN088/// OVC130/// 14/14 Q1025",
    "station": "EDTY",
    "observationTime": 1750029600,
    "temperature": 14,
    "dewpoint": 14,
    "windDirection": 250,
    "windSpeed": 4,
    "visibility": 6,
    "altimeter": 1025,
    "clouds": [
      {
        "type": "FEW",
        "altitude": 300
      },
      {
        "type": "BKN",
        "altitude": 8800
      },
      {
        "type": "OVC",
        "altitude": 13000
      }
    ],
    "weather": [],
    "flightCategory": "VFR"
  },
  {
    "raw": "EDTL 152320Z AUTO VRB03KT 9999 // BKN022/// BKN026/// 15/15 Q1026",
    "station": "EDTL",
    "observationTime": 1750029600,
    "temperature": 15,
    "dewpoint": 15,
    "windSpeed": 3,
    "visibility": 6,
    "altimeter": 1026,
    "clouds": [
      {
        "type": "BKN",
        "altitude": 2200
      },
      {
        "type": "BKN",
        "altitude": 2600
      }
    ],
    "weather": [],
    "flightCategory": "MVFR"
  },
  {
    "raw": "EDSB 152320Z AUTO 22004KT 9999 // FEW009/// BKN037/// OVC043/// 16/15 Q1026",
    "station": "EDSB",
    "observationTime": 1750029600,
    "temperature": 16,
    "dewpoint": 15,
    "windDirection": 220,
    "windSpeed": 4,
    "visibility": 6,
    "altimeter": 1026,
    "clouds": [
      {
        "type": "FEW",
        "altitude": 900
      },
      {
        "type": "BKN",
        "altitude": 3700
      },
      {
        "type": "OVC",
        "altitude": 4300
      }
    ],
    "weather": [],
    "flightCategory": "VFR"
  },
  {
    "raw": "EDQM 152320Z AUTO 01005KT 320V060 9999 // FEW007/// SCT009/// OVC029/// 14/13 Q1022",
    "station": "EDQM",
    "observationTime": 1750029600,
    "temperature": 14,
    "dewpoint": 13,
    "windDirection": 10,
    "windSpeed": 5,
    "visibility": 6,
    "altimeter": 1022,
    "clouds": [
      {
        "type": "FEW",
        "altitude": 700
      },
      {
        "type": "SCT",
        "altitude": 900
      },
      {
        "type": "OVC",
        "altitude": 2900
      }
    ],
    "weather": [],
    "flightCategory": "MVFR"
  },
  {
    "raw": "EDNY 152320Z AUTO VRB01KT 9999 // FEW022/// BKN026/// OVC080/// 18/17 Q1025",
    "station": "EDNY",
    "observationTime": 1750029600,
    "temperature": 18,
    "dewpoint": 17,
    "windSpeed": 1,
    "visibility": 6,
    "altimeter": 1025,
    "clouds": [
      {
        "type": "FEW",
        "altitude": 2200
      },
      {
        "type": "BKN",
        "altitude": 2600
      },
      {
        "type": "OVC",
        "altitude": 8000
      }
    ],
    "weather": [],
    "flightCategory": "MVFR"
  },
  {
    "raw": "EDMO 152320Z AUTO 25008KT 9999 SHRA BKN007 BKN009 SCT///TCU 16/16 Q1024",
    "station": "EDMO",
    "observationTime": 1750029600,
    "temperature": 16,
    "dewpoint": 16,
    "windDirection": 250,
    "windSpeed": 8,
    "visibility": 6,
    "altimeter": 1024,
    "clouds": [
      {
        "type": "BKN",
        "altitude": 700
      },
      {
        "type": "BKN",
        "altitude": 900
      }
    ],
    "weather": [
      "SHRA"
    ],
    "flightCategory": "IFR"
  },
  {
    "raw": "EDMA 152320Z AUTO 27006KT 9999 // SCT009/// BKN011/// OVC017/// 17/16 Q1023",
    "station": "EDMA",
    "observationTime": 1750029600,
    "temperature": 17,
    "dewpoint": 16,
    "windDirection": 270,
    "windSpeed": 6,
    "visibility": 6,
    "altimeter": 1023,
    "clouds": [
      {
        "type": "SCT",
        "altitude": 900
      },
      {
        "type": "BKN",
        "altitude": 1100
      },
      {
        "type": "OVC",
        "altitude": 1700
      }
    ],
    "weather": [],
    "flightCategory": "MVFR"
  },
  {
    "raw": "EDLW 152320Z AUTO VRB02KT 9999 // FEW250/// 14/11 Q1024",
    "station": "EDLW",
    "observationTime": 1750029600,
    "temperature": 14,
    "dewpoint": 11,
    "windSpeed": 2,
    "visibility": 6,
    "altimeter": 1024,
    "clouds": [
      {
        "type": "FEW",
        "altitude": 25000
      }
    ],
    "weather": [],
    "flightCategory": "VFR"
  },
  {
    "raw": "EDLV 152320Z AUTO 30003KT 9999 // NCD 14/11 Q1025",
    "station": "EDLV",
    "observationTime": 1750029600,
    "temperature": 14,
    "dewpoint": 11,
    "windDirection": 300,
    "windSpeed": 3,
    "visibility": 6,
    "altimeter": 1025,
    "clouds": [
      {
        "type": "CLR"
      }
    ],
    "weather": [],
    "flightCategory": "VFR"
  },
  {
    "raw": "EDLP 152320Z 28003KT 230V320 9999 BKN040 15/11 Q1024",
    "station": "EDLP",
    "observationTime": 1750029600,
    "temperature": 15,
    "dewpoint": 11,
    "windDirection": 280,
    "windSpeed": 3,
    "visibility": 6,
    "altimeter": 1024,
    "clouds": [
      {
        "type": "BKN",
        "altitude": 4000
      }
    ],
    "weather": [],
    "flightCategory": "VFR"
  },
  {
    "raw": "EDLN 152320Z AUTO 34002KT 9999 // NCD 13/11 Q1025",
    "station": "EDLN",
    "observationTime": 1750029600,
    "temperature": 13,
    "dewpoint": 11,
    "windDirection": 340,
    "windSpeed": 2,
    "visibility": 6,
    "altimeter": 1025,
    "clouds": [
      {
        "type": "CLR"
      }
    ],
    "weather": [],
    "flightCategory": "VFR"
  },
  {
    "raw": "EDJA 152320Z AUTO 24008KT 9999 // SCT014/// BKN039/// OVC051/// 15/14 Q1025",
    "station": "EDJA",
    "observationTime": 1750029600,
    "temperature": 15,
    "dewpoint": 14,
    "windDirection": 240,
    "windSpeed": 8,
    "visibility": 6,
    "altimeter": 1025,
    "clouds": [
      {
        "type": "SCT",
        "altitude": 1400
      },
      {
        "type": "BKN",
        "altitude": 3900
      },
      {
        "type": "OVC",
        "altitude": 5100
      }
    ],
    "weather": [],
    "flightCategory": "VFR"
  },
  {
    "raw": "EDHL 152320Z AUTO 29009G20KT 250V320 9999 // OVC076/// 15/13 Q1020",
    "station": "EDHL",
    "observationTime": 1750029600,
    "temperature": 15,
    "dewpoint": 13,
    "windDirection": 290,
    "windSpeed": 9,
    "windGust": 20,
    "visibility": 6,
    "altimeter": 1020,
    "clouds": [
      {
        "type": "OVC",
        "altitude": 7600
      }
    ],
    "weather": [],
    "flightCategory": "VFR"
  },
  {
    "raw": "EDHK 152320Z AUTO 28009KT 200V010 9999 // NCD 13/12 Q1020",
    "station": "EDHK",
    "observationTime": 1750029600,
    "temperature": 13,
    "dewpoint": 12,
    "windDirection": 280,
    "windSpeed": 9,
    "visibility": 6,
    "altimeter": 1020,
    "clouds": [
      {
        "type": "CLR"
      }
    ],
    "weather": [],
    "flightCategory": "VFR"
  },
  {
    "raw": "EDHI 152320Z AUTO 26008KT 9999 // FEW010/// BKN013/// 15/13 Q1022",
    "station": "EDHI",
    "observationTime": 1750029600,
    "temperature": 15,
    "dewpoint": 13,
    "windDirection": 260,
    "windSpeed": 8,
    "visibility": 6,
    "altimeter": 1022,
    "clouds": [
      {
        "type": "FEW",
        "altitude": 1000
      },
      {
        "type": "BKN",
        "altitude": 1300
      }
    ],
    "weather": [],
    "flightCategory": "MVFR"
  },
  {
    "raw": "EDGS 152320Z AUTO 30009KT 9999 // BKN190/// 14/10 Q1025",
    "station": "EDGS",
    "observationTime": 1750029600,
    "temperature": 14,
    "dewpoint": 10,
    "windDirection": 300,
    "windSpeed": 9,
    "visibility": 6,
    "altimeter": 1025,
    "clouds": [
      {
        "type": "BKN",
        "altitude": 19000
      }
    ],
    "weather": [],
    "flightCategory": "VFR"
  },
  {
    "raw": "EDFM 152320Z AUTO 24003KT 210V270 9999 // FEW044/// SCT070/// OVC093/// 17/15 Q1025",
    "station": "EDFM",
    "observationTime": 1750029600,
    "temperature": 17,
    "dewpoint": 15,
    "windDirection": 240,
    "windSpeed": 3,
    "visibility": 6,
    "altimeter": 1025,
    "clouds": [
      {
        "type": "FEW",
        "altitude": 4400
      },
      {
        "type": "SCT",
        "altitude": 7000
      },
      {
        "type": "OVC",
        "altitude": 9300
      }
    ],
    "weather": [],
    "flightCategory": "VFR"
  },
  {
    "raw": "EDFH 152320Z 30004KT 9999 BKN035 14/11 Q1025",
    "station": "EDFH",
    "observationTime": 1750029600,
    "temperature": 14,
    "dewpoint": 11,
    "windDirection": 300,
    "windSpeed": 4,
    "visibility": 6,
    "altimeter": 1025,
    "clouds": [
      {
        "type": "BKN",
        "altitude": 3500
      }
    ],
    "weather": [],
    "flightCategory": "VFR"
  },
  {
    "raw": "EDDW 152320Z AUTO 28006KT CAVOK 13/11 Q1023",
    "station": "EDDW",
    "observationTime": 1750029600,
    "temperature": 13,
    "dewpoint": 11,
    "windDirection": 280,
    "windSpeed": 6,
    "visibility": 6,
    "altimeter": 1023,
    "clouds": [
      {
        "type": "CAVOK"
      }
    ],
    "weather": [],
    "flightCategory": "VFR"
  },
  {
    "raw": "EDDV 152320Z AUTO 30009KT 250V320 CAVOK 15/12 Q1022",
    "station": "EDDV",
    "observationTime": 1750029600,
    "temperature": 15,
    "dewpoint": 12,
    "windDirection": 300,
    "windSpeed": 9,
    "visibility": 6,
    "altimeter": 1022,
    "clouds": [
      {
        "type": "CAVOK"
      }
    ],
    "weather": [],
    "flightCategory": "VFR"
  },
  {
    "raw": "EDDS 152320Z AUTO VRB02KT CAVOK 15/13 Q1025",
    "station": "EDDS",
    "observationTime": 1750029600,
    "temperature": 15,
    "dewpoint": 13,
    "windSpeed": 2,
    "visibility": 6,
    "altimeter": 1025,
    "clouds": [
      {
        "type": "CAVOK"
      }
    ],
    "weather": [],
    "flightCategory": "VFR"
  },
  {
    "raw": "EDDR 152320Z AUTO 25003KT CAVOK 15/14 Q1026",
    "station": "EDDR",
    "observationTime": 1750029600,
    "temperature": 15,
    "dewpoint": 14,
    "windDirection": 250,
    "windSpeed": 3,
    "visibility": 6,
    "altimeter": 1026,
    "clouds": [
      {
        "type": "CAVOK"
      }
    ],
    "weather": [],
    "flightCategory": "VFR"
  },
  {
    "raw": "EDDP 152320Z AUTO 29010KT 9000 SHRA FEW042 FEW///TCU 16/15 Q1021 NOSIG",
    "station": "EDDP",
    "observationTime": 1750029600,
    "temperature": 16,
    "dewpoint": 15,
    "windDirection": 290,
    "windSpeed": 10,
    "visibility": 5.59,
    "altimeter": 1021,
    "clouds": [
      {
        "type": "FEW",
        "altitude": 4200
      }
    ],
    "weather": [
      "SHRA"
    ],
    "flightCategory": "VFR"
  },
  {
    "raw": "EDDN 152320Z AUTO 31007KT 9999 VCSH SCT028 BKN037 BKN048 FEW///TCU 16/12 Q1022 RESHRA",
    "station": "EDDN",
    "observationTime": 1750029600,
    "temperature": 16,
    "dewpoint": 12,
    "windDirection": 310,
    "windSpeed": 7,
    "visibility": 6,
    "altimeter": 1022,
    "clouds": [
      {
        "type": "SCT",
        "altitude": 2800
      },
      {
        "type": "BKN",
        "altitude": 3700
      },
      {
        "type": "BKN",
        "altitude": 4800
      }
    ],
    "weather": [
      "VCSH"
    ],
    "flightCategory": "VFR"
  },
  {
    "raw": "EDDM 152320Z AUTO 26008KT 9999 VCSH BKN015 FEW///TCU 17/16 Q1022 RESHRA TEMPO RA BKN009",
    "station": "EDDM",
    "observationTime": 1750029600,
    "temperature": 17,
    "dewpoint": 16,
    "windDirection": 260,
    "windSpeed": 8,
    "visibility": 6,
    "altimeter": 1022,
    "clouds": [
      {
        "type": "BKN",
        "altitude": 1500
      }
    ],
    "weather": [
      "VCSH"
    ],
    "flightCategory": "MVFR"
  },
  {
    "raw": "EDDL 152320Z AUTO 31005KT CAVOK 16/11 Q1025 NOSIG",
    "station": "EDDL",
    "observationTime": 1750029600,
    "temperature": 16,
    "dewpoint": 11,
    "windDirection": 310,
    "windSpeed": 5,
    "visibility": 6,
    "altimeter": 1025,
    "clouds": [
      {
        "type": "CAVOK"
      }
    ],
    "weather": [],
    "flightCategory": "VFR"
  },
  {
    "raw": "EDDK 152320Z AUTO 33004KT CAVOK 15/10 Q1025 NOSIG",
    "station": "EDDK",
    "observationTime": 1750029600,
    "temperature": 15,
    "dewpoint": 10,
    "windDirection": 330,
    "windSpeed": 4,
    "visibility": 6,
    "altimeter": 1025,
    "clouds": [
      {
        "type": "CAVOK"
      }
    ],
    "weather": [],
    "flightCategory": "VFR"
  },
  {
    "raw": "EDDH 152320Z AUTO 28006KT 9999 FEW011 SCT015 14/13 Q1021 TEMPO BKN012",
    "station": "EDDH",
    "observationTime": 1750029600,
    "temperature": 14,
    "dewpoint": 13,
    "windDirection": 280,
    "windSpeed": 6,
    "visibility": 6,
    "altimeter": 1021,
    "clouds": [
      {
        "type": "FEW",
        "altitude": 1100
      },
      {
        "type": "SCT",
        "altitude": 1500
      }
    ],
    "weather": [],
    "flightCategory": "VFR"
  },
  {
    "raw": "EDDG 152320Z AUTO 29005KT CAVOK 14/11 Q1024 NOSIG",
    "station": "EDDG",
    "observationTime": 1750029600,
    "temperature": 14,
    "dewpoint": 11,
    "windDirection": 290,
    "windSpeed": 5,
    "visibility": 6,
    "altimeter": 1024,
    "clouds": [
      {
        "type": "CAVOK"
      }
    ],
    "weather": [],
    "flightCategory": "VFR"
  },
  {
    "raw": "EDDF 152320Z AUTO 22003KT 9999 VCSH FEW045 FEW///TCU 17/16 Q1024 NOSIG",
    "station": "EDDF",
    "observationTime": 1750029600,
    "temperature": 17,
    "dewpoint": 16,
    "windDirection": 220,
    "windSpeed": 3,
    "visibility": 6,
    "altimeter": 1024,
    "clouds": [
      {
        "type": "FEW",
        "altitude": 4500
      }
    ],
    "weather": [
      "VCSH"
    ],
    "flightCategory": "VFR"
  },
  {
    "raw": "EDDE 152320Z AUTO 27009KT 9999 VCSH FEW///TCU 15/13 Q1022",
    "station": "EDDE",
    "observationTime": 1750029600,
    "temperature": 15,
    "dewpoint": 13,
    "windDirection": 270,
    "windSpeed": 9,
    "visibility": 6,
    "altimeter": 1022,
    "clouds": [],
    "weather": [
      "VCSH"
    ],
    "flightCategory": "VFR"
  },
  {
    "raw": "EDDC 152320Z AUTO 33007KT 220V350 7000 +SHRA BKN005 BKN014 FEW///TCU 17/16 Q1019",
    "station": "EDDC",
    "observationTime": 1750029600,
    "temperature": 17,
    "dewpoint": 16,
    "windDirection": 330,
    "windSpeed": 7,
    "visibility": 4.35,
    "altimeter": 1019,
    "clouds": [
      {
        "type": "BKN",
        "altitude": 500
      },
      {
        "type": "BKN",
        "altitude": 1400
      }
    ],
    "weather": [
      "+SHRA"
    ],
    "flightCategory": "IFR"
  },
  {
    "raw": "EDDB 152320Z AUTO 30011KT 9999 BKN016 BKN024 OVC031 17/15 Q1019 BECMG NSW",
    "station": "EDDB",
    "observationTime": 1750029600,
    "temperature": 17,
    "dewpoint": 15,
    "windDirection": 300,
    "windSpeed": 11,
    "visibility": 6,
    "altimeter": 1019,
    "clouds": [
      {
        "type": "BKN",
        "altitude": 1600
      },
      {
        "type": "BKN",
        "altitude": 2400
      },
      {
        "type": "OVC",
        "altitude": 3100
      }
    ],
    "weather": [],
    "flightCategory": "MVFR"
  },
  {
    "raw": "EDBC 152320Z AUTO 31009KT 9999 SCT038 16/13 Q1021",
    "station": "EDBC",
    "observationTime": 1750029600,
    "temperature": 16,
    "dewpoint": 13,
    "windDirection": 310,
    "windSpeed": 9,
    "visibility": 6,
    "altimeter": 1021,
    "clouds": [
      {
        "type": "SCT",
        "altitude": 3800
      }
    ],
    "weather": [],
    "flightCategory": "VFR"
  },
  {
    "raw": "EDAH 152320Z AUTO 30008KT 260V330 9999 // OVC007/// 16/15 Q1017",
    "station": "EDAH",
    "observationTime": 1750029600,
    "temperature": 16,
    "dewpoint": 15,
    "windDirection": 300,
    "windSpeed": 8,
    "visibility": 6,
    "altimeter": 1017,
    "clouds": [
      {
        "type": "OVC",
        "altitude": 700
      }
    ],
    "weather": [],
    "flightCategory": "IFR"
  },
  {
    "raw": "EDAC 152320Z AUTO 24003KT 190V270 9999 // SCT022/// OVC042/// 15/14 Q1021",
    "station": "EDAC",
    "observationTime": 1750029600,
    "temperature": 15,
    "dewpoint": 14,
    "windDirection": 240,
    "windSpeed": 3,
    "visibility": 6,
    "altimeter": 1021,
    "clouds": [
      {
        "type": "SCT",
        "altitude": 2200
      },
      {
        "type": "OVC",
        "altitude": 4200
      }
    ],
    "weather": [],
    "flightCategory": "VFR"
  },
  {
    "raw": "EBOS 152320Z 21005KT CAVOK 14/12 Q1026 NOSIG",
    "station": "EBOS",
    "observationTime": 1750029600,
    "temperature": 14,
    "dewpoint": 12,
    "windDirection": 210,
    "windSpeed": 5,
    "visibility": 6,
    "altimeter": 1026,
    "clouds": [
      {
        "type": "CAVOK"
      }
    ],
    "weather": [],
    "flightCategory": "VFR"
  },
  {
    "raw": "EBLG 152320Z 28002KT CAVOK 14/11 Q1026 NOSIG",
    "station": "EBLG",
    "observationTime": 1750029600,
    "temperature": 14,
    "dewpoint": 11,
    "windDirection": 280,
    "windSpeed": 2,
    "visibility": 6,
    "altimeter": 1026,
    "clouds": [
      {
        "type": "CAVOK"
      }
    ],
    "weather": [],
    "flightCategory": "VFR"
  },
  {
    "raw": "EBCI 152320Z 27005KT 210V310 9999 FEW045 14/11 Q1027 NOSIG",
    "station": "EBCI",
    "observationTime": 1750029600,
    "temperature": 14,
    "dewpoint": 11,
    "windDirection": 270,
    "windSpeed": 5,
    "visibility": 6,
    "altimeter": 1027,
    "clouds": [
      {
        "type": "FEW",
        "altitude": 4500
      }
    ],
    "weather": [],
    "flightCategory": "VFR"
  },
  {
    "raw": "EBBR 152320Z 19005KT CAVOK 13/11 Q1026 NOSIG",
    "station": "EBBR",
    "observationTime": 1750029600,
    "temperature": 13,
    "dewpoint": 11,
    "windDirection": 190,
    "windSpeed": 5,
    "visibility": 6,
    "altimeter": 1026,
    "clouds": [
      {
        "type": "CAVOK"
      }
    ],
    "weather": [],
    "flightCategory": "VFR"
  },
  {
    "raw": "EBAW 152320Z AUTO 17001KT 9999 // VV/// 14/11 Q1026",
    "station": "EBAW",
    "observationTime": 1750029600,
    "temperature": 14,
    "dewpoint": 11,
    "windDirection": 170,
    "windSpeed": 1,
    "visibility": 6,
    "altimeter": 1026,
    "clouds": [
      {
        "type": "OVX"
      }
    ],
    "weather": [],
    "flightCategory": "VFR"
  },
  {
    "raw": "CYPX 152320Z AUTO 24022G27KT 2SM -RA -UP BR BKN010 OVC018 00/00 A2956 RMK VIS VRB 1 1/4-3 SLP014",
    "station": "CYPX",
    "observationTime": 1750029600,
    "windDirection": 240,
    "windSpeed": 22,
    "windGust": 27,
    "visibility": 2,
    "altimeter": 1001.1,
    "clouds": [
      {
        "type": "BKN",
        "altitude": 1000
      },
      {
        "type": "OVC",
        "altitude": 1800
      }
    ],
    "weather": [
      "-RA BR UP"
    ],
    "flightCategory": "IFR"
  },
  {
    "raw": "CYDQ 152320Z AUTO VRB13KT 9SM TS FEW086 16/09 A3005 RMK LTNG DIST NW SLP193 DENSITY ALT 2600FT",
    "station": "CYDQ",
    "observationTime": 1750029600,
    "temperature": 16,
    "dewpoint": 9,
    "windSpeed": 13,
    "visibility": 9,
    "altimeter": 1017.7,
    "clouds": [
      {
        "type": "FEW",
        "altitude": 8600
      }
    ],
    "weather": [
      "TS"
    ],
    "flightCategory": "VFR"
  },
  {
    "raw": "BGSF 152320Z AUTO 24008KT 4200NDV -RA BR FEW010/// BKN015/// OVC019/// 07/06 Q1006",
    "station": "BGSF",
    "observationTime": 1750029600,
    "temperature": 7,
    "dewpoint": 6,
    "windDirection": 240,
    "windSpeed": 8,
    "altimeter": 1006,
    "clouds": [
      {
        "type": "FEW",
        "altitude": 1000
      },
      {
        "type": "BKN",
        "altitude": 1500
      },
      {
        "type": "OVC",
        "altitude": 1900
      }
    ],
    "weather": [
      "-RA BR"
    ],
    "flightCategory": "MVFR"
  },
  {
    "raw": "BGKK 152320Z AUTO VRB03KT 9999NDV BKN092/// 05/01 Q1011",
    "station": "BGKK",
    "observationTime": 1750029600,
    "temperature": 5,
    "dewpoint": 1,
    "windSpeed": 3,
    "altimeter": 1011,
    "clouds": [
      {
        "type": "BKN",
        "altitude": 9200
      }
    ],
    "weather": [],
    "flightCategory": "VFR"
  },
  {
    "raw": "BGJN 152320Z AUTO 23005KT 9999NDV OVC007/// 05/03 Q1007",
    "station": "BGJN",
    "observationTime": 1750029600,
    "temperature": 5,
    "dewpoint": 3,
    "windDirection": 230,
    "windSpeed": 5,
    "altimeter": 1007,
    "clouds": [
      {
        "type": "OVC",
        "altitude": 700
      }
    ],
    "weather": [],
    "flightCategory": "IFR"
  },
  {
    "raw": "BGGH 152320Z AUTO 01006KT 9999 SCT011/// BKN100/// BKN160/// 04/02 Q1006",
    "station": "BGGH",
    "observationTime": 1750029600,
    "temperature": 4,
    "dewpoint": 2,
    "windDirection": 10,
    "windSpeed": 6,
    "visibility": 6,
    "altimeter": 1006,
    "clouds": [
      {
        "type": "SCT",
        "altitude": 1100
      },
      {
        "type": "BKN",
        "altitude": 10000
      },
      {
        "type": "BKN",
        "altitude": 16000
      }
    ],
    "weather": [],
    "flightCategory": "VFR"
  },
  {
    "raw": "BGBW 152320Z AUTO 18002KT 9999NDV BKN048/// 09/06 Q1006",
    "station": "BGBW",
    "observationTime": 1750029600,
    "temperature": 9,
    "dewpoint": 6,
    "windDirection": 180,
    "windSpeed": 2,
    "altimeter": 1006,
    "clouds": [
      {
        "type": "BKN",
        "altitude": 4800
      }
    ],
    "weather": [],
    "flightCategory": "VFR"
  },
  {
    "raw": "PAPE 152319Z AUTO 08017G20KT 2 1/2SM -RA BR BKN009 OVC014 08/07 A2968 RMK AO2 CIG 005V012 P0002",
    "station": "PAPE",
    "observationTime": 1750029540,
    "temperature": 8,
    "dewpoint": 7,
    "windDirection": 80,
    "windSpeed": 17,
    "windGust": 20,
    "visibility": 2.5,
    "altimeter": 1005.2,
    "clouds": [
      {
        "type": "BKN",
        "altitude": 900
      },
      {
        "type": "OVC",
        "altitude": 1400
      }
    ],
    "weather": [
      "-RA BR"
    ],
    "flightCategory": "IFR"
  },
  {
    "raw": "MMLO 152319Z 08005KT 6SM TSRA BKN030CB BKN090 OVC220 19/17 A3024 RMK 8/963 RA B 10",
    "station": "MMLO",
    "observationTime": 1750029540,
    "temperature": 19,
    "dewpoint": 17,
    "windDirection": 80,
    "windSpeed": 5,
    "visibility": 6,
    "altimeter": 1024.1,
    "clouds": [
      {
        "type": "BKN",
        "altitude": 3000
      },
      {
        "type": "BKN",
        "altitude": 9000
      },
      {
        "type": "OVC",
        "altitude": 22000
      }
    ],
    "weather": [
      "TSRA"
    ],
    "flightCategory": "VFR"
  },
  {
    "raw": "LKPD 152319Z 27016KT 9999 VCTS FEW020CB BKN070 20/17 Q1018 RMK BLU",
    "station": "LKPD",
    "observationTime": 1750029540,
    "temperature": 20,
    "dewpoint": 17,
    "windDirection": 270,
    "windSpeed": 16,
    "visibility": 6,
    "altimeter": 1018,
    "clouds": [
      {
        "type": "FEW",
        "altitude": 2000
      },
      {
        "type": "BKN",
        "altitude": 7000
      }
    ],
    "weather": [
      "VCTS"
    ],
    "flightCategory": "VFR"
  },
  {
    "raw": "KVIH 152319Z AUTO 19004KT 2 1/2SM RA BR OVC090 23/23 A3003 RMK AO2 P0004 T02330228 $",
    "station": "KVIH",
    "observationTime": 1750029540,
    "temperature": 23.3,
    "dewpoint": 22.8,
    "windDirection": 190,
    "windSpeed": 4,
    "visibility": 2.5,
    "altimeter": 1017,
    "clouds": [
      {
        "type": "OVC",
        "altitude": 9000
      }
    ],
    "weather": [
      "RA BR"
    ],
    "flightCategory": "IFR"
  },
  {
    "raw": "KORF 152319Z 10004KT 3SM RA BR OVC006 24/23 A3004 RMK AO2 LTG DSNT S P0007 T02390233 $",
    "station": "KORF",
    "observationTime": 1750029540,
    "temperature": 23.9,
    "dewpoint": 23.3,
    "windDirection": 100,
    "windSpeed": 4,
    "visibility": 3,
    "altimeter": 1017.4,
    "clouds": [
      {
        "type": "OVC",
        "altitude": 600
      }
    ],
    "weather": [
      "RA BR"
    ],
    "flightCategory": "IFR"
  },
  {
    "raw": "KMPO 152319Z AUTO 08005KT 1SM BR VV002 13/13 A3016 RMK AO2 T01330128",
    "station": "KMPO",
    "observationTime": 1750029540,
    "temperature": 13.3,
    "dewpoint": 12.8,
    "windDirection": 80,
    "windSpeed": 5,
    "visibility": 1,
    "altimeter": 1021.4,
    "clouds": [
      {
        "type": "OVX"
      }
    ],
    "weather": [
      "BR"
    ],
    "flightCategory": "IFR"
  },
  {
    "raw": "KMML 152319Z AUTO 10008KT 6SM -RA FEW008 OVC014 19/ A3004 RMK AO2 LTG DSNT E AND SE TSE17 P0000",
    "station": "KMML",
    "observationTime": 1750029540,
    "temperature": 19,
    "windDirection": 100,
    "windSpeed": 8,
    "visibility": 6,
    "altimeter": 1017.4,
    "clouds": [
      {
        "type": "FEW",
        "altitude": 800
      },
      {
        "type": "OVC",
        "altitude": 1400
      }
    ],
    "weather": [
      "-RA"
    ],
    "flightCategory": "MVFR"
  },
  {
    "raw": "KILG 152319Z 08009KT 10SM OVC009 18/15 A3012 RMK AO2 T01780150",
    "station": "KILG",
    "observationTime": 1750029540,
    "temperature": 17.8,
    "dewpoint": 15,
    "windDirection": 80,
    "windSpeed": 9,
    "visibility": 10,
    "altimeter": 1020.1,
    "clouds": [
      {
        "type": "OVC",
        "altitude": 900
      }
    ],
    "weather": [],
    "flightCategory": "IFR"
  },
  {
    "raw": "KFRM 152319Z AUTO 34004KT 10SM VCTS OVC095 27/21 A3003 RMK AO2 LTG DSNT S AND SW TSB03E18B19",
    "station": "KFRM",
    "observationTime": 1750029540,
    "temperature": 27,
    "dewpoint": 21,
    "windDirection": 340,
    "windSpeed": 4,
    "visibility": 10,
    "altimeter": 1017,
    "clouds": [
      {
        "type": "OVC",
        "altitude": 9500
      }
    ],
    "weather": [
      "VCTS"
    ],
    "flightCategory": "VFR"
  },
  {
    "raw": "KFME 152319Z AUTO 09008KT 10SM OVC010 18/17 A3011 RMK AO1",
    "station": "KFME",
    "observationTime": 1750029540,
    "temperature": 18,
    "dewpoint": 17,
    "windDirection": 90,
    "windSpeed": 8,
    "visibility": 10,
    "altimeter": 1019.7,
    "clouds": [
      {
        "type": "OVC",
        "altitude": 1000
      }
    ],
    "weather": [],
    "flightCategory": "MVFR"
  },
  {
    "raw": "KDYL 152319Z AUTO 00000KT 10SM BKN010 OVC014 16/14 A3013 RMK AO2 CIG 007V012 T01610144 PNO $",
    "station": "KDYL",
    "observationTime": 1750029540,
    "temperature": 16.1,
    "dewpoint": 14.4,
    "visibility": 10,
    "altimeter": 1020.4,
    "clouds": [
      {
        "type": "BKN",
        "altitude": 1000
      },
      {
        "type": "OVC",
        "altitude": 1400
      }
    ],
    "weather": [],
    "flightCategory": "MVFR"
  },
  {
    "raw": "KCFS 152319Z AUTO 02005KT 10SM CLR 23/12 A3010 RMK AO2",
    "station": "KCFS",
    "observationTime": 1750029540,
    "temperature": 23,
    "dewpoint": 12,
    "windDirection": 20,
    "windSpeed": 5,
    "visibility": 10,
    "altimeter": 1019.4,
    "clouds": [
      {
        "type": "CLR"
      }
    ],
    "weather": [],
    "flightCategory": "VFR"
  },
  {
    "raw": "KBZN 152319Z 14010G26KT 10SM VCTS -RA FEW075 BKN100 OVC120 21/09 A3001 RMK AO2 PK WND 18026/2313 WSHFT 2245 LTG DSNT NE AND SE RAB10 TSB2258E13 P0000 T02110089",
    "station": "KBZN",
    "observationTime": 1750029540,
    "temperature": 21.1,
    "dewpoint": 8.9,
    "windDirection": 140,
    "windSpeed": 10,
    "windGust": 26,
    "visibility": 10,
    "altimeter": 1016.3,
    "clouds": [
      {
        "type": "FEW",
        "altitude": 7500
      },
      {
        "type": "BKN",
        "altitude": 10000
      },
      {
        "type": "OVC",
        "altitude": 12000
      }
    ],
    "weather": [
      "VCTS -RA"
    ],
    "flightCategory": "VFR"
  },
  {
    "raw": "K2W6 152319Z AUTO 07003KT 4SM OVC010 20/20 A3008 RMK AO1 P0002",
    "station": "K2W6",
    "observationTime": 1750029540,
    "temperature": 20,
    "dewpoint": 20,
    "windDirection": 70,
    "windSpeed": 3,
    "visibility": 4,
    "altimeter": 1018.7,
    "clouds": [
      {
        "type": "OVC",
        "altitude": 1000
      }
    ],
    "weather": [],
    "flightCategory": "MVFR"
  },
  {
    "raw": "EHKD 152319Z AUTO 24004KT 8000 BR NCD 14/13 Q1024 BLU",
    "station": "EHKD",
    "observationTime": 1750029540,
    "temperature": 14,
    "dewpoint": 13,
    "windDirection": 240,
    "windSpeed": 4,
    "visibility": 4.97,
    "altimeter": 1024,
    "clouds": [
      {
        "type": "CLR"
      }
    ],
    "weather": [
      "BR"
    ],
    "flightCategory": "MVFR"
  },
  {
    "raw": "CYPX 152319Z AUTO 24021G28KT 2 1/4SM -RA BR BKN010 OVC018 00/00 A2956 RMK VIS VRB 1 1/2-3 SLP014",
    "station": "CYPX",
    "observationTime": 1750029540,
    "windDirection": 240,
    "windSpeed": 21,
    "windGust": 28,
    "visibility": 2.25,
    "altimeter": 1001.1,
    "clouds": [
      {
        "type": "BKN",
        "altitude": 1000
      },
      {
        "type": "OVC",
        "altitude": 1800
      }
    ],
    "weather": [
      "-RA BR"
    ],
    "flightCategory": "IFR"
  },
  {
    "raw": "BGTL 152319Z AUTO 28007KT 9999 FEW008 OVC030 02/M00 A2980 RMK AO2 SLP073 TSNO $",
    "station": "BGTL",
    "observationTime": 1750029540,
    "temperature": 2,
    "windDirection": 280,
    "windSpeed": 7,
    "visibility": 6,
    "altimeter": 1009.2,
    "clouds": [
      {
        "type": "FEW",
        "altitude": 800
      },
      {
        "type": "OVC",
        "altitude": 3000
      }
    ],
    "weather": [],
    "flightCategory": "VFR"
  },
  {
    "raw": "SCBA 152318Z AUTO VRB02KT //// // BKN009/// OVC080/// 03/03 Q0997",
    "station": "SCBA",
    "observationTime": 1750029480,
    "temperature": 3,
    "dewpoint": 3,
    "windSpeed": 2,
    "altimeter": 997,
    "clouds": [
      {
        "type": "BKN",
        "altitude": 900
      },
      {
        "type": "OVC",
        "altitude": 8000
      }
    ],
    "weather": [],
    "flightCategory": "IFR"
  },
  {
    "raw": "PAIM 152318Z AUTO VRB05KT 10SM TS FEW050 FEW120 25/07 A2995 RMK AO2 SLP132",
    "station": "PAIM",
    "observationTime": 1750029480,
    "temperature": 25,
    "dewpoint": 7,
    "windSpeed": 5,
    "visibility": 10,
    "altimeter": 1014.3,
    "clouds": [
      {
        "type": "FEW",
        "altitude": 5000
      },
      {
        "type": "FEW",
        "altitude": 12000
      }
    ],
    "weather": [
      "TS"
    ],
    "flightCategory": "VFR"
  },
  {
    "raw": "KSKF 152318Z AUTO 11015KT 8SM TS -RA FEW002 BKN026 BKN110 24/22 A2991 RMK AO2 PRESFR SLP122 $",
    "station": "KSKF",
    "observationTime": 1750029480,
    "temperature": 24,
    "dewpoint": 22,
    "windDirection": 110,
    "windSpeed": 15,
    "visibility": 8,
    "altimeter": 1013,
    "clouds": [
      {
        "type": "FEW",
        "altitude": 200
      },
      {
        "type": "BKN",
        "altitude": 2600
      },
      {
        "type": "BKN",
        "altitude": 11000
      }
    ],
    "weather": [
      "TS -RA"
    ],
    "flightCategory": "MVFR"
  },
  {
    "raw": "KPWG 152318Z AUTO 17007KT 10SM SCT002 27/21 A2996 RMK AO2 $",
    "station": "KPWG",
    "observationTime": 1750029480,
    "temperature": 27,
    "dewpoint": 21,
    "windDirection": 170,
    "windSpeed": 7,
    "visibility": 10,
    "altimeter": 1014.6,
    "clouds": [
      {
        "type": "SCT",
        "altitude": 200
      }
    ],
    "weather": [],
    "flightCategory": "VFR"
  },
  {
    "raw": "KPIB 152318Z AUTO 33004KT 10SM -RA FEW055 23/22 A3010 RMK AO2 LTG DSNT NE TSB2257E12 PNO $",
    "station": "KPIB",
    "observationTime": 1750029480,
    "temperature": 23,
    "dewpoint": 22,
    "windDirection": 330,
    "windSpeed": 4,
    "visibility": 10,
    "altimeter": 1019.4,
    "clouds": [
      {
        "type": "FEW",
        "altitude": 5500
      }
    ],
    "weather": [
      "-RA"
    ],
    "flightCategory": "VFR"
  },
  {
    "raw": "KISW 152318Z AUTO 10004KT 10SM FEW027 OVC034 23/17 A3009 RMK AO2 T02330172",
    "station": "KISW",
    "observationTime": 1750029480,
    "temperature": 23.3,
    "dewpoint": 17.2,
    "windDirection": 100,
    "windSpeed": 4,
    "visibility": 10,
    "altimeter": 1019,
    "clouds": [
      {
        "type": "FEW",
        "altitude": 2700
      },
      {
        "type": "OVC",
        "altitude": 3400
      }
    ],
    "weather": [],
    "flightCategory": "VFR"
  },
  {
    "raw": "KGNV 152318Z 09006G15KT 10SM -RA SCT017 BKN022 OVC048 24/23 A3016 RMK AO2 P0057 T02390233 $",
    "station": "KGNV",
    "observationTime": 1750029480,
    "temperature": 23.9,
    "dewpoint": 23.3,
    "windDirection": 90,
    "windSpeed": 6,
    "windGust": 15,
    "visibility": 10,
    "altimeter": 1021.4,
    "clouds": [
      {
        "type": "SCT",
        "altitude": 1700
      },
      {
        "type": "BKN",
        "altitude": 2200
      },
      {
        "type": "OVC",
        "altitude": 4800
      }
    ],
    "weather": [
      "-RA"
    ],
    "flightCategory": "MVFR"
  },
  {
    "raw": "KDUJ 152318Z AUTO 10006KT 10SM OVC010 18/16 A3010 RMK AO2 CIG 007V013 T01780161",
    "station": "KDUJ",
    "observationTime": 1750029480,
    "temperature": 17.8,
    "dewpoint": 16.1,
    "windDirection": 100,
    "windSpeed": 6,
    "visibility": 10,
    "altimeter": 1019.4,
    "clouds": [
      {
        "type": "OVC",
        "altitude": 1000
      }
    ],
    "weather": [],
    "flightCategory": "MVFR"
  },
  {
    "raw": "KDTN 152318Z 14008KT 10SM FEW060 SCT080 BKN120 27/22 A2998 RMK AO2 LTG DSNT N AND NW PRESFR T02670222",
    "station": "KDTN",
    "observationTime": 1750029480,
    "temperature": 26.7,
    "dewpoint": 22.2,
    "windDirection": 140,
    "windSpeed": 8,
    "visibility": 10,
    "altimeter": 1015.3,
    "clouds": [
      {
        "type": "FEW",
        "altitude": 6000
      },
      {
        "type": "SCT",
        "altitude": 8000
      },
      {
        "type": "BKN",
        "altitude": 12000
      }
    ],
    "weather": [],
    "flightCategory": "VFR"
  },
  {
    "raw": "KAOO 152318Z AUTO 09006KT 7SM OVC004 17/16 A3010 RMK AO2 T01720161",
    "station": "KAOO",
    "observationTime": 1750029480,
    "temperature": 17.2,
    "dewpoint": 16.1,
    "windDirection": 90,
    "windSpeed": 6,
    "visibility": 7,
    "altimeter": 1019.4,
    "clouds": [
      {
        "type": "OVC",
        "altitude": 400
      }
    ],
    "weather": [],
    "flightCategory": "LIFR"
  },
  {
    "raw": "UWKD 152317Z 36003MPS 3700 -RA BR OVC009 14/14 Q1003 R11/290050 NOSIG RMK QFE742/0990",
    "station": "UWKD",
    "observationTime": 1750029420,
    "temperature": 14,
    "dewpoint": 14,
    "windDirection": 360,
    "windSpeed": 6,
    "visibility": 2.3,
    "altimeter": 1003,
    "clouds": [
      {
        "type": "OVC",
        "altitude": 900
      }
    ],
    "weather": [
      "-RA BR"
    ],
    "flightCategory": "IFR"
  },
  {
    "raw": "SCBA 152317Z AUTO VRB02KT //// // BKN010/// OVC080/// 03/03 Q0997",
    "station": "SCBA",
    "observationTime": 1750029420,
    "temperature": 3,
    "dewpoint": 3,
    "windSpeed": 2,
    "altimeter": 997,
    "clouds": [
      {
        "type": "BKN",
        "altitude": 1000
      },
      {
        "type": "OVC",
        "altitude": 8000
      }
    ],
    "weather": [],
    "flightCategory": "MVFR"
  },
  {
    "raw": "RJCK 152317Z 20005KT 0900 R17/1400VP2000D FG BKN001 BKN002 15/15 Q1002 RMK 5ST001 7ST002 A2960",
    "station": "RJCK",
    "observationTime": 1750029420,
    "temperature": 15,
    "dewpoint": 15,
    "windDirection": 200,
    "windSpeed": 5,
    "visibility": 0.56,
    "altimeter": 1002,
    "clouds": [
      {
        "type": "BKN",
        "altitude": 100
      },
      {
        "type": "BKN",
        "altitude": 200
      }
    ],
    "weather": [
      "FG"
    ],
    "flightCategory": "LIFR"
  },
  {
    "raw": "MMPR 152317Z 09003KT 7SM BKN010 OVC015CB 26/26 A2984 RMK 8/9// OCNL DROPS",
    "station": "MMPR",
    "observationTime": 1750029420,
    "temperature": 26,
    "dewpoint": 26,
    "windDirection": 90,
    "windSpeed": 3,
    "visibility": 7,
    "altimeter": 1010.6,
    "clouds": [
      {
        "type": "BKN",
        "altitude": 1000
      },
      {
        "type": "OVC",
        "altitude": 1500
      }
    ],
    "weather": [],
    "flightCategory": "MVFR"
  },
  {
    "raw": "KSHM 152317Z AUTO 18015G22KT 10SM FEW110 28/07 A3011 RMK AO2 WSHFT 05 LTG DSNT NW SLP109 $",
    "station": "KSHM",
    "observationTime": 1750029420,
    "temperature": 28,
    "dewpoint": 7,
    "windDirection": 180,
    "windSpeed": 15,
    "windGust": 22,
    "visibility": 10,
    "altimeter": 1019.7,
    "clouds": [
      {
        "type": "FEW",
        "altitude": 11000
      }
    ],
    "weather": [],
    "flightCategory": "VFR"
  },
  {
    "raw": "KRHP 152317Z AUTO 26007KT 10SM SCT030 BKN035 OVC070 26/20 A3009 RMK AO2 T02580202",
    "station": "KRHP",
    "observationTime": 1750029420,
    "temperature": 25.8,
    "dewpoint": 20.2,
    "windDirection": 260,
    "windSpeed": 7,
    "visibility": 10,
    "altimeter": 1019,
    "clouds": [
      {
        "type": "SCT",
        "altitude": 3000
      },
      {
        "type": "BKN",
        "altitude": 3500
      },
      {
        "type": "OVC",
        "altitude": 7000
      }
    ],
    "weather": [],
    "flightCategory": "VFR"
  },
  {
    "raw": "KPKD 152317Z AUTO 17008KT 10SM BKN018 19/14 A3003 RMK AO2 T01890139",
    "station": "KPKD",
    "observationTime": 1750029420,
    "temperature": 18.9,
    "dewpoint": 13.9,
    "windDirection": 170,
    "windSpeed": 8,
    "visibility": 10,
    "altimeter": 1017,
    "clouds": [
      {
        "type": "BKN",
        "altitude": 1800
      }
    ],
    "weather": [],
    "flightCategory": "MVFR"
  },
  {
    "raw": "KOFP 152317Z AUTO 00000KT 3SM RA BR BKN008 BKN012 OVC017 21/20 A3005 RMK AO2 LTG DSNT S AND SW TSB01E16 P0007 T02060200",
    "station": "KOFP",
    "observationTime": 1750029420,
    "temperature": 20.6,
    "dewpoint": 20,
    "visibility": 3,
    "altimeter": 1017.7,
    "clouds": [
      {
        "type": "BKN",
        "altitude": 800
      },
      {
        "type": "BKN",
        "altitude": 1200
      },
      {
        "type": "OVC",
        "altitude": 1700
      }
    ],
    "weather": [
      "RA BR"
    ],
    "flightCategory": "IFR"
  },
  {
    "raw": "KLOZ 152317Z AUTO 26004KT 10SM BKN021 BKN027 OVC047 23/22 A3003 RMK AO2 RAE16 P0009 T02330217 $",
    "station": "KLOZ",
    "observationTime": 1750029420,
    "temperature": 23.3,
    "dewpoint": 21.7,
    "windDirection": 260,
    "windSpeed": 4,
    "visibility": 10,
    "altimeter": 1017,
    "clouds": [
      {
        "type": "BKN",
        "altitude": 2100
      },
      {
        "type": "BKN",
        "altitude": 2700
      },
      {
        "type": "OVC",
        "altitude": 4700
      }
    ],
    "weather": [],
    "flightCategory": "MVFR"
  },
  {
    "raw": "KCRE 152317Z 23014KT 9SM FEW110 26/26 A3004 RMK AO1 PK WND 22026/2255 LTG DSNT W-N RAB05E16 P0000 T02610256",
    "station": "KCRE",
    "observationTime": 1750029420,
    "temperature": 26.1,
    "dewpoint": 25.6,
    "windDirection": 230,
    "windSpeed": 14,
    "visibility": 9,
    "altimeter": 1017.4,
    "clouds": [
      {
        "type": "FEW",
        "altitude": 11000
      }
    ],
    "weather": [],
    "flightCategory": "VFR"
  },
  {
    "raw": "KBAZ 152317Z 18013KT 8SM -TSRA BKN110 22/21 A2996 RMK AO2 LTG DSNT ALQDS TSB11 PRESFR P0001 T02170211",
    "station": "KBAZ",
    "observationTime": 1750029420,
    "temperature": 21.7,
    "dewpoint": 21.1,
    "windDirection": 180,
    "windSpeed": 13,
    "visibility": 8,
    "altimeter": 1014.6,
    "clouds": [
      {
        "type": "BKN",
        "altitude": 11000
      }
    ],
    "weather": [
      "-TSRA"
    ],
    "flightCategory": "VFR"
  },
  {
    "raw": "KAKH 152317Z AUTO 00000KT 10SM -TSRA BKN026 OVC032 24/23 A3004 RMK AO2 LTG DSNT W AND NW TSB13 P0004 T02440228",
    "station": "KAKH",
    "observationTime": 1750029420,
    "temperature": 24.4,
    "dewpoint": 22.8,
    "visibility": 10,
    "altimeter": 1017.4,
    "clouds": [
      {
        "type": "BKN",
        "altitude": 2600
      },
      {
        "type": "OVC",
        "altitude": 3200
      }
    ],
    "weather": [
      "-TSRA"
    ],
    "flightCategory": "MVFR"
  },
  {
    "raw": "FALE 152317Z 20003KT 160V220 CAVOK 13/07 Q1021 NOSIG",
    "station": "FALE",
    "observationTime": 1750029420,
    "temperature": 13,
    "dewpoint": 7,
    "windDirection": 200,
    "windSpeed": 3,
    "visibility": 6,
    "altimeter": 1021,
    "clouds": [
      {
        "type": "CAVOK"
      }
    ],
    "weather": [],
    "flightCategory": "VFR"
  },
  {
    "raw": "YSRI 152316Z AUTO 00000KT 9999 // SCT001 06/05 Q1025",
    "station": "YSRI",
    "observationTime": 1750029360,
    "temperature": 6,
    "dewpoint": 5,
    "visibility": 6,
    "altimeter": 1025,
    "clouds": [
      {
        "type": "SCT",
        "altitude": 100
      }
    ],
    "weather": [],
    "flightCategory": "VFR"
  },
  {
    "raw": "YPJT 152316Z AUTO 00000KT 0050 -SHRA OVC001 09/08 Q1021",
    "station": "YPJT",
    "observationTime": 1750029360,
    "temperature": 9,
    "dewpoint": 8,
    "visibility": 0.03,
    "altimeter": 1021,
    "clouds": [
      {
        "type": "OVC",
        "altitude": 100
      }
    ],
    "weather": [
      "-SHRA"
    ],
    "flightCategory": "LIFR"
  },
  {
    "raw": "KSXS 152316Z AUTO 34003KT 5SM TS +RA BR FEW003 SCT008 BKN020 BKN043 26/24 A3006 RMK AO2 RAE2255RAB2255 TSE08TSB09 CIG 020V037 BKN020 V SCT SLP178",
    "station": "KSXS",
    "observationTime": 1750029360,
    "temperature": 26,
    "dewpoint": 24,
    "windDirection": 340,
    "windSpeed": 3,
    "visibility": 5,
    "altimeter": 1018,
    "clouds": [
      {
        "type": "FEW",
        "altitude": 300
      },
      {
        "type": "SCT",
        "altitude": 800
      },
      {
        "type": "BKN",
        "altitude": 2000
      },
      {
        "type": "BKN",
        "altitude": 4300
      }
    ],
    "weather": [
      "TS +RA BR"
    ],
    "flightCategory": "MVFR"
  },
  {
    "raw": "KRND 152316Z AUTO 09007KT 10SM TS SCT047 22/21 A2999 RMK AO2 RAE12DZB12E16 SLP148",
    "station": "KRND",
    "observationTime": 1750029360,
    "temperature": 22,
    "dewpoint": 21,
    "windDirection": 90,
    "windSpeed": 7,
    "visibility": 10,
    "altimeter": 1015.7,
    "clouds": [
      {
        "type": "SCT",
        "altitude": 4700
      }
    ],
    "weather": [
      "TS"
    ],
    "flightCategory": "VFR"
  },
  {
    "raw": "KOZR 152316Z AUTO 00000KT 10SM VCTS CLR 29/23 A3004 RMK AO2 TSE2255TSB01E16 SLP171",
    "station": "KOZR",
    "observationTime": 1750029360,
    "temperature": 29,
    "dewpoint": 23,
    "visibility": 10,
    "altimeter": 1017.4,
    "clouds": [
      {
        "type": "CLR"
      }
    ],
    "weather": [
      "VCTS"
    ],
    "flightCategory": "VFR"
  },
  {
    "raw": "KOTG 152316Z AUTO 19015G22KT 4SM +TSRA BR SCT015 BKN029 OVC050 22/20 A3002 RMK AO2 LTG DSNT ALQDS RAB08 P0012",
    "station": "KOTG",
    "observationTime": 1750029360,
    "temperature": 22,
    "dewpoint": 20,
    "windDirection": 190,
    "windSpeed": 15,
    "windGust": 22,
    "visibility": 4,
    "altimeter": 1016.7,
    "clouds": [
      {
        "type": "SCT",
        "altitude": 1500
      },
      {
        "type": "BKN",
        "altitude": 2900
      },
      {
        "type": "OVC",
        "altitude": 5000
      }
    ],
    "weather": [
      "+TSRA BR"
    ],
    "flightCategory": "MVFR"
  },
  {
    "raw": "KI69 152316Z AUTO 35005KT 10SM BKN034 BKN047 BKN080 28/21 A3001 RMK AO1 T02780205",
    "station": "KI69",
    "observationTime": 1750029360,
    "temperature": 27.8,
    "dewpoint": 20.5,
    "windDirection": 350,
    "windSpeed": 5,
    "visibility": 10,
    "altimeter": 1016.3,
    "clouds": [
      {
        "type": "BKN",
        "altitude": 3400
      },
      {
        "type": "BKN",
        "altitude": 4700
      },
      {
        "type": "BKN",
        "altitude": 8000
      }
    ],
    "weather": [],
    "flightCategory": "VFR"
  },
  {
    "raw": "KHEY 152316Z AUTO 17004KT 9SM VCTS FEW085 29/24 A3004 RMK AO2 TSE2255TSB01E16 SLP172",
    "station": "KHEY",
    "observationTime": 1750029360,
    "temperature": 29,
    "dewpoint": 24,
    "windDirection": 170,
    "windSpeed": 4,
    "visibility": 9,
    "altimeter": 1017.4,
    "clouds": [
      {
        "type": "FEW",
        "altitude": 8500
      }
    ],
    "weather": [
      "VCTS"
    ],
    "flightCategory": "VFR"
  },
  {
    "raw": "KGKT 152316Z AUTO 24004KT 10SM FEW042 30/22 A3002 RMK A01",
    "station": "KGKT",
    "observationTime": 1750029360,
    "temperature": 30,
    "dewpoint": 22,
    "windDirection": 240,
    "windSpeed": 4,
    "visibility": 10,
    "altimeter": 1016.7,
    "clouds": [
      {
        "type": "FEW",
        "altitude": 4200
      }
    ],
    "weather": [],
    "flightCategory": "VFR"
  },
  {
    "raw": "KFPK 152316Z AUTO 05005KT 10SM CLR 25/15 A3008 RMK AO2",
    "station": "KFPK",
    "observationTime": 1750029360,
    "temperature": 25,
    "dewpoint": 15,
    "windDirection": 50,
    "windSpeed": 5,
    "visibility": 10,
    "altimeter": 1018.7,
    "clouds": [
      {
        "type": "CLR"
      }
    ],
    "weather": [],
    "flightCategory": "VFR"
  },
  {
    "raw": "KECG 152316Z 06015KT 10SM VCTS BKN039 BKN050 OVC060 23/22 A3003 RMK AO2 LTG DSNT ALQDS RAE12 TSE10 P0001 T02330222",
    "station": "KECG",
    "observationTime": 1750029360,
    "temperature": 23.3,
    "dewpoint": 22.2,
    "windDirection": 60,
    "windSpeed": 15,
    "visibility": 10,
    "altimeter": 1017,
    "clouds": [
      {
        "type": "BKN",
        "altitude": 3900
      },
      {
        "type": "BKN",
        "altitude": 5000
      },
      {
        "type": "OVC",
        "altitude": 6000
      }
    ],
    "weather": [
      "VCTS"
    ],
    "flightCategory": "VFR"
  },
  {
    "raw": "KCXO 152316Z 31007G19KT 3SM TSRA BR FEW014 BKN043 OVC050 23/22 A3004 RMK AO2 LTG DSNT ALQDS TSB02 P0019 T02280217 $",
    "station": "KCXO",
    "observationTime": 1750029360,
    "temperature": 22.8,
    "dewpoint": 21.7,
    "windDirection": 310,
    "windSpeed": 7,
    "windGust": 19,
    "visibility": 3,
    "altimeter": 1017.4,
    "clouds": [
      {
        "type": "FEW",
        "altitude": 1400
      },
      {
        "type": "BKN",
        "altitude": 4300
      },
      {
        "type": "OVC",
        "altitude": 5000
      }
    ],
    "weather": [
      "TSRA BR"
    ],
    "flightCategory": "MVFR"
  },
  {
    "raw": "ETIC 152316Z AUTO 30005KT 1600 R32/0650VP1500 +RA BR FEW003 BKN012 OVC017 19/17 A3011 RMK AO2 VIS 1600V9999 RAE2255RAB04 SLP192 $",
    "station": "ETIC",
    "observationTime": 1750029360,
    "temperature": 19,
    "dewpoint": 17,
    "windDirection": 300,
    "windSpeed": 5,
    "visibility": 0.99,
    "altimeter": 1019.7,
    "clouds": [
      {
        "type": "FEW",
        "altitude": 300
      },
      {
        "type": "BKN",
        "altitude": 1200
      },
      {
        "type": "OVC",
        "altitude": 1700
      }
    ],
    "weather": [
      "+RA BR"
    ],
    "flightCategory": "LIFR"
  },
  {
    "raw": "CZVL 152316Z AUTO 31003KT 290V010 9SM FEW100 20/11 A3003 RMK LTNG DIST ALQDS SLP176 DENSITY ALT 3300FT",
    "station": "CZVL",
    "observationTime": 1750029360,
    "temperature": 20,
    "dewpoint": 11,
    "windDirection": 310,
    "windSpeed": 3,
    "visibility": 9,
    "altimeter": 1017,
    "clouds": [
      {
        "type": "FEW",
        "altitude": 10000
      }
    ],
    "weather": [],
    "flightCategory": "VFR"
  },
  {
    "raw": "CYIV 152316Z AUTO 00000KT 2 1/2SM -RA FEW060 BKN089 21/13 A2985 RMK SLP114 DENSITY ALT 1800FT",
    "station": "CYIV",
    "observationTime": 1750029360,
    "temperature": 21,
    "dewpoint": 13,
    "visibility": 2.5,
    "altimeter": 1010.9,
    "clouds": [
      {
        "type": "FEW",
        "altitude": 6000
      },
      {
        "type": "BKN",
        "altitude": 8900
      }
    ],
    "weather": [
      "-RA"
    ],
    "flightCategory": "IFR"
  },
  {
    "raw": "YPJT 152315Z AUTO 00000KT 0050 FG OVC001 09/08 Q1021",
    "station": "YPJT",
    "observationTime": 1750029300,
    "temperature": 9,
    "dewpoint": 8,
    "visibility": 0.03,
    "altimeter": 1021,
    "clouds": [
      {
        "type": "OVC",
        "altitude": 100
      }
    ],
    "weather": [
      "FG"
    ],
    "flightCategory": "LIFR"
  },
  {
    "raw": "TJPS 152315Z AUTO 13005KT 8SM CLR 27/24 A3008 RMK AO2 PWINO",
    "station": "TJPS",
    "observationTime": 1750029300,
    "temperature": 27,
    "dewpoint": 24,
    "windDirection": 130,
    "windSpeed": 5,
    "visibility": 8,
    "altimeter": 1018.7,
    "clouds": [
      {
        "type": "CLR"
      }
    ],
    "weather": [],
    "flightCategory": "VFR"
  },
  {
    "raw": "RKJK 152315Z 22010KT 1 7/8SM -RA BR OVC002 23/22 A2946 RMK AO2A SLPNO $",
    "station": "RKJK",
    "observationTime": 1750029300,
    "temperature": 23,
    "dewpoint": 22,
    "windDirection": 220,
    "windSpeed": 10,
    "visibility": 1.88,
    "altimeter": 997.7,
    "clouds": [
      {
        "type": "OVC",
        "altitude": 200
      }
    ],
    "weather": [
      "-RA BR"
    ],
    "flightCategory": "LIFR"
  },
  {
    "raw": "RJDB 152315Z AUTO 22008KT 170V290 9999 BKN003 OVC007 22/22 Q1002 RMK A2960",
    "station": "RJDB",
    "observationTime": 1750029300,
    "temperature": 22,
    "dewpoint": 22,
    "windDirection": 220,
    "windSpeed": 8,
    "visibility": 6,
    "altimeter": 1002,
    "clouds": [
      {
        "type": "BKN",
        "altitude": 300
      },
      {
        "type": "OVC",
        "altitude": 700
      }
    ],
    "weather": [],
    "flightCategory": "LIFR"
  },
  {
    "raw": "PASY 152315Z AUTO 25014KT 10SM OVC002 07/07 M",
    "station": "PASY",
    "observationTime": 1750029300,
    "temperature": 7,
    "dewpoint": 7,
    "windDirection": 250,
    "windSpeed": 14,
    "visibility": 10,
    "clouds": [
      {
        "type": "OVC",
        "altitude": 200
      }
    ],
    "weather": [],
    "flightCategory": "LIFR"
  },
  {
    "raw": "PAKX 152315Z AUTO 23006KT 7SM CLR 18/04 A2994 RMK AO2",
    "station": "PAKX",
    "observationTime": 1750029300,
    "temperature": 18,
    "dewpoint": 4,
    "windDirection": 230,
    "windSpeed": 6,
    "visibility": 7,
    "altimeter": 1014,
    "clouds": [
      {
        "type": "CLR"
      }
    ],
    "weather": [],
    "flightCategory": "VFR"
  },
  {
    "raw": "PAFR 152315Z AUTO 25006KT 9SM SCT019 OVC160 13/09 A3004 RMK AO2 SLP175 $",
    "station": "PAFR",
    "observationTime": 1750029300,
    "temperature": 13,
    "dewpoint": 9,
    "windDirection": 250,
    "windSpeed": 6,
    "visibility": 9,
    "altimeter": 1017.4,
    "clouds": [
      {
        "type": "SCT",
        "altitude": 1900
      },
      {
        "type": "OVC",
        "altitude": 16000
      }
    ],
    "weather": [],
    "flightCategory": "VFR"
  },
  {
    "raw": "PAAD 152315Z AUTO 08009KT 10SM CLR 08/04 A3010 RMK AO2 T00790041 FZRANO",
    "station": "PAAD",
    "observationTime": 1750029300,
    "temperature": 7.9,
    "dewpoint": 4.1,
    "windDirection": 80,
    "windSpeed": 9,
    "visibility": 10,
    "altimeter": 1019.4,
    "clouds": [
      {
        "type": "CLR"
      }
    ],
    "weather": [],
    "flightCategory": "VFR"
  },
  {
    "raw": "LMML 152315Z 22004KT CAVOK 24/15 Q1017 NOSIG",
    "station": "LMML",
    "observationTime": 1750029300,
    "temperature": 24,
    "dewpoint": 15,
    "windDirection": 220,
    "windSpeed": 4,
    "visibility": 6,
    "altimeter": 1017,
    "clouds": [
      {
        "type": "CAVOK"
      }
    ],
    "weather": [],
    "flightCategory": "VFR"
  },
  {
    "raw": "LIRP 152315Z 12005KT 7000 NSC 23/23 Q1016 NOSIG",
    "station": "LIRP",
    "observationTime": 1750029300,
    "temperature": 23,
    "dewpoint": 23,
    "windDirection": 120,
    "windSpeed": 5,
    "visibility": 4.35,
    "altimeter": 1016,
    "clouds": [
      {
        "type": "CLR"
      }
    ],
    "weather": [],
    "flightCategory": "MVFR"
  },
  {
    "raw": "LHSN 152315Z 21004KT CAVOK 19/10 Q1017 NOSIG RMK BLU",
    "station": "LHSN",
    "observationTime": 1750029300,
    "temperature": 19,
    "dewpoint": 10,
    "windDirection": 210,
    "windSpeed": 4,
    "visibility": 6,
    "altimeter": 1017,
    "clouds": [
      {
        "type": "CAVOK"
      }
    ],
    "weather": [],
    "flightCategory": "VFR"
  },
  {
    "raw": "LHKE 152315Z 00000KT CAVOK 18/10 Q1017 NOSIG RMK BLU",
    "station": "LHKE",
    "observationTime": 1750029300,
    "temperature": 18,
    "dewpoint": 10,
    "visibility": 6,
    "altimeter": 1017,
    "clouds": [
      {
        "type": "CAVOK"
      }
    ],
    "weather": [],
    "flightCategory": "VFR"
  },
  {
    "raw": "KZPH 152315Z AUTO 27007KT 10SM CLR 31/22 A3010 RMK A02 LTG DSNT N AND S T03060221",
    "station": "KZPH",
    "observationTime": 1750029300,
    "temperature": 30.6,
    "dewpoint": 22.1,
    "windDirection": 270,
    "windSpeed": 7,
    "visibility": 10,
    "altimeter": 1019.4,
    "clouds": [
      {
        "type": "CLR"
      }
    ],
    "weather": [],
    "flightCategory": "VFR"
  },
  {
    "raw": "KZER 152315Z AUTO 11008KT 1/4SM FG OVC002 13/13 A3015 RMK AO2",
    "station": "KZER",
    "observationTime": 1750029300,
    "temperature": 13,
    "dewpoint": 13,
    "windDirection": 110,
    "windSpeed": 8,
    "visibility": 0.25,
    "altimeter": 1021.1,
    "clouds": [
      {
        "type": "OVC",
        "altitude": 200
      }
    ],
    "weather": [
      "FG"
    ],
    "flightCategory": "LIFR"
  },
  {
    "raw": "KY70 152315Z AUTO 06005KT 10SM CLR 24/14 A3009 RMK AO2",
    "station": "KY70",
    "observationTime": 1750029300,
    "temperature": 24,
    "dewpoint": 14,
    "windDirection": 60,
    "windSpeed": 5,
    "visibility": 10,
    "altimeter": 1019,
    "clouds": [
      {
        "type": "CLR"
      }
    ],
    "weather": [],
    "flightCategory": "VFR"
  },
  {
    "raw": "KY51 152315Z AUTO 00000KT 10SM SCT016 BKN043 OVC050 23/19 A3008 RMK AO1 T02290190",
    "station": "KY51",
    "observationTime": 1750029300,
    "temperature": 22.9,
    "dewpoint": 19,
    "visibility": 10,
    "altimeter": 1018.7,
    "clouds": [
      {
        "type": "SCT",
        "altitude": 1600
      },
      {
        "type": "BKN",
        "altitude": 4300
      },
      {
        "type": "OVC",
        "altitude": 5000
      }
    ],
    "weather": [],
    "flightCategory": "VFR"
  },
  {
    "raw": "KY49 152315Z AUTO 13003KT 10SM CLR 18/14 A3004 RMK AO2 T01800143",
    "station": "KY49",
    "observationTime": 1750029300,
    "temperature": 18,
    "dewpoint": 14.3,
    "windDirection": 130,
    "windSpeed": 3,
    "visibility": 10,
    "altimeter": 1017.4,
    "clouds": [
      {
        "type": "CLR"
      }
    ],
    "weather": [],
    "flightCategory": "VFR"
  },
  {
    "raw": "KY31 152315Z AUTO 00000KT 10SM CLR 24/10 A3011 RMK AO2 T02370103",
    "station": "KY31",
    "observationTime": 1750029300,
    "temperature": 23.7,
    "dewpoint": 10.3,
    "visibility": 10,
    "altimeter": 1019.7,
    "clouds": [
      {
        "type": "CLR"
      }
    ],
    "weather": [],
    "flightCategory": "VFR"
  },
  {
    "raw": "KY23 152315Z AUTO 14004KT 10SM OVC016 19/16 A3009 RMK AO2 T01920162",
    "station": "KY23",
    "observationTime": 1750029300,
    "temperature": 19.2,
    "dewpoint": 16.2,
    "windDirection": 140,
    "windSpeed": 4,
    "visibility": 10,
    "altimeter": 1019,
    "clouds": [
      {
        "type": "OVC",
        "altitude": 1600
      }
    ],
    "weather": [],
    "flightCategory": "MVFR"
  },
  {
    "raw": "KY19 152315Z AUTO VRB03KT 10SM CLR 26/21 A2997 RMK AO2",
    "station": "KY19",
    "observationTime": 1750029300,
    "temperature": 26,
    "dewpoint": 21,
    "windSpeed": 3,
    "visibility": 10,
    "altimeter": 1015,
    "clouds": [
      {
        "type": "CLR"
      }
    ],
    "weather": [],
    "flightCategory": "VFR"
  },
  {
    "raw": "KXSA 152315Z AUTO 10007KT 4SM -RA OVC007 22/22 A3006 RMK AO2 LTG DSNT SE THRU SW T02200220",
    "station": "KXSA",
    "observationTime": 1750029300,
    "temperature": 22,
    "dewpoint": 22,
    "windDirection": 100,
    "windSpeed": 7,
    "visibility": 4,
    "altimeter": 1018,
    "clouds": [
      {
        "type": "OVC",
        "altitude": 700
      }
    ],
    "weather": [
      "-RA"
    ],
    "flightCategory": "IFR"
  },
  {
    "raw": "KXNX 152315Z AUTO 00000KT 10SM SCT045 BKN055 31/22 A3000 RMK A01",
    "station": "KXNX",
    "observationTime": 1750029300,
    "temperature": 31,
    "dewpoint": 22,
    "visibility": 10,
    "altimeter": 1016,
    "clouds": [
      {
        "type": "SCT",
        "altitude": 4500
      },
      {
        "type": "BKN",
        "altitude": 5500
      }
    ],
    "weather": [],
    "flightCategory": "VFR"
  },
  {
    "raw": "KXNI 152315Z AUTO 29006G16KT 240V330 10SM CLR 35/M08 A3017 RMK AO2",
    "station": "KXNI",
    "observationTime": 1750029300,
    "temperature": 35,
    "dewpoint": -8,
    "windDirection": 290,
    "windSpeed": 6,
    "windGust": 16,
    "visibility": 10,
    "altimeter": 1021.8,
    "clouds": [
      {
        "type": "CLR"
      }
    ],
    "weather": [],
    "flightCategory": "VFR"
  },
  {
    "raw": "KXLL 152315Z AUTO 10004KT 10SM OVC010 16/15 A3015 RMK AO2 TSNO",
    "station": "KXLL",
    "observationTime": 1750029300,
    "temperature": 16,
    "dewpoint": 15,
    "windDirection": 100,
    "windSpeed": 4,
    "visibility": 10,
    "altimeter": 1021.1,
    "clouds": [
      {
        "type": "OVC",
        "altitude": 1000
      }
    ],
    "weather": [],
    "flightCategory": "MVFR"
  },
  {
    "raw": "KXBP 152315Z AUTO 05006KT 10SM CLR 29/20 A2995 RMK AO2 LTG DSNT NE T02850197",
    "station": "KXBP",
    "observationTime": 1750029300,
    "temperature": 28.5,
    "dewpoint": 19.7,
    "windDirection": 50,
    "windSpeed": 6,
    "visibility": 10,
    "altimeter": 1014.3,
    "clouds": [
      {
        "type": "CLR"
      }
    ],
    "weather": [],
    "flightCategory": "VFR"
  },
  {
    "raw": "KX60 152315Z AUTO 14011KT 10SM TS BKN038 BKN046 OVC070 27/22 A3013 RMK AO2 LTG DSNT NE THRU SE T02670220",
    "station": "KX60",
    "observationTime": 1750029300,
    "temperature": 26.7,
    "dewpoint": 22,
    "windDirection": 140,
    "windSpeed": 11,
    "visibility": 10,
    "altimeter": 1020.4,
    "clouds": [
      {
        "type": "BKN",
        "altitude": 3800
      },
      {
        "type": "BKN",
        "altitude": 4600
      },
      {
        "type": "OVC",
        "altitude": 7000
      }
    ],
    "weather": [
      "TS"
    ],
    "flightCategory": "VFR"
  },
  {
    "raw": "KX59 152315Z AUTO 14012KT 9SM CLR 29/27 A3007 RMK AO2 LTG DSNT SW AND W T02910270 $",
    "station": "KX59",
    "observationTime": 1750029300,
    "temperature": 29.1,
    "dewpoint": 27,
    "windDirection": 140,
    "windSpeed": 12,
    "visibility": 9,
    "altimeter": 1018.4,
    "clouds": [
      {
        "type": "CLR"
      }
    ],
    "weather": [],
    "flightCategory": "VFR"
  },
  {
    "raw": "KX26 152315Z AUTO 14011G17KT 10SM CLR 29/23 A3008 RMK AO2 LTG DSNT NE AND E",
    "station": "KX26",
    "observationTime": 1750029300,
    "temperature": 29,
    "dewpoint": 23,
    "windDirection": 140,
    "windSpeed": 11,
    "windGust": 17,
    "visibility": 10,
    "altimeter": 1018.7,
    "clouds": [
      {
        "type": "CLR"
      }
    ],
    "weather": [],
    "flightCategory": "VFR"
  },
  {
    "raw": "KX21 152315Z AUTO 14009G17KT 10SM CLR 30/25 A3008 RMK AO2 LTG DSNT NW",
    "station": "KX21",
    "observationTime": 1750029300,
    "temperature": 30,
    "dewpoint": 25,
    "windDirection": 140,
    "windSpeed": 9,
    "windGust": 17,
    "visibility": 10,
    "altimeter": 1018.7,
    "clouds": [
      {
        "type": "CLR"
      }
    ],
    "weather": [],
    "flightCategory": "VFR"
  },
  {
    "raw": "KWYS 152315Z AUTO 21019G25KT 10SM CLR 25/M03 A3013 RMK A01",
    "station": "KWYS",
    "observationTime": 1750029300,
    "temperature": 25,
    "dewpoint": -3,
    "windDirection": 210,
    "windSpeed": 19,
    "windGust": 25,
    "visibility": 10,
    "altimeter": 1020.4,
    "clouds": [
      {
        "type": "CLR"
      }
    ],
    "weather": [],
    "flightCategory": "VFR"
  },
  {
    "raw": "KWWR 152315Z AUTO 11003KT 10SM CLR 28/20 A3002 RMK AO2",
    "station": "KWWR",
    "observationTime": 1750029300,
    "temperature": 28,
    "dewpoint": 20,
    "windDirection": 110,
    "windSpeed": 3,
    "visibility": 10,
    "altimeter": 1016.7,
    "clouds": [
      {
        "type": "CLR"
      }
    ],
    "weather": [],
    "flightCategory": "VFR"
  },
  {
    "raw": "KWDR 152315Z AUTO 00000KT 10SM SCT047 29/21 A3007 RMK AO2 LTG DSNT SE AND NW",
    "station": "KWDR",
    "observationTime": 1750029300,
    "temperature": 29,
    "dewpoint": 21,
    "visibility": 10,
    "altimeter": 1018.4,
    "clouds": [
      {
        "type": "SCT",
        "altitude": 4700
      }
    ],
    "weather": [],
    "flightCategory": "VFR"
  },
  {
    "raw": "KW99 152315Z AUTO 26003KT 3SM -RA BR FEW005 BKN012 OVC018 20/20 A3004 RMK AO2 P0004 T02020202",
    "station": "KW99",
    "observationTime": 1750029300,
    "temperature": 20.2,
    "dewpoint": 20.2,
    "windDirection": 260,
    "windSpeed": 3,
    "visibility": 3,
    "altimeter": 1017.4,
    "clouds": [
      {
        "type": "FEW",
        "altitude": 500
      },
      {
        "type": "BKN",
        "altitude": 1200
      },
      {
        "type": "OVC",
        "altitude": 1800
      }
    ],
    "weather": [
      "-RA BR"
    ],
    "flightCategory": "MVFR"
  },
  {
    "raw": "KW96 152315Z AUTO 10005KT 4SM OVC004 23/23 A3002 RMK AO1 P0002 T02300227",
    "station": "KW96",
    "observationTime": 1750029300,
    "temperature": 23,
    "dewpoint": 22.7,
    "windDirection": 100,
    "windSpeed": 5,
    "visibility": 4,
    "altimeter": 1016.7,
    "clouds": [
      {
        "type": "OVC",
        "altitude": 400
      }
    ],
    "weather": [],
    "flightCategory": "LIFR"
  },
  {
    "raw": "KW81 152315Z AUTO 11003KT 10SM SCT004 BKN039 OVC110 21/20 A3002 RMK AO1 T02140199",
    "station": "KW81",
    "observationTime": 1750029300,
    "temperature": 21.4,
    "dewpoint": 19.9,
    "windDirection": 110,
    "windSpeed": 3,
    "visibility": 10,
    "altimeter": 1016.7,
    "clouds": [
      {
        "type": "SCT",
        "altitude": 400
      },
      {
        "type": "BKN",
        "altitude": 3900
      },
      {
        "type": "OVC",
        "altitude": 11000
      }
    ],
    "weather": [],
    "flightCategory": "VFR"
  },
  {
    "raw": "KW78 152315Z AUTO 00000KT 10SM SCT080 A3000 RMK AO1",
    "station": "KW78",
    "observationTime": 1750029300,
    "visibility": 10,
    "altimeter": 1016,
    "clouds": [
      {
        "type": "SCT",
        "altitude": 8000
      }
    ],
    "weather": [],
    "flightCategory": "VFR"
  },
  {
    "raw": "KW75 152315Z AUTO 09010KT 10SM OVC008 22/21 A3006 RMK AO1 T02170206",
    "station": "KW75",
    "observationTime": 1750029300,
    "temperature": 21.7,
    "dewpoint": 20.6,
    "windDirection": 90,
    "windSpeed": 10,
    "visibility": 10,
    "altimeter": 1018,
    "clouds": [
      {
        "type": "OVC",
        "altitude": 800
      }
    ],
    "weather": [],
    "flightCategory": "IFR"
  },
  {
    "raw": "KW63 152315Z AUTO 11004KT 10SM SCT050 SCT060 24/23 A2999 RMK AO1",
    "station": "KW63",
    "observationTime": 1750029300,
    "temperature": 24,
    "dewpoint": 23,
    "windDirection": 110,
    "windSpeed": 4,
    "visibility": 10,
    "altimeter": 1015.7,
    "clouds": [
      {
        "type": "SCT",
        "altitude": 5000
      },
      {
        "type": "SCT",
        "altitude": 6000
      }
    ],
    "weather": [],
    "flightCategory": "VFR"
  },
  {
    "raw": "KW40 152315Z AUTO 20008G14KT 10SM SCT042 SCT049 SCT090 29/23 A3000 RMK AO2 T02940228",
    "station": "KW40",
    "observationTime": 1750029300,
    "temperature": 29.4,
    "dewpoint": 22.8,
    "windDirection": 200,
    "windSpeed": 8,
    "windGust": 14,
    "visibility": 10,
    "altimeter": 1016,
    "clouds": [
      {
        "type": "SCT",
        "altitude": 4200
      },
      {
        "type": "SCT",
        "altitude": 4900
      },
      {
        "type": "SCT",
        "altitude": 9000
      }
    ],
    "weather": [],
    "flightCategory": "VFR"
  },
  {
    "raw": "KW31 152315Z AUTO 00000KT 10SM SCT004 SCT033 BKN043 23/22 A3002 RMK AO1 T02250224",
    "station": "KW31",
    "observationTime": 1750029300,
    "temperature": 22.5,
    "dewpoint": 22.4,
    "visibility": 10,
    "altimeter": 1016.7,
    "clouds": [
      {
        "type": "SCT",
        "altitude": 400
      },
      {
        "type": "SCT",
        "altitude": 3300
      },
      {
        "type": "BKN",
        "altitude": 4300
      }
    ],
    "weather": [],
    "flightCategory": "VFR"
  },
  {
    "raw": "KW29 152315Z AUTO 10009KT 10SM OVC011 20/20 A3009 RMK AO2 LTG DSNT SW T0195////",
    "station": "KW29",
    "observationTime": 1750029300,
    "temperature": 19.5,
    "dewpoint": 20,
    "windDirection": 100,
    "windSpeed": 9,
    "visibility": 10,
    "altimeter": 1019,
    "clouds": [
      {
        "type": "OVC",
        "altitude": 1100
      }
    ],
    "weather": [],
    "flightCategory": "MVFR"
  },
  {
    "raw": "KW22 152315Z AUTO 00000KT 10SM CLR 23/23 A3003 RMK AO2",
    "station": "KW22",
    "observationTime": 1750029300,
    "temperature": 23,
    "dewpoint": 23,
    "visibility": 10,
    "altimeter": 1017,
    "clouds": [
      {
        "type": "CLR"
      }
    ],
    "weather": [],
    "flightCategory": "VFR"
  },
  {
    "raw": "KW13 152315Z AUTO 08005KT 10SM OVC011 22/20 A3006 RMK AO1 T02210201",
    "station": "KW13",
    "observationTime": 1750029300,
    "temperature": 22.1,
    "dewpoint": 20.1,
    "windDirection": 80,
    "windSpeed": 5,
    "visibility": 10,
    "altimeter": 1018,
    "clouds": [
      {
        "type": "OVC",
        "altitude": 1100
      }
    ],
    "weather": [],
    "flightCategory": "MVFR"
  },
  {
    "raw": "KVYS 152315Z AUTO 12003KT 10SM CLR 28/17 A3003 RMK AO2 T02800168",
    "station": "KVYS",
    "observationTime": 1750029300,
    "temperature": 28,
    "dewpoint": 16.8,
    "windDirection": 120,
    "windSpeed": 3,
    "visibility": 10,
    "altimeter": 1017,
    "clouds": [
      {
        "type": "CLR"
      }
    ],
    "weather": [],
    "flightCategory": "VFR"
  },
  {
    "raw": "KVWU 152315Z AUTO 21006KT 10SM SCT040 25/16 A3001 RMK AO2",
    "station": "KVWU",
    "observationTime": 1750029300,
    "temperature": 25,
    "dewpoint": 16,
    "windDirection": 210,
    "windSpeed": 6,
    "visibility": 10,
    "altimeter": 1016.3,
    "clouds": [
      {
        "type": "SCT",
        "altitude": 4000
      }
    ],
    "weather": [],
    "flightCategory": "VFR"
  },
  {
    "raw": "KVVV 152315Z AUTO 00000KT 5SM BR SCT120 18/18 A3000 RMK AO2",
    "station": "KVVV",
    "observationTime": 1750029300,
    "temperature": 18,
    "dewpoint": 18,
    "visibility": 5,
    "altimeter": 1016,
    "clouds": [
      {
        "type": "SCT",
        "altitude": 12000
      }
    ],
    "weather": [
      "BR"
    ],
    "flightCategory": "VFR"
  },
  {
    "raw": "KVVS 152315Z AUTO 06005KT 10SM SCT019 SCT060 22/20 A3004 RMK AO2 T02180205",
    "station": "KVVS",
    "observationTime": 1750029300,
    "temperature": 21.8,
    "dewpoint": 20.5,
    "windDirection": 60,
    "windSpeed": 5,
    "visibility": 10,
    "altimeter": 1017.4,
    "clouds": [
      {
        "type": "SCT",
        "altitude": 1900
      },
      {
        "type": "SCT",
        "altitude": 6000
      }
    ],
    "weather": [],
    "flightCategory": "VFR"
  },
  {
    "raw": "KVUJ 152315Z AUTO 23003KT 10SM BKN080 BKN090 27/24 A3006 RMK AO2 LTG DSNT E AND W T02680236",
    "station": "KVUJ",
    "observationTime": 1750029300,
    "temperature": 26.8,
    "dewpoint": 23.6,
    "windDirection": 230,
    "windSpeed": 3,
    "visibility": 10,
    "altimeter": 1018,
    "clouds": [
      {
        "type": "BKN",
        "altitude": 8000
      },
      {
        "type": "BKN",
        "altitude": 9000
      }
    ],
    "weather": [],
    "flightCategory": "VFR"
  },
  {
    "raw": "KVTP 152315Z AUTO 29005KT 10SM CLR 23/M08 A3059 RMK AO2",
    "station": "KVTP",
    "observationTime": 1750029300,
    "temperature": 23,
    "dewpoint": -8,
    "windDirection": 290,
    "windSpeed": 5,
    "visibility": 10,
    "altimeter": 1036,
    "clouds": [
      {
        "type": "CLR"
      }
    ],
    "weather": [],
    "flightCategory": "VFR"
  },
  {
    "raw": "KVTI 152315Z AUTO 13005KT 10SM CLR 26/22 A3004 RMK AO2 T02550220",
    "station": "KVTI",
    "observationTime": 1750029300,
    "temperature": 25.5,
    "dewpoint": 22,
    "windDirection": 130,
    "windSpeed": 5,
    "visibility": 10,
    "altimeter": 1017.4,
    "clouds": [
      {
        "type": "CLR"
      }
    ],
    "weather": [],
    "flightCategory": "VFR"
  },
  {
    "raw": "KVPC 152315Z AUTO 23004KT FEW043 SCT050 30/22 A3004 RMK AO2 PWINO",
    "station": "KVPC",
    "observationTime": 1750029300,
    "temperature": 30,
    "dewpoint": 22,
    "windDirection": 230,
    "windSpeed": 4,
    "altimeter": 1017.4,
    "clouds": [
      {
        "type": "FEW",
        "altitude": 4300
      },
      {
        "type": "SCT",
        "altitude": 5000
      }
    ],
    "weather": [],
    "flightCategory": "VFR"
  },
  {
    "raw": "KVOA 152315Z AUTO VRB04KT 9SM CLR 32/23 A3007 RMK A01",
    "station": "KVOA",
    "observationTime": 1750029300,
    "temperature": 32,
    "dewpoint": 23,
    "windSpeed": 4,
    "visibility": 9,
    "altimeter": 1018.4,
    "clouds": [
      {
        "type": "CLR"
      }
    ],
    "weather": [],
    "flightCategory": "VFR"
  },
  {
    "raw": "KVNW 152315Z AUTO 06008KT 10SM CLR 25/15 A3006 RMK AO2",
    "station": "KVNW",
    "observationTime": 1750029300,
    "temperature": 25,
    "dewpoint": 15,
    "windDirection": 60,
    "windSpeed": 8,
    "visibility": 10,
    "altimeter": 1018,
    "clouds": [
      {
        "type": "CLR"
      }
    ],
    "weather": [],
    "flightCategory": "VFR"
  },
  {
    "raw": "KVMR 152315Z AUTO VRB03KT 10SM FEW120 33/17 A2994 RMK AO2",
    "station": "KVMR",
    "observationTime": 1750029300,
    "temperature": 33,
    "dewpoint": 17,
    "windSpeed": 3,
    "visibility": 10,
    "altimeter": 1014,
    "clouds": [
      {
        "type": "FEW",
        "altitude": 12000
      }
    ],
    "weather": [],
    "flightCategory": "VFR"
  },
  {
    "raw": "KVKS 152315Z AUTO 13003KT 3SM BR SCT036 SCT043 SCT050 23/23 A3005 RMK A01",
    "station": "KVKS",
    "observationTime": 1750029300,
    "temperature": 23,
    "dewpoint": 23,
    "windDirection": 130,
    "windSpeed": 3,
    "visibility": 3,
    "altimeter": 1017.7,
    "clouds": [
      {
        "type": "SCT",
        "altitude": 3600
      },
      {
        "type": "SCT",
        "altitude": 4300
      },
      {
        "type": "SCT",
        "altitude": 5000
      }
    ],
    "weather": [
      "BR"
    ],
    "flightCategory": "MVFR"
  },
  {
    "raw": "KVJI 152315Z AUTO 25006KT 10SM SCT035 BKN044 BKN080 23/21 A3008 RMK AO2",
    "station": "KVJI",
    "observationTime": 1750029300,
    "temperature": 23,
    "dewpoint": 21,
    "windDirection": 250,
    "windSpeed": 6,
    "visibility": 10,
    "altimeter": 1018.7,
    "clouds": [
      {
        "type": "SCT",
        "altitude": 3500
      },
      {
        "type": "BKN",
        "altitude": 4400
      },
      {
        "type": "BKN",
        "altitude": 8000
      }
    ],
    "weather": [],
    "flightCategory": "VFR"
  },
  {
    "raw": "KVHN 152315Z AUTO 10006G18KT 10SM SCT026 SCT033 37/05 A3004 RMK AO2 LTG DSNT NE T03680045",
    "station": "KVHN",
    "observationTime": 1750029300,
    "temperature": 36.8,
    "dewpoint": 4.5,
    "windDirection": 100,
    "windSpeed": 6,
    "windGust": 18,
    "visibility": 10,
    "altimeter": 1017.4,
    "clouds": [
      {
        "type": "SCT",
        "altitude": 2600
      },
      {
        "type": "SCT",
        "altitude": 3300
      }
    ],
    "weather": [],
    "flightCategory": "VFR"
  },
  {
    "raw": "KVGC 152315Z AUTO 00000KT 10SM OVC060 20/15 A3013 RMK AO2",
    "station": "KVGC",
    "observationTime": 1750029300,
    "temperature": 20,
    "dewpoint": 15,
    "visibility": 10,
    "altimeter": 1020.4,
    "clouds": [
      {
        "type": "OVC",
        "altitude": 6000
      }
    ],
    "weather": [],
    "flightCategory": "VFR"
  },
  {
    "raw": "KVER 152315Z AUTO 00000KT 10SM CLR A3001 RMK AO2",
    "station": "KVER",
    "observationTime": 1750029300,
    "visibility": 10,
    "altimeter": 1016.3,
    "clouds": [
      {
        "type": "CLR"
      }
    ],
    "weather": [],
    "flightCategory": "VFR"
  },
  {
    "raw": "KVDI 152315Z AUTO 17003KT 10SM CLR 25/23 A3010 RMK AO2 LTG DSNT E AND SE",
    "station": "KVDI",
    "observationTime": 1750029300,
    "temperature": 25,
    "dewpoint": 23,
    "windDirection": 170,
    "windSpeed": 3,
    "visibility": 10,
    "altimeter": 1019.4,
    "clouds": [
      {
        "type": "CLR"
      }
    ],
    "weather": [],
    "flightCategory": "VFR"
  },
  {
    "raw": "KVDF 152315Z AUTO 27003KT 10SM CLR 30/22 A3010 RMK AO2",
    "station": "KVDF",
    "observationTime": 1750029300,
    "temperature": 30,
    "dewpoint": 22,
    "windDirection": 270,
    "windSpeed": 3,
    "visibility": 10,
    "altimeter": 1019.4,
    "clouds": [
      {
        "type": "CLR"
      }
    ],
    "weather": [],
    "flightCategory": "VFR"
  },
  {
    "raw": "KVCV 152315Z AUTO 24010KT 10SM CLR 41/M07 A2995 RMK AO2",
    "station": "KVCV",
    "observationTime": 1750029300,
    "temperature": 41,
    "dewpoint": -7,
    "windDirection": 240,
    "windSpeed": 10,
    "visibility": 10,
    "altimeter": 1014.3,
    "clouds": [
      {
        "type": "CLR"
      }
    ],
    "weather": [],
    "flightCategory": "VFR"
  },
  {
    "raw": "KVBW 152315Z AUTO 36004KT 10SM BKN006 BKN010 OVC017 A3004 RMK AO1 P0001",
    "station": "KVBW",
    "observationTime": 1750029300,
    "windDirection": 360,
    "windSpeed": 4,
    "visibility": 10,
    "altimeter": 1017.4,
    "clouds": [
      {
        "type": "BKN",
        "altitude": 600
      },
      {
        "type": "BKN",
        "altitude": 1000
      },
      {
        "type": "OVC",
        "altitude": 1700
      }
    ],
    "weather": [],
    "flightCategory": "IFR"
  },
  {
    "raw": "KVAF 152315Z 14011KT 2 1/2SM HZ FEW017 BKN024 OVC032 30/26 A2999 RMK A01 WINDS UN-RELIABLE 350 TO 45 DEGREES",
    "station": "KVAF",
    "observationTime": 1750029300,
    "temperature": 30,
    "dewpoint": 26,
    "windDirection": 140,
    "windSpeed": 11,
    "visibility": 2.5,
    "altimeter": 1015.7,
    "clouds": [
      {
        "type": "FEW",
        "altitude": 1700
      },
      {
        "type": "BKN",
        "altitude": 2400
      },
      {
        "type": "OVC",
        "altitude": 3200
      }
    ],
    "weather": [
      "HZ"
    ],
    "flightCategory": "IFR"
  },
  {
    "raw": "KUYF 152315Z AUTO 03014G17KT 10SM SCT039 BKN050 OVC060 26/15 A3003 RMK AO2",
    "station": "KUYF",
    "observationTime": 1750029300,
    "temperature": 26,
    "dewpoint": 15,
    "windDirection": 30,
    "windSpeed": 14,
    "windGust": 17,
    "visibility": 10,
    "altimeter": 1017,
    "clouds": [
      {
        "type": "SCT",
        "altitude": 3900
      },
      {
        "type": "BKN",
        "altitude": 5000
      },
      {
        "type": "OVC",
        "altitude": 6000
      }
    ],
    "weather": [],
    "flightCategory": "VFR"
  },
  {
    "raw": "KUXL 152315Z AUTO 21008KT 7SM CLR 31/25 A3001 RMK AO2 T03100251",
    "station": "KUXL",
    "observationTime": 1750029300,
    "temperature": 31,
    "dewpoint": 25.1,
    "windDirection": 210,
    "windSpeed": 8,
    "visibility": 7,
    "altimeter": 1016.3,
    "clouds": [
      {
        "type": "CLR"
      }
    ],
    "weather": [],
    "flightCategory": "VFR"
  },
  {
    "raw": "KUWL 152315Z AUTO 04009KT 10SM BKN037 BKN085 25/20 A3003 RMK A01",
    "station": "KUWL",
    "observationTime": 1750029300,
    "temperature": 25,
    "dewpoint": 20,
    "windDirection": 40,
    "windSpeed": 9,
    "visibility": 10,
    "altimeter": 1017,
    "clouds": [
      {
        "type": "BKN",
        "altitude": 3700
      },
      {
        "type": "BKN",
        "altitude": 8500
      }
    ],
    "weather": [],
    "flightCategory": "VFR"
  },
  {
    "raw": "KUVA 152315Z AUTO 17008KT 10SM CLR 34/21 A2991 RMK AO2 LTG DSNT E T03400214",
    "station": "KUVA",
    "observationTime": 1750029300,
    "temperature": 34,
    "dewpoint": 21.4,
    "windDirection": 170,
    "windSpeed": 8,
    "visibility": 10,
    "altimeter": 1013,
    "clouds": [
      {
        "type": "CLR"
      }
    ],
    "weather": [],
    "flightCategory": "VFR"
  },
  {
    "raw": "KUUV 152315Z AUTO 00000KT 10SM CLR 25/22 A3003 RMK AO2 LTG DSNT E AND SW",
    "station": "KUUV",
    "observationTime": 1750029300,
    "temperature": 25,
    "dewpoint": 22,
    "visibility": 10,
    "altimeter": 1017,
    "clouds": [
      {
        "type": "CLR"
      }
    ],
    "weather": [],
    "flightCategory": "VFR"
  },
  {
    "raw": "KUTA 152315Z AUTO 15007KT 10SM CLR 30/26 A2995 RMK AO2 T03040263 $",
    "station": "KUTA",
    "observationTime": 1750029300,
    "temperature": 30.4,
    "dewpoint": 26.3,
    "windDirection": 150,
    "windSpeed": 7,
    "visibility": 10,
    "altimeter": 1014.3,
    "clouds": [
      {
        "type": "CLR"
      }
    ],
    "weather": [],
    "flightCategory": "VFR"
  },
  {
    "raw": "KUSE 152315Z AUTO 09010KT 10SM CLR 25/13 A3007 RMK AO2",
    "station": "KUSE",
    "observationTime": 1750029300,
    "temperature": 25,
    "dewpoint": 13,
    "windDirection": 90,
    "windSpeed": 10,
    "visibility": 10,
    "altimeter": 1018.4,
    "clouds": [
      {
        "type": "CLR"
      }
    ],
    "weather": [],
    "flightCategory": "VFR"
  },
  {
    "raw": "KUOX 152315Z AUTO FEW044 30/22 A3001 RMK AO2 PWINO",
    "station": "KUOX",
    "observationTime": 1750029300,
    "temperature": 30,
    "dewpoint": 22,
    "altimeter": 1016.3,
    "clouds": [
      {
        "type": "FEW",
        "altitude": 4400
      }
    ],
    "weather": [],
    "flightCategory": "VFR"
  },
  {
    "raw": "KUNI 152315Z AUTO 00000KT 10SM SCT060 OVC070 24/21 A2999 RMK AO2 T02390213 TSNO",
    "station": "KUNI",
    "observationTime": 1750029300,
    "temperature": 23.9,
    "dewpoint": 21.3,
    "visibility": 10,
    "altimeter": 1015.7,
    "clouds": [
      {
        "type": "SCT",
        "altitude": 6000
      },
      {
        "type": "OVC",
        "altitude": 7000
      }
    ],
    "weather": [],
    "flightCategory": "VFR"
  },
  {
    "raw": "KUMP 152315Z AUTO 06004KT 10SM FEW030 OVC043 25/23 A3003 RMK AO2 T02490226 $",
    "station": "KUMP",
    "observationTime": 1750029300,
    "temperature": 24.9,
    "dewpoint": 22.6,
    "windDirection": 60,
    "windSpeed": 4,
    "visibility": 10,
    "altimeter": 1017,
    "clouds": [
      {
        "type": "FEW",
        "altitude": 3000
      },
      {
        "type": "OVC",
        "altitude": 4300
      }
    ],
    "weather": [],
    "flightCategory": "VFR"
  },
  {
    "raw": "KULS 152315Z AUTO 13015KT 10SM CLR A3000 RMK AO2",
    "station": "KULS",
    "observationTime": 1750029300,
    "windDirection": 130,
    "windSpeed": 15,
    "visibility": 10,
    "altimeter": 1016,
    "clouds": [
      {
        "type": "CLR"
      }
    ],
    "weather": [],
    "flightCategory": "VFR"
  },
  {
    "raw": "KULM 152315Z AUTO 00000KT 10SM SCT110 23/18 A3004 RMK AO2 LTG DSNT S THRU W",
    "station": "KULM",
    "observationTime": 1750029300,
    "temperature": 23,
    "dewpoint": 18,
    "visibility": 10,
    "altimeter": 1017.4,
    "clouds": [
      {
        "type": "SCT",
        "altitude": 11000
      }
    ],
    "weather": [],
    "flightCategory": "VFR"
  },
  {
    "raw": "KUKT 152315Z AUTO 11005KT 7SM BKN009 BKN015 OVC021 15/16 A3014 RMK AO2",
    "station": "KUKT",
    "observationTime": 1750029300,
    "temperature": 15,
    "dewpoint": 16,
    "windDirection": 110,
    "windSpeed": 5,
    "visibility": 7,
    "altimeter": 1020.7,
    "clouds": [
      {
        "type": "BKN",
        "altitude": 900
      },
      {
        "type": "BKN",
        "altitude": 1500
      },
      {
        "type": "OVC",
        "altitude": 2100
      }
    ],
    "weather": [],
    "flightCategory": "IFR"
  },
  {
    "raw": "KUKL 152315Z AUTO 09005KT 10SM CLR 29/17 A2999 RMK AO2 T02890172",
    "station": "KUKL",
    "observationTime": 1750029300,
    "temperature": 28.9,
    "dewpoint": 17.2,
    "windDirection": 90,
    "windSpeed": 5,
    "visibility": 10,
    "altimeter": 1015.7,
    "clouds": [
      {
        "type": "CLR"
      }
    ],
    "weather": [],
    "flightCategory": "VFR"
  },
  {
    "raw": "KUBE 152315Z AUTO 14004KT 10SM OVC017 20/15 A3009 RMK AO2",
    "station": "KUBE",
    "observationTime": 1750029300,
    "temperature": 20,
    "dewpoint": 15,
    "windDirection": 140,
    "windSpeed": 4,
    "visibility": 10,
    "altimeter": 1019,
    "clouds": [
      {
        "type": "OVC",
        "altitude": 1700
      }
    ],
    "weather": [],
    "flightCategory": "MVFR"
  },
  {
    "raw": "KU96 152315Z AUTO 25009KT 190V280 10SM CLR 37/M09 A2998 RMK AO2 T03721087",
    "station": "KU96",
    "observationTime": 1750029300,
    "temperature": 37.2,
    "dewpoint": -8.7,
    "windDirection": 250,
    "windSpeed": 9,
    "visibility": 10,
    "altimeter": 1015.3,
    "clouds": [
      {
        "type": "CLR"
      }
    ],
    "weather": [],
    "flightCategory": "VFR"
  },
  {
    "raw": "KU69 152315Z AUTO 28018G24KT 10SM CLR 34/M11 A3007 RMK A01",
    "station": "KU69",
    "observationTime": 1750029300,
    "temperature": 34,
    "dewpoint": -11,
    "windDirection": 280,
    "windSpeed": 18,
    "windGust": 24,
    "visibility": 10,
    "altimeter": 1018.4,
    "clouds": [
      {
        "type": "CLR"
      }
    ],
    "weather": [],
    "flightCategory": "VFR"
  },
  {
    "raw": "KU64 152315Z AUTO 25011KT 210V280 10SM CLR 32/M10 A3025 RMK AO2 T03231099 $",
    "station": "KU64",
    "observationTime": 1750029300,
    "temperature": 32.3,
    "dewpoint": -9.9,
    "windDirection": 250,
    "windSpeed": 11,
    "visibility": 10,
    "altimeter": 1024.5,
    "clouds": [
      {
        "type": "CLR"
      }
    ],
    "weather": [],
    "flightCategory": "VFR"
  },
  {
    "raw": "KU52 152315Z AUTO 22015G23KT 10SM RA 33/M20 A3012 RMK AO2",
    "station": "KU52",
    "observationTime": 1750029300,
    "temperature": 33,
    "dewpoint": -20,
    "windDirection": 220,
    "windSpeed": 15,
    "windGust": 23,
    "visibility": 10,
    "altimeter": 1020.1,
    "clouds": [],
    "weather": [
      "RA"
    ],
    "flightCategory": "VFR"
  },
  {
    "raw": "KU14 152315Z AUTO 25011G17KT 220V280 10SM CLR 36/M08 A3003 RMK AO2 TSNO",
    "station": "KU14",
    "observationTime": 1750029300,
    "temperature": 36,
    "dewpoint": -8,
    "windDirection": 250,
    "windSpeed": 11,
    "windGust": 17,
    "visibility": 10,
    "altimeter": 1017,
    "clouds": [
      {
        "type": "CLR"
      }
    ],
    "weather": [],
    "flightCategory": "VFR"
  },
  {
    "raw": "KTYQ 152315Z AUTO 07005KT 10SM SCT030 OVC040 25/19 A3003 RMK AO2 LTG DSNT SE T02460190",
    "station": "KTYQ",
    "observationTime": 1750029300,
    "temperature": 24.6,
    "dewpoint": 19,
    "windDirection": 70,
    "windSpeed": 5,
    "visibility": 10,
    "altimeter": 1017,
    "clouds": [
      {
        "type": "SCT",
        "altitude": 3000
      },
      {
        "type": "OVC",
        "altitude": 4000
      }
    ],
    "weather": [],
    "flightCategory": "VFR"
  },
  {
    "raw": "KTYL 152315Z AUTO 19016G30KT 10SM CLR 35/M05 A3015 RMK AO2",
    "station": "KTYL",
    "observationTime": 1750029300,
    "temperature": 35,
    "dewpoint": -5,
    "windDirection": 190,
    "windSpeed": 16,
    "windGust": 30,
    "visibility": 10,
    "altimeter": 1021.1,
    "clouds": [
      {
        "type": "CLR"
      }
    ],
    "weather": [],
    "flightCategory": "VFR"
  },
  {
    "raw": "KTXW 152315Z AUTO 14014KT 10SM SCT050 35/21 A2989 RMK AO2 T03490213",
    "station": "KTXW",
    "observationTime": 1750029300,
    "temperature": 34.9,
    "dewpoint": 21.3,
    "windDirection": 140,
    "windSpeed": 14,
    "visibility": 10,
    "altimeter": 1012.3,
    "clouds": [
      {
        "type": "SCT",
        "altitude": 5000
      }
    ],
    "weather": [],
    "flightCategory": "VFR"
  },
  {
    "raw": "KTWM 152315Z AUTO 08006KT 10SM SCT023 OVC034 18/11 A3010 RMK AO2",
    "station": "KTWM",
    "observationTime": 1750029300,
    "temperature": 18,
    "dewpoint": 11,
    "windDirection": 80,
    "windSpeed": 6,
    "visibility": 10,
    "altimeter": 1019.4,
    "clouds": [
      {
        "type": "SCT",
        "altitude": 2300
      },
      {
        "type": "OVC",
        "altitude": 3400
      }
    ],
    "weather": [],
    "flightCategory": "VFR"
  },
  {
    "raw": "KTVY 152315Z AUTO 03013KT 10SM CLR 34/M00 A2997 RMK AO2",
    "station": "KTVY",
    "observationTime": 1750029300,
    "temperature": 34,
    "windDirection": 30,
    "windSpeed": 13,
    "visibility": 10,
    "altimeter": 1015,
    "clouds": [
      {
        "type": "CLR"
      }
    ],
    "weather": [],
    "flightCategory": "VFR"
  },
  {
    "raw": "KTVK 152315Z AUTO 07005KT 10SM BKN031 27/21 A3003 RMK AO2",
    "station": "KTVK",
    "observationTime": 1750029300,
    "temperature": 27,
    "dewpoint": 21,
    "windDirection": 70,
    "windSpeed": 5,
    "visibility": 10,
    "altimeter": 1017,
    "clouds": [
      {
        "type": "BKN",
        "altitude": 3100
      }
    ],
    "weather": [],
    "flightCategory": "VFR"
  },
  {
    "raw": "KTVI 152315Z AUTO 00000KT 10SM -DZ SCT036 SCT043 SCT050 25/22 A3010 RMK AO2",
    "station": "KTVI",
    "observationTime": 1750029300,
    "temperature": 25,
    "dewpoint": 22,
    "visibility": 10,
    "altimeter": 1019.4,
    "clouds": [
      {
        "type": "SCT",
        "altitude": 3600
      },
      {
        "type": "SCT",
        "altitude": 4300
      },
      {
        "type": "SCT",
        "altitude": 5000
      }
    ],
    "weather": [
      "-DZ"
    ],
    "flightCategory": "VFR"
  },
  {
    "raw": "KTTF 152315Z AUTO 11006KT 10SM CLR 23/13 A3007 RMK AO2",
    "station": "KTTF",
    "observationTime": 1750029300,
    "temperature": 23,
    "dewpoint": 13,
    "windDirection": 110,
    "windSpeed": 6,
    "visibility": 10,
    "altimeter": 1018.4,
    "clouds": [
      {
        "type": "CLR"
      }
    ],
    "weather": [],
    "flightCategory": "VFR"
  },
  {
    "raw": "KTTA 152315Z AUTO 27003KT 10SM SCT055 SCT090 26/23 A3000 RMK AO2 T02620230",
    "station": "KTTA",
    "observationTime": 1750029300,
    "temperature": 26.2,
    "dewpoint": 23,
    "windDirection": 270,
    "windSpeed": 3,
    "visibility": 10,
    "altimeter": 1016,
    "clouds": [
      {
        "type": "SCT",
        "altitude": 5500
      },
      {
        "type": "SCT",
        "altitude": 9000
      }
    ],
    "weather": [],
    "flightCategory": "VFR"
  },
  {
    "raw": "KTSP 152315Z AUTO 31016KT 10SM CLR 30/M03 A3011 RMK AO2 FZRANO",
    "station": "KTSP",
    "observationTime": 1750029300,
    "temperature": 30,
    "dewpoint": -3,
    "windDirection": 310,
    "windSpeed": 16,
    "visibility": 10,
    "altimeter": 1019.7,
    "clouds": [
      {
        "type": "CLR"
      }
    ],
    "weather": [],
    "flightCategory": "VFR"
  },
  {
    "raw": "KTQV 152315Z AUTO VRB04KT 10SM SCT035 BKN045 BKN055 26/24 A3000 RMK A01",
    "station": "KTQV",
    "observationTime": 1750029300,
    "temperature": 26,
    "dewpoint": 24,
    "windSpeed": 4,
    "visibility": 10,
    "altimeter": 1016,
    "clouds": [
      {
        "type": "SCT",
        "altitude": 3500
      },
      {
        "type": "BKN",
        "altitude": 4500
      },
      {
        "type": "BKN",
        "altitude": 5500
      }
    ],
    "weather": [],
    "flightCategory": "VFR"
  },
  {
    "raw": "KTQK 152315Z AUTO 15018G21KT 10SM CLR 32/18 A3000 RMK AO2 T03200176",
    "station": "KTQK",
    "observationTime": 1750029300,
    "temperature": 32,
    "dewpoint": 17.6,
    "windDirection": 150,
    "windSpeed": 18,
    "windGust": 21,
    "visibility": 10,
    "altimeter": 1016,
    "clouds": [
      {
        "type": "CLR"
      }
    ],
    "weather": [],
    "flightCategory": "VFR"
  },
  {
    "raw": "KTQH 152315Z AUTO 00000KT 10SM 28/20 RMK AO2",
    "station": "KTQH",
    "observationTime": 1750029300,
    "temperature": 28,
    "dewpoint": 20,
    "visibility": 10,
    "clouds": [],
    "weather": [],
    "flightCategory": "VFR"
  },
  {
    "raw": "KTOC 152315Z AUTO 21007KT 10SM CLR 29/22 A3005 RMK AO2 T02920218",
    "station": "KTOC",
    "observationTime": 1750029300,
    "temperature": 29.2,
    "dewpoint": 21.8,
    "windDirection": 210,
    "windSpeed": 7,
    "visibility": 10,
    "altimeter": 1017.7,
    "clouds": [
      {
        "type": "CLR"
      }
    ],
    "weather": [],
    "flightCategory": "VFR"
  },
  {
    "raw": "KTOB 152315Z AUTO 00000KT 10SM SCT039 SCT060 SCT070 25/19 A3006 RMK AO2 LTG DSNT S",
    "station": "KTOB",
    "observationTime": 1750029300,
    "temperature": 25,
    "dewpoint": 19,
    "visibility": 10,
    "altimeter": 1018,
    "clouds": [
      {
        "type": "SCT",
        "altitude": 3900
      },
      {
        "type": "SCT",
        "altitude": 6000
      },
      {
        "type": "SCT",
        "altitude": 7000
      }
    ],
    "weather": [],
    "flightCategory": "VFR"
  },
  {
    "raw": "KTNU 152315Z AUTO 12006KT 8SM CLR 26/21 A3001 RMK A01",
    "station": "KTNU",
    "observationTime": 1750029300,
    "temperature": 26,
    "dewpoint": 21,
    "windDirection": 120,
    "windSpeed": 6,
    "visibility": 8,
    "altimeter": 1016.3,
    "clouds": [
      {
        "type": "CLR"
      }
    ],
    "weather": [],
    "flightCategory": "VFR"
  },
  {
    "raw": "KTNB 152315Z AUTO 30004KT 10SM CLR 22/17 A3015 RMK AO2 T02220169",
    "station": "KTNB",
    "observationTime": 1750029300,
    "temperature": 22.2,
    "dewpoint": 16.9,
    "windDirection": 300,
    "windSpeed": 4,
    "visibility": 10,
    "altimeter": 1021.1,
    "clouds": [
      {
        "type": "CLR"
      }
    ],
    "weather": [],
    "flightCategory": "VFR"
  },
  {
    "raw": "KTMK 152315Z AUTO 33013KT 10SM CLR 17/10 A3011 RMK AO2",
    "station": "KTMK",
    "observationTime": 1750029300,
    "temperature": 17,
    "dewpoint": 10,
    "windDirection": 330,
    "windSpeed": 13,
    "visibility": 10,
    "altimeter": 1019.7,
    "clouds": [
      {
        "type": "CLR"
      }
    ],
    "weather": [],
    "flightCategory": "VFR"
  },
  {
    "raw": "KTME 152315Z AUTO 34014G21KT 2 1/2SM BR FEW003 SCT009 BKN014 22/22 A3003 RMK AO2 VIS 1 3/4V3",
    "station": "KTME",
    "observationTime": 1750029300,
    "temperature": 22,
    "dewpoint": 22,
    "windDirection": 340,
    "windSpeed": 14,
    "windGust": 21,
    "visibility": 2.5,
    "altimeter": 1017,
    "clouds": [
      {
        "type": "FEW",
        "altitude": 300
      },
      {
        "type": "SCT",
        "altitude": 900
      },
      {
        "type": "BKN",
        "altitude": 1400
      }
    ],
    "weather": [
      "BR"
    ],
    "flightCategory": "IFR"
  },
  {
    "raw": "KTMA 152315Z AUTO 00000KT 9SM FEW200 23/23 A3011 RMK AO2 RAE2313 P0000 T02300227",
    "station": "KTMA",
    "observationTime": 1750029300,
    "temperature": 23,
    "dewpoint": 22.7,
    "visibility": 9,
    "altimeter": 1019.7,
    "clouds": [
      {
        "type": "FEW",
        "altitude": 20000
      }
    ],
    "weather": [],
    "flightCategory": "VFR"
  },
  {
    "raw": "KTKX 152315Z AUTO 14005KT 10SM CLR 31/26 A2994 RMK AO2",
    "station": "KTKX",
    "observationTime": 1750029300,
    "temperature": 31,
    "dewpoint": 26,
    "windDirection": 140,
    "windSpeed": 5,
    "visibility": 10,
    "altimeter": 1014,
    "clouds": [
      {
        "type": "CLR"
      }
    ],
    "weather": [],
    "flightCategory": "VFR"
  },
  {
    "raw": "KTKV 152315Z 10SM OVC018 18/12 A3012 RMK AO2 T01800124 PWINO",
    "station": "KTKV",
    "observationTime": 1750029300,
    "temperature": 18,
    "dewpoint": 12.4,
    "visibility": 10,
    "altimeter": 1020.1,
    "clouds": [
      {
        "type": "OVC",
        "altitude": 1800
      }
    ],
    "weather": [],
    "flightCategory": "MVFR"
  },
  {
    "raw": "KTKC 152315Z AUTO 35009KT 2SM VCTS RA BR SCT006 SCT010 BKN014 19/19 A3007 RMK AO2 LTG DSNT ALQDS",
    "station": "KTKC",
    "observationTime": 1750029300,
    "temperature": 19,
    "dewpoint": 19,
    "windDirection": 350,
    "windSpeed": 9,
    "visibility": 2,
    "altimeter": 1018.4,
    "clouds": [
      {
        "type": "SCT",
        "altitude": 600
      },
      {
        "type": "SCT",
        "altitude": 1000
      },
      {
        "type": "BKN",
        "altitude": 1400
      }
    ],
    "weather": [
      "VCTS RA BR"
    ],
    "flightCategory": "IFR"
  },
  {
    "raw": "KTIP 152315Z AUTO 09007KT 10SM SCT035 SCT060 27/19 A3001 RMK AO2 T02660193",
    "station": "KTIP",
    "observationTime": 1750029300,
    "temperature": 26.6,
    "dewpoint": 19.3,
    "windDirection": 90,
    "windSpeed": 7,
    "visibility": 10,
    "altimeter": 1016.3,
    "clouds": [
      {
        "type": "SCT",
        "altitude": 3500
      },
      {
        "type": "SCT",
        "altitude": 6000
      }
    ],
    "weather": [],
    "flightCategory": "VFR"
  },
  {
    "raw": "KTIF 152315Z AUTO 18009G16KT 10SM CLR 31/16 A2999 RMK AO2 T03140160",
    "station": "KTIF",
    "observationTime": 1750029300,
    "temperature": 31.4,
    "dewpoint": 16,
    "windDirection": 180,
    "windSpeed": 9,
    "windGust": 16,
    "visibility": 10,
    "altimeter": 1015.7,
    "clouds": [
      {
        "type": "CLR"
      }
    ],
    "weather": [],
    "flightCategory": "VFR"
  },
  {
    "raw": "KTHA 152315Z AUTO 18005KT 10SM CLR 27/23 A3001 RMK A01",
    "station": "KTHA",
    "observationTime": 1750029300,
    "temperature": 27,
    "dewpoint": 23,
    "windDirection": 180,
    "windSpeed": 5,
    "visibility": 10,
    "altimeter": 1016.3,
    "clouds": [
      {
        "type": "CLR"
      }
    ],
    "weather": [],
    "flightCategory": "VFR"
  },
  {
    "raw": "KTGI 152315Z AUTO 10SM BKN009 OVC021 22/21 A3005 RMK AO1 T02200209",
    "station": "KTGI",
    "observationTime": 1750029300,
    "temperature": 22,
    "dewpoint": 20.9,
    "visibility": 10,
    "altimeter": 1017.7,
    "clouds": [
      {
        "type": "BKN",
        "altitude": 900
      },
      {
        "type": "OVC",
        "altitude": 2100
      }
    ],
    "weather": [],
    "flightCategory": "IFR"
  },
  {
    "raw": "KTFP 152315Z AUTO 17012KT 10SM SCT019 32/26 A2994 RMK AO1 T03240257",
    "station": "KTFP",
    "observationTime": 1750029300,
    "temperature": 32.4,
    "dewpoint": 25.7,
    "windDirection": 170,
    "windSpeed": 12,
    "visibility": 10,
    "altimeter": 1014,
    "clouds": [
      {
        "type": "SCT",
        "altitude": 1900
      }
    ],
    "weather": [],
    "flightCategory": "VFR"
  },
  {
    "raw": "KTEX 152315Z AUTO 21008KT 10SM CLR A3042 RMK AO2",
    "station": "KTEX",
    "observationTime": 1750029300,
    "windDirection": 210,
    "windSpeed": 8,
    "visibility": 10,
    "altimeter": 1030.2,
    "clouds": [
      {
        "type": "CLR"
      }
    ],
    "weather": [],
    "flightCategory": "VFR"
  },
  {
    "raw": "KTEW 152315Z AUTO 05006KT 10SM CLR 25/16 A3008 RMK AO2 T02450158",
    "station": "KTEW",
    "observationTime": 1750029300,
    "temperature": 24.5,
    "dewpoint": 15.8,
    "windDirection": 50,
    "windSpeed": 6,
    "visibility": 10,
    "altimeter": 1018.7,
    "clouds": [
      {
        "type": "CLR"
      }
    ],
    "weather": [],
    "flightCategory": "VFR"
  },
  {
    "raw": "KTBX 152315Z AUTO 15014G24KT 10SM CLR 27/M09 A3021 RMK AO2",
    "station": "KTBX",
    "observationTime": 1750029300,
    "temperature": 27,
    "dewpoint": -9,
    "windDirection": 150,
    "windSpeed": 14,
    "windGust": 24,
    "visibility": 10,
    "altimeter": 1023.1,
    "clouds": [
      {
        "type": "CLR"
      }
    ],
    "weather": [],
    "flightCategory": "VFR"
  },
  {
    "raw": "KTBR 152315Z AUTO 24003KT 10SM -RA SCT075 SCT090 OVC110 24/21 A3010 RMK AO2 LTG DSNT SE AND S T02380214",
    "station": "KTBR",
    "observationTime": 1750029300,
    "temperature": 23.8,
    "dewpoint": 21.4,
    "windDirection": 240,
    "windSpeed": 3,
    "visibility": 10,
    "altimeter": 1019.4,
    "clouds": [
      {
        "type": "SCT",
        "altitude": 7500
      },
      {
        "type": "SCT",
        "altitude": 9000
      },
      {
        "type": "OVC",
        "altitude": 11000
      }
    ],
    "weather": [
      "-RA"
    ],
    "flightCategory": "VFR"
  },
  {
    "raw": "KT89 152315Z AUTO VRB06G16KT 10SM FEW110 39/11 A2988 RMK A01",
    "station": "KT89",
    "observationTime": 1750029300,
    "temperature": 39,
    "dewpoint": 11,
    "windSpeed": 6,
    "windGust": 16,
    "visibility": 10,
    "altimeter": 1011.9,
    "clouds": [
      {
        "type": "FEW",
        "altitude": 11000
      }
    ],
    "weather": [],
    "flightCategory": "VFR"
  },
  {
    "raw": "KT82 152315Z AUTO 34007KT 10SM CLR 24/20 A3001 RMK AO2 LTG DSNT SE AND S T02380202",
    "station": "KT82",
    "observationTime": 1750029300,
    "temperature": 23.8,
    "dewpoint": 20.2,
    "windDirection": 340,
    "windSpeed": 7,
    "visibility": 10,
    "altimeter": 1016.3,
    "clouds": [
      {
        "type": "CLR"
      }
    ],
    "weather": [],
    "flightCategory": "VFR"
  },
  {
    "raw": "KT78 152315Z AUTO 23005KT 10SM VCTS CLR 23/19 A2998 RMK AO2 LTG DSNT ALQDS",
    "station": "KT78",
    "observationTime": 1750029300,
    "temperature": 23,
    "dewpoint": 19,
    "windDirection": 230,
    "windSpeed": 5,
    "visibility": 10,
    "altimeter": 1015.3,
    "clouds": [
      {
        "type": "CLR"
      }
    ],
    "weather": [
      "VCTS"
    ],
    "flightCategory": "VFR"
  },
  {
    "raw": "KT74 152315Z AUTO 19009G14KT 10SM CLR 22/20 A2997 RMK AO2 LTG DSNT E THRU SW T02220201",
    "station": "KT74",
    "observationTime": 1750029300,
    "temperature": 22.2,
    "dewpoint": 20.1,
    "windDirection": 190,
    "windSpeed": 9,
    "windGust": 14,
    "visibility": 10,
    "altimeter": 1015,
    "clouds": [
      {
        "type": "CLR"
      }
    ],
    "weather": [],
    "flightCategory": "VFR"
  },
  {
    "raw": "KT69 152315Z AUTO 07011G16KT 010V150 7SM FEW001 31/27 A2994 RMK A01",
    "station": "KT69",
    "observationTime": 1750029300,
    "temperature": 31,
    "dewpoint": 27,
    "windDirection": 70,
    "windSpeed": 11,
    "windGust": 16,
    "visibility": 7,
    "altimeter": 1014,
    "clouds": [
      {
        "type": "FEW",
        "altitude": 100
      }
    ],
    "weather": [],
    "flightCategory": "VFR"
  },
  {
    "raw": "KT41 152315Z AUTO 07006KT 10SM BKN028 BKN040 BKN049 26/23 A3001 RMK AO2 TSNO T02630234",
    "station": "KT41",
    "observationTime": 1750029300,
    "temperature": 26.3,
    "dewpoint": 23.4,
    "windDirection": 70,
    "windSpeed": 6,
    "visibility": 10,
    "altimeter": 1016.3,
    "clouds": [
      {
        "type": "BKN",
        "altitude": 2800
      },
      {
        "type": "BKN",
        "altitude": 4000
      },
      {
        "type": "BKN",
        "altitude": 4900
      }
    ],
    "weather": [],
    "flightCategory": "MVFR"
  },
  {
    "raw": "KT35 152315Z AUTO 19011KT 10SM CLR 24/21 A2996 RMK AO2 LTG DSNT E THRU S T02350210 PWINO",
    "station": "KT35",
    "observationTime": 1750029300,
    "temperature": 23.5,
    "dewpoint": 21,
    "windDirection": 190,
    "windSpeed": 11,
    "visibility": 10,
    "altimeter": 1014.6,
    "clouds": [
      {
        "type": "CLR"
      }
    ],
    "weather": [],
    "flightCategory": "VFR"
  },
  {
    "raw": "KT20 152315Z AUTO 00000KT 1/2SM +TSRA BKN013 OVC026 23/22 A3003 RMK AO2 LTG DSNT ALQS P0051 T02340220",
    "station": "KT20",
    "observationTime": 1750029300,
    "temperature": 23.4,
    "dewpoint": 22,
    "visibility": 0.5,
    "altimeter": 1017,
    "clouds": [
      {
        "type": "BKN",
        "altitude": 1300
      },
      {
        "type": "OVC",
        "altitude": 2600
      }
    ],
    "weather": [
      "+TSRA"
    ],
    "flightCategory": "LIFR"
  },
  {
    "raw": "KSZY 152315Z AUTO 00000KT 10SM CLR 29/23 A2998 RMK A01",
    "station": "KSZY",
    "observationTime": 1750029300,
    "temperature": 29,
    "dewpoint": 23,
    "visibility": 10,
    "altimeter": 1015.3,
    "clouds": [
      {
        "type": "CLR"
      }
    ],
    "weather": [],
    "flightCategory": "VFR"
  },
  {
    "raw": "KSZT 152315Z AUTO 17009KT 10SM CLR 26/00 A3002 RMK AO2",
    "station": "KSZT",
    "observationTime": 1750029300,
    "temperature": 26,
    "windDirection": 170,
    "windSpeed": 9,
    "visibility": 10,
    "altimeter": 1016.7,
    "clouds": [
      {
        "type": "CLR"
      }
    ],
    "weather": [],
    "flightCategory": "VFR"
  },
  {
    "raw": "KSYN 152315Z AUTO 09005KT 10SM OVC048 23/19 A3004 RMK AO2 T02310189",
    "station": "KSYN",
    "observationTime": 1750029300,
    "temperature": 23.1,
    "dewpoint": 18.9,
    "windDirection": 90,
    "windSpeed": 5,
    "visibility": 10,
    "altimeter": 1017.4,
    "clouds": [
      {
        "type": "OVC",
        "altitude": 4800
      }
    ],
    "weather": [],
    "flightCategory": "VFR"
  },
  {
    "raw": "KSYM 152315Z AUTO 00000KT 10SM CLR 24/24 A3000 RMK AO2",
    "station": "KSYM",
    "observationTime": 1750029300,
    "temperature": 24,
    "dewpoint": 24,
    "visibility": 10,
    "altimeter": 1016,
    "clouds": [
      {
        "type": "CLR"
      }
    ],
    "weather": [],
    "flightCategory": "VFR"
  },
  {
    "raw": "KSYI 152315Z AUTO 17005KT 10SM SCT039 SCT047 27/23 A3000 RMK A01",
    "station": "KSYI",
    "observationTime": 1750029300,
    "temperature": 27,
    "dewpoint": 23,
    "windDirection": 170,
    "windSpeed": 5,
    "visibility": 10,
    "altimeter": 1016,
    "clouds": [
      {
        "type": "SCT",
        "altitude": 3900
      },
      {
        "type": "SCT",
        "altitude": 4700
      }
    ],
    "weather": [],
    "flightCategory": "VFR"
  },
  {
    "raw": "KSYF 152315Z AUTO 16013KT 10SM CLR 32/15 A2999 RMK AO2",
    "station": "KSYF",
    "observationTime": 1750029300,
    "temperature": 32,
    "dewpoint": 15,
    "windDirection": 160,
    "windSpeed": 13,
    "visibility": 10,
    "altimeter": 1015.7,
    "clouds": [
      {
        "type": "CLR"
      }
    ],
    "weather": [],
    "flightCategory": "VFR"
  },
  {
    "raw": "KSXU 152315Z AUTO 13007KT 10SM CLR 34/11 A3006 RMK AO2",
    "station": "KSXU",
    "observationTime": 1750029300,
    "temperature": 34,
    "dewpoint": 11,
    "windDirection": 130,
    "windSpeed": 7,
    "visibility": 10,
    "altimeter": 1018,
    "clouds": [
      {
        "type": "CLR"
      }
    ],
    "weather": [],
    "flightCategory": "VFR"
  },
  {
    "raw": "KSXK 152315Z AUTO 11013G18KT 10SM CLR 27/22 A2996 RMK AO2",
    "station": "KSXK",
    "observationTime": 1750029300,
    "temperature": 27,
    "dewpoint": 22,
    "windDirection": 110,
    "windSpeed": 13,
    "windGust": 18,
    "visibility": 10,
    "altimeter": 1014.6,
    "clouds": [
      {
        "type": "CLR"
      }
    ],
    "weather": [],
    "flightCategory": "VFR"
  },
  {
    "raw": "KSWW 152315Z AUTO 19014KT 10SM 33/14 A2997 RMK AO2 T03300142",
    "station": "KSWW",
    "observationTime": 1750029300,
    "temperature": 33,
    "dewpoint": 14.2,
    "windDirection": 190,
    "windSpeed": 14,
    "visibility": 10,
    "altimeter": 1015,
    "clouds": [],
    "weather": [],
    "flightCategory": "VFR"
  },
  {
    "raw": "KSVR 152315Z AUTO 34014G19KT 10SM CLR 34/M03 A3000 RMK AO2",
    "station": "KSVR",
    "observationTime": 1750029300,
    "temperature": 34,
    "dewpoint": -3,
    "windDirection": 340,
    "windSpeed": 14,
    "windGust": 19,
    "visibility": 10,
    "altimeter": 1016,
    "clouds": [
      {
        "type": "CLR"
      }
    ],
    "weather": [],
    "flightCategory": "VFR"
  },
  {
    "raw": "KSVH 152315Z AUTO 00000KT 10SM CLR 27/23 A3004 RMK AO2 T02730227",
    "station": "KSVH",
    "observationTime": 1750029300,
    "temperature": 27.3,
    "dewpoint": 22.7,
    "visibility": 10,
    "altimeter": 1017.4,
    "clouds": [
      {
        "type": "CLR"
      }
    ],
    "weather": [],
    "flightCategory": "VFR"
  },
  {
    "raw": "KSVE 152315Z AUTO 24012G18KT 10SM CLR 29/M03 A3009 RMK A01 P000",
    "station": "KSVE",
    "observationTime": 1750029300,
    "temperature": 29,
    "dewpoint": -3,
    "windDirection": 240,
    "windSpeed": 12,
    "windGust": 18,
    "visibility": 10,
    "altimeter": 1019,
    "clouds": [
      {
        "type": "CLR"
      }
    ],
    "weather": [],
    "flightCategory": "VFR"
  },
  {
    "raw": "KSVC 152315Z AUTO 31012KT 10SM CLR 38/M11 A3008 RMK AO2 T03801110",
    "station": "KSVC",
    "observationTime": 1750029300,
    "temperature": 38,
    "dewpoint": -11,
    "windDirection": 310,
    "windSpeed": 12,
    "visibility": 10,
    "altimeter": 1018.7,
    "clouds": [
      {
        "type": "CLR"
      }
    ],
    "weather": [],
    "flightCategory": "VFR"
  },
  {
    "raw": "KSUZ 152315Z AUTO 18005G10KT 8SM FEW043 FEW080 FEW100 31/25 A2992 RMK A01",
    "station": "KSUZ",
    "observationTime": 1750029300,
    "temperature": 31,
    "dewpoint": 25,
    "windDirection": 180,
    "windSpeed": 5,
    "windGust": 10,
    "visibility": 8,
    "altimeter": 1013.3,
    "clouds": [
      {
        "type": "FEW",
        "altitude": 4300
      },
      {
        "type": "FEW",
        "altitude": 8000
      },
      {
        "type": "FEW",
        "altitude": 10000
      }
    ],
    "weather": [],
    "flightCategory": "VFR"
  },
  {
    "raw": "KSUW 152315Z AUTO 03004KT 10SM OVC025 12/08 A3011 RMK AO2 T01170080",
    "station": "KSUW",
    "observationTime": 1750029300,
    "temperature": 11.7,
    "dewpoint": 8,
    "windDirection": 30,
    "windSpeed": 4,
    "visibility": 10,
    "altimeter": 1019.7,
    "clouds": [
      {
        "type": "OVC",
        "altitude": 2500
      }
    ],
    "weather": [],
    "flightCategory": "MVFR"
  },
  {
    "raw": "KSUT 152315Z AUTO 22015G21KT 10SM SCT009 27/25 A3004 RMK AO2 LTG DSNT W AND NW",
    "station": "KSUT",
    "observationTime": 1750029300,
    "temperature": 27,
    "dewpoint": 25,
    "windDirection": 220,
    "windSpeed": 15,
    "windGust": 21,
    "visibility": 10,
    "altimeter": 1017.4,
    "clouds": [
      {
        "type": "SCT",
        "altitude": 900
      }
    ],
    "weather": [],
    "flightCategory": "VFR"
  },
  {
    "raw": "KSUO 152315Z AUTO 17017G25KT 10SM SCT070 SCT085 32/19 A2989 RMK AO2",
    "station": "KSUO",
    "observationTime": 1750029300,
    "temperature": 32,
    "dewpoint": 19,
    "windDirection": 170,
    "windSpeed": 17,
    "windGust": 25,
    "visibility": 10,
    "altimeter": 1012.3,
    "clouds": [
      {
        "type": "SCT",
        "altitude": 7000
      },
      {
        "type": "SCT",
        "altitude": 8500
      }
    ],
    "weather": [],
    "flightCategory": "VFR"
  },
  {
    "raw": "KSTK 152315Z AUTO 12010G16KT 10SM VCTS CLR 30/15 A2995 RMK AO2 LTG DSNT S AND SW",
    "station": "KSTK",
    "observationTime": 1750029300,
    "temperature": 30,
    "dewpoint": 15,
    "windDirection": 120,
    "windSpeed": 10,
    "windGust": 16,
    "visibility": 10,
    "altimeter": 1014.3,
    "clouds": [
      {
        "type": "CLR"
      }
    ],
    "weather": [
      "VCTS"
    ],
    "flightCategory": "VFR"
  },
  {
    "raw": "KSTF 152315Z AUTO 18008G13KT 10SM CLR 26/26 A3001 RMK AO2",
    "station": "KSTF",
    "observationTime": 1750029300,
    "temperature": 26,
    "dewpoint": 26,
    "windDirection": 180,
    "windSpeed": 8,
    "windGust": 13,
    "visibility": 10,
    "altimeter": 1016.3,
    "clouds": [
      {
        "type": "CLR"
      }
    ],
    "weather": [],
    "flightCategory": "VFR"
  },
  {
    "raw": "KSTE 152315Z AUTO 10006KT 10SM SCT025 SCT055 22/16 A3011 RMK AO2 T02220161",
    "station": "KSTE",
    "observationTime": 1750029300,
    "temperature": 22.2,
    "dewpoint": 16.1,
    "windDirection": 100,
    "windSpeed": 6,
    "visibility": 10,
    "altimeter": 1019.7,
    "clouds": [
      {
        "type": "SCT",
        "altitude": 2500
      },
      {
        "type": "SCT",
        "altitude": 5500
      }
    ],
    "weather": [],
    "flightCategory": "VFR"
  },
  {
    "raw": "KSSI 152315Z AUTO 29008KT 10SM VCTS FEW065 28/25 A3011 RMK AO2 LTG DSNT NE AND SW",
    "station": "KSSI",
    "observationTime": 1750029300,
    "temperature": 28,
    "dewpoint": 25,
    "windDirection": 290,
    "windSpeed": 8,
    "visibility": 10,
    "altimeter": 1019.7,
    "clouds": [
      {
        "type": "FEW",
        "altitude": 6500
      }
    ],
    "weather": [
      "VCTS"
    ],
    "flightCategory": "VFR"
  },
  {
    "raw": "KSRR 152315Z AUTO 09003KT 10SM CLR 29/00 A3027 RMK AO2",
    "station": "KSRR",
    "observationTime": 1750029300,
    "temperature": 29,
    "windDirection": 90,
    "windSpeed": 3,
    "visibility": 10,
    "altimeter": 1025.1,
    "clouds": [
      {
        "type": "CLR"
      }
    ],
    "weather": [],
    "flightCategory": "VFR"
  },
  {
    "raw": "KSRB 152315Z AUTO VRB03KT 10SM CLR 28/24 A3002 RMK A01",
    "station": "KSRB",
    "observationTime": 1750029300,
    "temperature": 28,
    "dewpoint": 24,
    "windSpeed": 3,
    "visibility": 10,
    "altimeter": 1016.7,
    "clouds": [
      {
        "type": "CLR"
      }
    ],
    "weather": [],
    "flightCategory": "VFR"
  },
  {
    "raw": "KSPK 152315Z AUTO 24009KT 10SM CLR 35/M01 A2997 RMK AO2",
    "station": "KSPK",
    "observationTime": 1750029300,
    "temperature": 35,
    "dewpoint": -1,
    "windDirection": 240,
    "windSpeed": 9,
    "visibility": 10,
    "altimeter": 1015,
    "clouds": [
      {
        "type": "CLR"
      }
    ],
    "weather": [],
    "flightCategory": "VFR"
  },
  {
    "raw": "KSPF 152315Z AUTO 09016KT 10SM CLR 29/18 A2998 RMK AO2",
    "station": "KSPF",
    "observationTime": 1750029300,
    "temperature": 29,
    "dewpoint": 18,
    "windDirection": 90,
    "windSpeed": 16,
    "visibility": 10,
    "altimeter": 1015.3,
    "clouds": [
      {
        "type": "CLR"
      }
    ],
    "weather": [],
    "flightCategory": "VFR"
  },
  {
    "raw": "KSPA 152315Z AUTO 22007KT 10SM CLR 28/21 A3002 RMK AO2 LTG DSNT NE AND NW",
    "station": "KSPA",
    "observationTime": 1750029300,
    "temperature": 28,
    "dewpoint": 21,
    "windDirection": 220,
    "windSpeed": 7,
    "visibility": 10,
    "altimeter": 1016.7,
    "clouds": [
      {
        "type": "CLR"
      }
    ],
    "weather": [],
    "flightCategory": "VFR"
  },
  {
    "raw": "KSOW 152315Z AUTO 26008G19KT 10SM CLR 34/M07 A3021 RMK AO2",
    "station": "KSOW",
    "observationTime": 1750029300,
    "temperature": 34,
    "dewpoint": -7,
    "windDirection": 260,
    "windSpeed": 8,
    "windGust": 19,
    "visibility": 10,
    "altimeter": 1023.1,
    "clouds": [
      {
        "type": "CLR"
      }
    ],
    "weather": [],
    "flightCategory": "VFR"
  },
  {
    "raw": "KSOA 152315Z AUTO 13009KT 10SM CLR 29/20 A3000 RMK AO2",
    "station": "KSOA",
    "observationTime": 1750029300,
    "temperature": 29,
    "dewpoint": 20,
    "windDirection": 130,
    "windSpeed": 9,
    "visibility": 10,
    "altimeter": 1016,
    "clouds": [
      {
        "type": "CLR"
      }
    ],
    "weather": [],
    "flightCategory": "VFR"
  },
  {
    "raw": "KSNK 152315Z AUTO 19014KT 10SM CLR 31/15 A2995 RMK AO2 T03130149",
    "station": "KSNK",
    "observationTime": 1750029300,
    "temperature": 31.3,
    "dewpoint": 14.9,
    "windDirection": 190,
    "windSpeed": 14,
    "visibility": 10,
    "altimeter": 1014.3,
    "clouds": [
      {
        "type": "CLR"
      }
    ],
    "weather": [],
    "flightCategory": "VFR"
  },
  {
    "raw": "KSNC 152315Z AUTO 00000KT 10SM OVC036 18/13 A3017 RMK AO2",
    "station": "KSNC",
    "observationTime": 1750029300,
    "temperature": 18,
    "dewpoint": 13,
    "visibility": 10,
    "altimeter": 1021.8,
    "clouds": [
      {
        "type": "OVC",
        "altitude": 3600
      }
    ],
    "weather": [],
    "flightCategory": "VFR"
  },
  {
    "raw": "KSME 152315Z AUTO 24010KT 10SM FEW032 25/24 A3000 RMK AO2 LTG DSNT SE AND S",
    "station": "KSME",
    "observationTime": 1750029300,
    "temperature": 25,
    "dewpoint": 24,
    "windDirection": 240,
    "windSpeed": 10,
    "visibility": 10,
    "altimeter": 1016,
    "clouds": [
      {
        "type": "FEW",
        "altitude": 3200
      }
    ],
    "weather": [],
    "flightCategory": "VFR"
  },
  {
    "raw": "KSMD 152315Z AUTO 05004KT 10SM CLR 27/16 A3006 RMK A01",
    "station": "KSMD",
    "observationTime": 1750029300,
    "temperature": 27,
    "dewpoint": 16,
    "windDirection": 50,
    "windSpeed": 4,
    "visibility": 10,
    "altimeter": 1018,
    "clouds": [
      {
        "type": "CLR"
      }
    ],
    "weather": [],
    "flightCategory": "VFR"
  },
  {
    "raw": "KSLR 152315Z AUTO 14007KT 10SM CLR 27/23 A2997 RMK AO2 LTG DSNT NE AND E T02670232 PWINO",
    "station": "KSLR",
    "observationTime": 1750029300,
    "temperature": 26.7,
    "dewpoint": 23.2,
    "windDirection": 140,
    "windSpeed": 7,
    "visibility": 10,
    "altimeter": 1015,
    "clouds": [
      {
        "type": "CLR"
      }
    ],
    "weather": [],
    "flightCategory": "VFR"
  },
  {
    "raw": "KSLO 152315Z AUTO 06003KT 10SM CLR 26/19 A3001 RMK AO2 LTG DSNT SE T02550192",
    "station": "KSLO",
    "observationTime": 1750029300,
    "temperature": 25.5,
    "dewpoint": 19.2,
    "windDirection": 60,
    "windSpeed": 3,
    "visibility": 10,
    "altimeter": 1016.3,
    "clouds": [
      {
        "type": "CLR"
      }
    ],
    "weather": [],
    "flightCategory": "VFR"
  },
  {
    "raw": "KSLH 152315Z AUTO 07005KT 10SM CLR 20/09 A3012 RMK AO2",
    "station": "KSLH",
    "observationTime": 1750029300,
    "temperature": 20,
    "dewpoint": 9,
    "windDirection": 70,
    "windSpeed": 5,
    "visibility": 10,
    "altimeter": 1020.1,
    "clouds": [
      {
        "type": "CLR"
      }
    ],
    "weather": [],
    "flightCategory": "VFR"
  },
  {
    "raw": "KSLB 152315Z AUTO 12006KT 10SM CLR 27/21 A3002 RMK AO2",
    "station": "KSLB",
    "observationTime": 1750029300,
    "temperature": 27,
    "dewpoint": 21,
    "windDirection": 120,
    "windSpeed": 6,
    "visibility": 10,
    "altimeter": 1016.7,
    "clouds": [
      {
        "type": "CLR"
      }
    ],
    "weather": [],
    "flightCategory": "VFR"
  },
  {
    "raw": "KSJX 152315Z AUTO 03004KT 10SM CLR 21/10 A3012 RMK AO2",
    "station": "KSJX",
    "observationTime": 1750029300,
    "temperature": 21,
    "dewpoint": 10,
    "windDirection": 30,
    "windSpeed": 4,
    "visibility": 10,
    "altimeter": 1020.1,
    "clouds": [
      {
        "type": "CLR"
      }
    ],
    "weather": [],
    "flightCategory": "VFR"
  },
  {
    "raw": "KSJS 152315Z AUTO 28004KT 10SM SCT019 SCT026 BKN080 26/22 A3002 RMK AO2 T02570219",
    "station": "KSJS",
    "observationTime": 1750029300,
    "temperature": 25.7,
    "dewpoint": 21.9,
    "windDirection": 280,
    "windSpeed": 4,
    "visibility": 10,
    "altimeter": 1016.7,
    "clouds": [
      {
        "type": "SCT",
        "altitude": 1900
      },
      {
        "type": "SCT",
        "altitude": 2600
      },
      {
        "type": "BKN",
        "altitude": 8000
      }
    ],
    "weather": [],
    "flightCategory": "VFR"
  },
  {
    "raw": "KSIK 152315Z AUTO 02004KT CLR 30/22 A2996 RMK AO2 T02980225 PWINO $",
    "station": "KSIK",
    "observationTime": 1750029300,
    "temperature": 29.8,
    "dewpoint": 22.5,
    "windDirection": 20,
    "windSpeed": 4,
    "altimeter": 1014.6,
    "clouds": [
      {
        "type": "CLR"
      }
    ],
    "weather": [],
    "flightCategory": "VFR"
  },
  {
    "raw": "KSIF 152315Z AUTO 24005KT 10SM SCT110 28/22 A3000 RMK AO2 T02790223",
    "station": "KSIF",
    "observationTime": 1750029300,
    "temperature": 27.9,
    "dewpoint": 22.3,
    "windDirection": 240,
    "windSpeed": 5,
    "visibility": 10,
    "altimeter": 1016,
    "clouds": [
      {
        "type": "SCT",
        "altitude": 11000
      }
    ],
    "weather": [],
    "flightCategory": "VFR"
  },
  {
    "raw": "KSHL 152315Z AUTO 11008KT 8SM CLR 25/19 A2998 RMK AO2",
    "station": "KSHL",
    "observationTime": 1750029300,
    "temperature": 25,
    "dewpoint": 19,
    "windDirection": 110,
    "windSpeed": 8,
    "visibility": 8,
    "altimeter": 1015.3,
    "clouds": [
      {
        "type": "CLR"
      }
    ],
    "weather": [],
    "flightCategory": "VFR"
  },
  {
    "raw": "KSHD 152315Z AUTO 08004KT 10SM BKN012 OVC019 22/21 A3007 RMK AO2 LTG DSNT SE T02200205",
    "station": "KSHD",
    "observationTime": 1750029300,
    "temperature": 22,
    "dewpoint": 20.5,
    "windDirection": 80,
    "windSpeed": 4,
    "visibility": 10,
    "altimeter": 1018.4,
    "clouds": [
      {
        "type": "BKN",
        "altitude": 1200
      },
      {
        "type": "OVC",
        "altitude": 1900
      }
    ],
    "weather": [],
    "flightCategory": "MVFR"
  },
  {
    "raw": "KSGS 152315Z AUTO 19005KT 10SM BKN023 OVC049 23/17 A3005 RMK AO2 T02270172",
    "station": "KSGS",
    "observationTime": 1750029300,
    "temperature": 22.7,
    "dewpoint": 17.2,
    "windDirection": 190,
    "windSpeed": 5,
    "visibility": 10,
    "altimeter": 1017.7,
    "clouds": [
      {
        "type": "BKN",
        "altitude": 2300
      },
      {
        "type": "OVC",
        "altitude": 4900
      }
    ],
    "weather": [],
    "flightCategory": "MVFR"
  },
  {
    "raw": "KSFQ 152315Z AUTO 09004KT 10SM SCT120 23/22 A3003 RMK AO2 LTG DSNT SE THRU NW T02270220 PWINO",
    "station": "KSFQ",
    "observationTime": 1750029300,
    "temperature": 22.7,
    "dewpoint": 22,
    "windDirection": 90,
    "windSpeed": 4,
    "visibility": 10,
    "altimeter": 1017,
    "clouds": [
      {
        "type": "SCT",
        "altitude": 12000
      }
    ],
    "weather": [],
    "flightCategory": "VFR"
  },
  {
    "raw": "KSEZ 152315Z AUTO VRB04G16KT 10SM CLR 37/M12 A3007 RMK AO2",
    "station": "KSEZ",
    "observationTime": 1750029300,
    "temperature": 37,
    "dewpoint": -12,
    "windSpeed": 4,
    "windGust": 16,
    "visibility": 10,
    "altimeter": 1018.4,
    "clouds": [
      {
        "type": "CLR"
      }
    ],
    "weather": [],
    "flightCategory": "VFR"
  },
  {
    "raw": "KSEP 152315Z AUTO 10003KT 10SM CLR 29/21 A2998 RMK AO2 T02910207",
    "station": "KSEP",
    "observationTime": 1750029300,
    "temperature": 29.1,
    "dewpoint": 20.7,
    "windDirection": 100,
    "windSpeed": 3,
    "visibility": 10,
    "altimeter": 1015.3,
    "clouds": [
      {
        "type": "CLR"
      }
    ],
    "weather": [],
    "flightCategory": "VFR"
  },
  {
    "raw": "KSEM 152315Z AUTO 30022KT 10SM SCT045 BKN060 BKN075 28/24 A3004 RMK AO2 LTG DSNT S",
    "station": "KSEM",
    "observationTime": 1750029300,
    "temperature": 28,
    "dewpoint": 24,
    "windDirection": 300,
    "windSpeed": 22,
    "visibility": 10,
    "altimeter": 1017.4,
    "clouds": [
      {
        "type": "SCT",
        "altitude": 4500
      },
      {
        "type": "BKN",
        "altitude": 6000
      },
      {
        "type": "BKN",
        "altitude": 7500
      }
    ],
    "weather": [],
    "flightCategory": "VFR"
  },
  {
    "raw": "KSEF 152315Z AUTO 18006KT 10SM TS BKN060 32/21 A3009 RMK AO2 LTG DSNT SW THRU NW T03160215",
    "station": "KSEF",
    "observationTime": 1750029300,
    "temperature": 31.6,
    "dewpoint": 21.5,
    "windDirection": 180,
    "windSpeed": 6,
    "visibility": 10,
    "altimeter": 1019,
    "clouds": [
      {
        "type": "BKN",
        "altitude": 6000
      }
    ],
    "weather": [
      "TS"
    ],
    "flightCategory": "VFR"
  },
  {
    "raw": "KSDA 152315Z AUTO 18006KT 10SM FEW050 FEW060 30/21 A2995 RMK AO2",
    "station": "KSDA",
    "observationTime": 1750029300,
    "temperature": 30,
    "dewpoint": 21,
    "windDirection": 180,
    "windSpeed": 6,
    "visibility": 10,
    "altimeter": 1014.3,
    "clouds": [
      {
        "type": "FEW",
        "altitude": 5000
      },
      {
        "type": "FEW",
        "altitude": 6000
      }
    ],
    "weather": [],
    "flightCategory": "VFR"
  },
  {
    "raw": "KSCX 152315Z AUTO 00000KT 2 1/2SM BR SCT007 BKN032 OVC060 22/21 A3006 RMK A01 VIS 1V5",
    "station": "KSCX",
    "observationTime": 1750029300,
    "temperature": 22,
    "dewpoint": 21,
    "visibility": 2.5,
    "altimeter": 1018,
    "clouds": [
      {
        "type": "SCT",
        "altitude": 700
      },
      {
        "type": "BKN",
        "altitude": 3200
      },
      {
        "type": "OVC",
        "altitude": 6000
      }
    ],
    "weather": [
      "BR"
    ],
    "flightCategory": "IFR"
  },
  {
    "raw": "KSCR 152315Z AUTO 23003KT 10SM SCT075 27/22 A3001 RMK AO2 T02740223",
    "station": "KSCR",
    "observationTime": 1750029300,
    "temperature": 27.4,
    "dewpoint": 22.3,
    "windDirection": 230,
    "windSpeed": 3,
    "visibility": 10,
    "altimeter": 1016.3,
    "clouds": [
      {
        "type": "SCT",
        "altitude": 7500
      }
    ],
    "weather": [],
    "flightCategory": "VFR"
  },
  {
    "raw": "KSCD 152315Z AUTO 25006KT 10SM SCT060 OVC100 27/22 A3005 RMK AO2 LTG DSNT N T02660215",
    "station": "KSCD",
    "observationTime": 1750029300,
    "temperature": 26.6,
    "dewpoint": 21.5,
    "windDirection": 250,
    "windSpeed": 6,
    "visibility": 10,
    "altimeter": 1017.7,
    "clouds": [
      {
        "type": "SCT",
        "altitude": 6000
      },
      {
        "type": "OVC",
        "altitude": 10000
      }
    ],
    "weather": [],
    "flightCategory": "VFR"
  },
  {
    "raw": "KSBX 152315Z AUTO 30017G25KT 10SM CLR 27/02 A3003 RMK AO2",
    "station": "KSBX",
    "observationTime": 1750029300,
    "temperature": 27,
    "dewpoint": 2,
    "windDirection": 300,
    "windSpeed": 17,
    "windGust": 25,
    "visibility": 10,
    "altimeter": 1017,
    "clouds": [
      {
        "type": "CLR"
      }
    ],
    "weather": [],
    "flightCategory": "VFR"
  },
  {
    "raw": "KSBS 152315Z AUTO 28011G15KT 10SM CLR 28/00 A3017 RMK AO1 T02761002",
    "station": "KSBS",
    "observationTime": 1750029300,
    "temperature": 27.6,
    "dewpoint": -0.2,
    "windDirection": 280,
    "windSpeed": 11,
    "windGust": 15,
    "visibility": 10,
    "altimeter": 1021.8,
    "clouds": [
      {
        "type": "CLR"
      }
    ],
    "weather": [],
    "flightCategory": "VFR"
  },
  {
    "raw": "KSBO 152315Z AUTO 20005KT 10SM CLR 26/22 A3011 RMK AO2",
    "station": "KSBO",
    "observationTime": 1750029300,
    "temperature": 26,
    "dewpoint": 22,
    "windDirection": 200,
    "windSpeed": 5,
    "visibility": 10,
    "altimeter": 1019.7,
    "clouds": [
      {
        "type": "CLR"
      }
    ],
    "weather": [],
    "flightCategory": "VFR"
  },
  {
    "raw": "KSAZ 152315Z AUTO 12004KT 10SM CLR 19/15 A3004 RMK AO2",
    "station": "KSAZ",
    "observationTime": 1750029300,
    "temperature": 19,
    "dewpoint": 15,
    "windDirection": 120,
    "windSpeed": 4,
    "visibility": 10,
    "altimeter": 1017.4,
    "clouds": [
      {
        "type": "CLR"
      }
    ],
    "weather": [],
    "flightCategory": "VFR"
  },
  {
    "raw": "KSAR 152315Z AUTO 06007KT 10SM CLR 28/20 A3000 RMK AO2 LTG DSNT E T02780202",
    "station": "KSAR",
    "observationTime": 1750029300,
    "temperature": 27.8,
    "dewpoint": 20.2,
    "windDirection": 60,
    "windSpeed": 7,
    "visibility": 10,
    "altimeter": 1016,
    "clouds": [
      {
        "type": "CLR"
      }
    ],
    "weather": [],
    "flightCategory": "VFR"
  },
  {
    "raw": "KSAA 152315Z AUTO 25013G20KT 10SM CLR 31/M10 A3017 RMK AO2",
    "station": "KSAA",
    "observationTime": 1750029300,
    "temperature": 31,
    "dewpoint": -10,
    "windDirection": 250,
    "windSpeed": 13,
    "windGust": 20,
    "visibility": 10,
    "altimeter": 1021.8,
    "clouds": [
      {
        "type": "CLR"
      }
    ],
    "weather": [],
    "flightCategory": "VFR"
  },
  {
    "raw": "KS52 152315Z AUTO 16007G14KT 10SM SCT100 SCT120 28/01 A2998 RMK AO2 T02830006",
    "station": "KS52",
    "observationTime": 1750029300,
    "temperature": 28.3,
    "dewpoint": 0.6,
    "windDirection": 160,
    "windSpeed": 7,
    "windGust": 14,
    "visibility": 10,
    "altimeter": 1015.3,
    "clouds": [
      {
        "type": "SCT",
        "altitude": 10000
      },
      {
        "type": "SCT",
        "altitude": 12000
      }
    ],
    "weather": [],
    "flightCategory": "VFR"
  },
  {
    "raw": "KS39 152315Z AUTO 02007G12KT 10SM CLR 27/M12 A3004 RMK AO2",
    "station": "KS39",
    "observationTime": 1750029300,
    "temperature": 27,
    "dewpoint": -12,
    "windDirection": 20,
    "windSpeed": 7,
    "windGust": 12,
    "visibility": 10,
    "altimeter": 1017.4,
    "clouds": [
      {
        "type": "CLR"
      }
    ],
    "weather": [],
    "flightCategory": "VFR"
  },
  {
    "raw": "KS34 152315Z AUTO VRB04G10KT 10SM CLR 28/02 A2999 RMK AO2",
    "station": "KS34",
    "observationTime": 1750029300,
    "temperature": 28,
    "dewpoint": 2,
    "windSpeed": 4,
    "windGust": 10,
    "visibility": 10,
    "altimeter": 1015.7,
    "clouds": [
      {
        "type": "CLR"
      }
    ],
    "weather": [],
    "flightCategory": "VFR"
  },
  {
    "raw": "KS33 152315Z AUTO 34004KT 10SM CLR 27/M13 A3004 RMK AO2",
    "station": "KS33",
    "observationTime": 1750029300,
    "temperature": 27,
    "dewpoint": -13,
    "windDirection": 340,
    "windSpeed": 4,
    "visibility": 10,
    "altimeter": 1017.4,
    "clouds": [
      {
        "type": "CLR"
      }
    ],
    "weather": [],
    "flightCategory": "VFR"
  },
  {
    "raw": "KS25 152315Z AUTO 25003KT 10SM 28/13 A2995 RMK AO2",
    "station": "KS25",
    "observationTime": 1750029300,
    "temperature": 28,
    "dewpoint": 13,
    "windDirection": 250,
    "windSpeed": 3,
    "visibility": 10,
    "altimeter": 1014.3,
    "clouds": [],
    "weather": [],
    "flightCategory": "VFR"
  },
  {
    "raw": "KS24 152315Z AUTO 04010KT 10SM CLR 22/18 A3007 RMK AO2",
    "station": "KS24",
    "observationTime": 1750029300,
    "temperature": 22,
    "dewpoint": 18,
    "windDirection": 40,
    "windSpeed": 10,
    "visibility": 10,
    "altimeter": 1018.4,
    "clouds": [
      {
        "type": "CLR"
      }
    ],
    "weather": [],
    "flightCategory": "VFR"
  },
  {
    "raw": "KS12 152315Z AUTO 33005G12KT 10SM CLR 24/04 A3003 RMK AO2",
    "station": "KS12",
    "observationTime": 1750029300,
    "temperature": 24,
    "dewpoint": 4,
    "windDirection": 330,
    "windSpeed": 5,
    "windGust": 12,
    "visibility": 10,
    "altimeter": 1017,
    "clouds": [
      {
        "type": "CLR"
      }
    ],
    "weather": [],
    "flightCategory": "VFR"
  },
  {
    "raw": "KRZT 152315Z AUTO 03007KT 10SM SCT032 BKN043 OVC100 26/20 A3001 RMK AO2 PWINO",
    "station": "KRZT",
    "observationTime": 1750029300,
    "temperature": 26,
    "dewpoint": 20,
    "windDirection": 30,
    "windSpeed": 7,
    "visibility": 10,
    "altimeter": 1016.3,
    "clouds": [
      {
        "type": "SCT",
        "altitude": 3200
      },
      {
        "type": "BKN",
        "altitude": 4300
      },
      {
        "type": "OVC",
        "altitude": 10000
      }
    ],
    "weather": [],
    "flightCategory": "VFR"
  },
  {
    "raw": "KRZR 152315Z AUTO 20008G13KT 10SM FEW110 27/25 A3002 RMK A01",
    "station": "KRZR",
    "observationTime": 1750029300,
    "temperature": 27,
    "dewpoint": 25,
    "windDirection": 200,
    "windSpeed": 8,
    "windGust": 13,
    "visibility": 10,
    "altimeter": 1016.7,
    "clouds": [
      {
        "type": "FEW",
        "altitude": 11000
      }
    ],
    "weather": [],
    "flightCategory": "VFR"
  },
  {
    "raw": "KRZN 152315Z AUTO 00000KT 10SM BKN022 20/15 A3008 RMK AO2 T02000145",
    "station": "KRZN",
    "observationTime": 1750029300,
    "temperature": 20,
    "dewpoint": 14.5,
    "visibility": 10,
    "altimeter": 1018.7,
    "clouds": [
      {
        "type": "BKN",
        "altitude": 2200
      }
    ],
    "weather": [],
    "flightCategory": "MVFR"
  },
  {
    "raw": "KRZL 152315Z AUTO 09006KT 10SM CLR 26/14 A3004 RMK AO2",
    "station": "KRZL",
    "observationTime": 1750029300,
    "temperature": 26,
    "dewpoint": 14,
    "windDirection": 90,
    "windSpeed": 6,
    "visibility": 10,
    "altimeter": 1017.4,
    "clouds": [
      {
        "type": "CLR"
      }
    ],
    "weather": [],
    "flightCategory": "VFR"
  },
  {
    "raw": "KRYW 152315Z AUTO 15007G17KT 10SM SCT008 20/20 A3000 RMK AO2 LTG DSNT E THRU SW T02000200",
    "station": "KRYW",
    "observationTime": 1750029300,
    "temperature": 20,
    "dewpoint": 20,
    "windDirection": 150,
    "windSpeed": 7,
    "windGust": 17,
    "visibility": 10,
    "altimeter": 1016,
    "clouds": [
      {
        "type": "SCT",
        "altitude": 800
      }
    ],
    "weather": [],
    "flightCategory": "VFR"
  },
  {
    "raw": "KRYV 152315Z AUTO 09007KT 10SM BKN045 25/16 A3007 RMK AO2 T02510162",
    "station": "KRYV",
    "observationTime": 1750029300,
    "temperature": 25.1,
    "dewpoint": 16.2,
    "windDirection": 90,
    "windSpeed": 7,
    "visibility": 10,
    "altimeter": 1018.4,
    "clouds": [
      {
        "type": "BKN",
        "altitude": 4500
      }
    ],
    "weather": [],
    "flightCategory": "VFR"
  },
  {
    "raw": "KRVL 152315Z AUTO 08003KT 8SM OVC008 17/16 A3011 RMK AO2",
    "station": "KRVL",
    "observationTime": 1750029300,
    "temperature": 17,
    "dewpoint": 16,
    "windDirection": 80,
    "windSpeed": 3,
    "visibility": 8,
    "altimeter": 1019.7,
    "clouds": [
      {
        "type": "OVC",
        "altitude": 800
      }
    ],
    "weather": [],
    "flightCategory": "IFR"
  },
  {
    "raw": "KRVJ 152315Z AUTO 17006KT 10SM SCT036 SCT042 BKN070 26/22 A3010 RMK AO2 LTG DSNT E AND SE T02590222",
    "station": "KRVJ",
    "observationTime": 1750029300,
    "temperature": 25.9,
    "dewpoint": 22.2,
    "windDirection": 170,
    "windSpeed": 6,
    "visibility": 10,
    "altimeter": 1019.4,
    "clouds": [
      {
        "type": "SCT",
        "altitude": 3600
      },
      {
        "type": "SCT",
        "altitude": 4200
      },
      {
        "type": "BKN",
        "altitude": 7000
      }
    ],
    "weather": [],
    "flightCategory": "VFR"
  },
  {
    "raw": "KRVF 152315Z AUTO VRB05KT 10SM CLR 27/03 A2999 RMK AO2",
    "station": "KRVF",
    "observationTime": 1750029300,
    "temperature": 27,
    "dewpoint": 3,
    "windSpeed": 5,
    "visibility": 10,
    "altimeter": 1015.7,
    "clouds": [
      {
        "type": "CLR"
      }
    ],
    "weather": [],
    "flightCategory": "VFR"
  },
  {
    "raw": "KRUQ 152315Z AUTO 24004KT 10SM 28/22 A3002 RMK AO2 T02810217",
    "station": "KRUQ",
    "observationTime": 1750029300,
    "temperature": 28.1,
    "dewpoint": 21.7,
    "windDirection": 240,
    "windSpeed": 4,
    "visibility": 10,
    "altimeter": 1016.7,
    "clouds": [],
    "weather": [],
    "flightCategory": "VFR"
  },
  {
    "raw": "KRUG 152315Z AUTO VRB03KT 10SM CLR 23/17 A2996 RMK AO2",
    "station": "KRUG",
    "observationTime": 1750029300,
    "temperature": 23,
    "dewpoint": 17,
    "windSpeed": 3,
    "visibility": 10,
    "altimeter": 1014.6,
    "clouds": [
      {
        "type": "CLR"
      }
    ],
    "weather": [],
    "flightCategory": "VFR"
  },
  {
    "raw": "KRTS 152315Z AUTO 27016G22KT 10SM CLR 28/M09 A3012 RMK AO2",
    "station": "KRTS",
    "observationTime": 1750029300,
    "temperature": 28,
    "dewpoint": -9,
    "windDirection": 270,
    "windSpeed": 16,
    "windGust": 22,
    "visibility": 10,
    "altimeter": 1020.1,
    "clouds": [
      {
        "type": "CLR"
      }
    ],
    "weather": [],
    "flightCategory": "VFR"
  },
  {
    "raw": "KRSN 152315Z AUTO 20007KT 7SM -RA CLR 23/23 A3001 RMK AO2 LTG DSNT NW AND N P0002 T02270227 $",
    "station": "KRSN",
    "observationTime": 1750029300,
    "temperature": 22.7,
    "dewpoint": 22.7,
    "windDirection": 200,
    "windSpeed": 7,
    "visibility": 7,
    "altimeter": 1016.3,
    "clouds": [
      {
        "type": "CLR"
      }
    ],
    "weather": [
      "-RA"
    ],
    "flightCategory": "VFR"
  },
  {
    "raw": "KRRT 152315Z AUTO 06006KT 10SM CLR 21/12 A3000 RMK AO2",
    "station": "KRRT",
    "observationTime": 1750029300,
    "temperature": 21,
    "dewpoint": 12,
    "windDirection": 60,
    "windSpeed": 6,
    "visibility": 10,
    "altimeter": 1016,
    "clouds": [
      {
        "type": "CLR"
      }
    ],
    "weather": [],
    "flightCategory": "VFR"
  },
  {
    "raw": "KRQO 152315Z AUTO 01007KT 10SM SCT034 28/22 A2995 RMK AO2",
    "station": "KRQO",
    "observationTime": 1750029300,
    "temperature": 28,
    "dewpoint": 22,
    "windDirection": 10,
    "windSpeed": 7,
    "visibility": 10,
    "altimeter": 1014.3,
    "clouds": [
      {
        "type": "SCT",
        "altitude": 3400
      }
    ],
    "weather": [],
    "flightCategory": "VFR"
  },
  {
    "raw": "KRQB 152315Z AUTO 07005KT 10SM SCT046 25/13 A3010 RMK AO2 T02450133",
    "station": "KRQB",
    "observationTime": 1750029300,
    "temperature": 24.5,
    "dewpoint": 13.3,
    "windDirection": 70,
    "windSpeed": 5,
    "visibility": 10,
    "altimeter": 1019.4,
    "clouds": [
      {
        "type": "SCT",
        "altitude": 4600
      }
    ],
    "weather": [],
    "flightCategory": "VFR"
  },
  {
    "raw": "KRPJ 152315Z AUTO 09004KT 10SM CLR 28/14 A3004 RMK AO2 T02750141",
    "station": "KRPJ",
    "observationTime": 1750029300,
    "temperature": 27.5,
    "dewpoint": 14.1,
    "windDirection": 90,
    "windSpeed": 4,
    "visibility": 10,
    "altimeter": 1017.4,
    "clouds": [
      {
        "type": "CLR"
      }
    ],
    "weather": [],
    "flightCategory": "VFR"
  },
  {
    "raw": "KRPH 152315Z AUTO 01008KT 10SM CLR 30/21 A2992 RMK AO2 T02950210 $",
    "station": "KRPH",
    "observationTime": 1750029300,
    "temperature": 29.5,
    "dewpoint": 21,
    "windDirection": 10,
    "windSpeed": 8,
    "visibility": 10,
    "altimeter": 1013.3,
    "clouds": [
      {
        "type": "CLR"
      }
    ],
    "weather": [],
    "flightCategory": "VFR"
  },
  {
    "raw": "KRPD 152315Z AUTO 13005KT 7SM OVC017 19/15 A3010 RMK AO2 T01900146",
    "station": "KRPD",
    "observationTime": 1750029300,
    "temperature": 19,
    "dewpoint": 14.6,
    "windDirection": 130,
    "windSpeed": 5,
    "visibility": 7,
    "altimeter": 1019.4,
    "clouds": [
      {
        "type": "OVC",
        "altitude": 1700
      }
    ],
    "weather": [],
    "flightCategory": "MVFR"
  },
  {
    "raw": "KROX 152315Z AUTO 20008KT 10SM CLR 24/07 A2999 RMK AO2",
    "station": "KROX",
    "observationTime": 1750029300,
    "temperature": 24,
    "dewpoint": 7,
    "windDirection": 200,
    "windSpeed": 8,
    "visibility": 10,
    "altimeter": 1015.7,
    "clouds": [
      {
        "type": "CLR"
      }
    ],
    "weather": [],
    "flightCategory": "VFR"
  },
  {
    "raw": "KROS 152315Z AUTO 02003KT 10SM OVC023 20/16 A3007 RMK AO2",
    "station": "KROS",
    "observationTime": 1750029300,
    "temperature": 20,
    "dewpoint": 16,
    "windDirection": 20,
    "windSpeed": 3,
    "visibility": 10,
    "altimeter": 1018.4,
    "clouds": [
      {
        "type": "OVC",
        "altitude": 2300
      }
    ],
    "weather": [],
    "flightCategory": "MVFR"
  },
  {
    "raw": "KRNV 152315Z AUTO 17009KT 10SM CLR 29/27 A2997 RMK AO2 LTG DSNT SW AND W T02870266 $",
    "station": "KRNV",
    "observationTime": 1750029300,
    "temperature": 28.7,
    "dewpoint": 26.6,
    "windDirection": 170,
    "windSpeed": 9,
    "visibility": 10,
    "altimeter": 1015,
    "clouds": [
      {
        "type": "CLR"
      }
    ],
    "weather": [],
    "flightCategory": "VFR"
  },
  {
    "raw": "KRNP 152315Z AUTO 02007KT 10SM CLR 25/12 A3010 RMK AO2 T02500116",
    "station": "KRNP",
    "observationTime": 1750029300,
    "temperature": 25,
    "dewpoint": 11.6,
    "windDirection": 20,
    "windSpeed": 7,
    "visibility": 10,
    "altimeter": 1019.4,
    "clouds": [
      {
        "type": "CLR"
      }
    ],
    "weather": [],
    "flightCategory": "VFR"
  },
  {
    "raw": "KRND 152315Z AUTO 09008KT 10SM TS -DZ SCT047 22/21 A2999 RMK AO2 RAE12DZB12 PRESFR SLP148",
    "station": "KRND",
    "observationTime": 1750029300,
    "temperature": 22,
    "dewpoint": 21,
    "windDirection": 90,
    "windSpeed": 8,
    "visibility": 10,
    "altimeter": 1015.7,
    "clouds": [
      {
        "type": "SCT",
        "altitude": 4700
      }
    ],
    "weather": [
      "TS -DZ"
    ],
    "flightCategory": "VFR"
  },
  {
    "raw": "KRNC 152315Z AUTO 24006KT 10SM FEW037 27/22 A3002 RMK A01",
    "station": "KRNC",
    "observationTime": 1750029300,
    "temperature": 27,
    "dewpoint": 22,
    "windDirection": 240,
    "windSpeed": 6,
    "visibility": 10,
    "altimeter": 1016.7,
    "clouds": [
      {
        "type": "FEW",
        "altitude": 3700
      }
    ],
    "weather": [],
    "flightCategory": "VFR"
  },
  {
    "raw": "KRMY 152315Z AUTO 02003KT 10SM CLR 25/14 A3008 RMK AO2 T02480141",
    "station": "KRMY",
    "observationTime": 1750029300,
    "temperature": 24.8,
    "dewpoint": 14.1,
    "windDirection": 20,
    "windSpeed": 3,
    "visibility": 10,
    "altimeter": 1018.7,
    "clouds": [
      {
        "type": "CLR"
      }
    ],
    "weather": [],
    "flightCategory": "VFR"
  },
  {
    "raw": "KRMN 152315Z AUTO 04004KT 4SM -RA BKN006 OVC010 20/19 A3005 RMK AO2 P0003 T02020187 TSNO",
    "station": "KRMN",
    "observationTime": 1750029300,
    "temperature": 20.2,
    "dewpoint": 18.7,
    "windDirection": 40,
    "windSpeed": 4,
    "visibility": 4,
    "altimeter": 1017.7,
    "clouds": [
      {
        "type": "BKN",
        "altitude": 600
      },
      {
        "type": "OVC",
        "altitude": 1000
      }
    ],
    "weather": [
      "-RA"
    ],
    "flightCategory": "IFR"
  },
  {
    "raw": "KRLD 152315Z AUTO 00000KT 10SM CLR 29/05 A2997 RMK AO2 T02930054",
    "station": "KRLD",
    "observationTime": 1750029300,
    "temperature": 29.3,
    "dewpoint": 5.4,
    "visibility": 10,
    "altimeter": 1015,
    "clouds": [
      {
        "type": "CLR"
      }
    ],
    "weather": [],
    "flightCategory": "VFR"
  },
  {
    "raw": "KRKW 152315Z AUTO 00000KT 10SM BKN055 BKN065 28/24 A3005 RMK A01",
    "station": "KRKW",
    "observationTime": 1750029300,
    "temperature": 28,
    "dewpoint": 24,
    "visibility": 10,
    "altimeter": 1017.7,
    "clouds": [
      {
        "type": "BKN",
        "altitude": 5500
      },
      {
        "type": "BKN",
        "altitude": 6500
      }
    ],
    "weather": [],
    "flightCategory": "VFR"
  },
  {
    "raw": "KRKR 152315Z AUTO 00000KT 10SM CLR 28/20 A2992 RMK AO2 LTG DSNT E AND SE",
    "station": "KRKR",
    "observationTime": 1750029300,
    "temperature": 28,
    "dewpoint": 20,
    "visibility": 10,
    "altimeter": 1013.3,
    "clouds": [
      {
        "type": "CLR"
      }
    ],
    "weather": [],
    "flightCategory": "VFR"
  },
  {
    "raw": "KRID 152315Z AUTO 04008KT 10SM SCT021 23/20 A3004 RMK AO2",
    "station": "KRID",
    "observationTime": 1750029300,
    "temperature": 23,
    "dewpoint": 20,
    "windDirection": 40,
    "windSpeed": 8,
    "visibility": 10,
    "altimeter": 1017.4,
    "clouds": [
      {
        "type": "SCT",
        "altitude": 2100
      }
    ],
    "weather": [],
    "flightCategory": "VFR"
  },
  {
    "raw": "KRGK 152315Z AUTO 08005KT 10SM BKN055 23/16 A3003 RMK AO2",
    "station": "KRGK",
    "observationTime": 1750029300,
    "temperature": 23,
    "dewpoint": 16,
    "windDirection": 80,
    "windSpeed": 5,
    "visibility": 10,
    "altimeter": 1017,
    "clouds": [
      {
        "type": "BKN",
        "altitude": 5500
      }
    ],
    "weather": [],
    "flightCategory": "VFR"
  },
  {
    "raw": "KRGA 152315Z AUTO 02003KT 10SM SCT050 SCT110 23/22 A3002 RMK AO2",
    "station": "KRGA",
    "observationTime": 1750029300,
    "temperature": 23,
    "dewpoint": 22,
    "windDirection": 20,
    "windSpeed": 3,
    "visibility": 10,
    "altimeter": 1016.7,
    "clouds": [
      {
        "type": "SCT",
        "altitude": 5000
      },
      {
        "type": "SCT",
        "altitude": 11000
      }
    ],
    "weather": [],
    "flightCategory": "VFR"
  },
  {
    "raw": "KRFI 152315Z AUTO 16006KT 10SM SCT065 SCT085 SCT110 24/22 A2998 RMK AO2 T02360221 PWINO",
    "station": "KRFI",
    "observationTime": 1750029300,
    "temperature": 23.6,
    "dewpoint": 22.1,
    "windDirection": 160,
    "windSpeed": 6,
    "visibility": 10,
    "altimeter": 1015.3,
    "clouds": [
      {
        "type": "SCT",
        "altitude": 6500
      },
      {
        "type": "SCT",
        "altitude": 8500
      },
      {
        "type": "SCT",
        "altitude": 11000
      }
    ],
    "weather": [],
    "flightCategory": "VFR"
  },
  {
    "raw": "KREG 152315Z AUTO 00000KT 10SM CLR 27/25 A3004 RMK AO2 T02690245",
    "station": "KREG",
    "observationTime": 1750029300,
    "temperature": 26.9,
    "dewpoint": 24.5,
    "visibility": 10,
    "altimeter": 1017.4,
    "clouds": [
      {
        "type": "CLR"
      }
    ],
    "weather": [],
    "flightCategory": "VFR"
  },
  {
    "raw": "KRDK 152315Z AUTO 18008KT 10SM CLR 32/19 A2997 RMK AO2",
    "station": "KRDK",
    "observationTime": 1750029300,
    "temperature": 32,
    "dewpoint": 19,
    "windDirection": 180,
    "windSpeed": 8,
    "visibility": 10,
    "altimeter": 1015,
    "clouds": [
      {
        "type": "CLR"
      }
    ],
    "weather": [],
    "flightCategory": "VFR"
  },
  {
    "raw": "KRCZ 152315Z AUTO 25006KT 10SM CLR 30/22 A3002 RMK AO2 T02970215",
    "station": "KRCZ",
    "observationTime": 1750029300,
    "temperature": 29.7,
    "dewpoint": 21.5,
    "windDirection": 250,
    "windSpeed": 6,
    "visibility": 10,
    "altimeter": 1016.7,
    "clouds": [
      {
        "type": "CLR"
      }
    ],
    "weather": [],
    "flightCategory": "VFR"
  },
  {
    "raw": "KRCX 152315Z AUTO 16006KT 10SM OVC017 18/15 A3011 RMK AO2 T01810150",
    "station": "KRCX",
    "observationTime": 1750029300,
    "temperature": 18.1,
    "dewpoint": 15,
    "windDirection": 160,
    "windSpeed": 6,
    "visibility": 10,
    "altimeter": 1019.7,
    "clouds": [
      {
        "type": "OVC",
        "altitude": 1700
      }
    ],
    "weather": [],
    "flightCategory": "MVFR"
  },
  {
    "raw": "KRCV 152315Z AUTO 34022G31KT 10SM CLR 30/M05 A3026 RMK AO2 T02971055",
    "station": "KRCV",
    "observationTime": 1750029300,
    "temperature": 29.7,
    "dewpoint": -5.5,
    "windDirection": 340,
    "windSpeed": 22,
    "windGust": 31,
    "visibility": 10,
    "altimeter": 1024.8,
    "clouds": [
      {
        "type": "CLR"
      }
    ],
    "weather": [],
    "flightCategory": "VFR"
  },
  {
    "raw": "KRCR 152315Z AUTO 06006KT 10SM CLR 26/15 A3004 RMK AO2 LTG DSNT SE",
    "station": "KRCR",
    "observationTime": 1750029300,
    "temperature": 26,
    "dewpoint": 15,
    "windDirection": 60,
    "windSpeed": 6,
    "visibility": 10,
    "altimeter": 1017.4,
    "clouds": [
      {
        "type": "CLR"
      }
    ],
    "weather": [],
    "flightCategory": "VFR"
  },
  {
    "raw": "KRCM 152315Z AUTO 06004KT 10SM CLR 26/19 A3000 RMK AO2",
    "station": "KRCM",
    "observationTime": 1750029300,
    "temperature": 26,
    "dewpoint": 19,
    "windDirection": 60,
    "windSpeed": 4,
    "visibility": 10,
    "altimeter": 1016,
    "clouds": [
      {
        "type": "CLR"
      }
    ],
    "weather": [],
    "flightCategory": "VFR"
  },
  {
    "raw": "KRCE 152315Z AUTO 01011KT 10SM CLR 28/20 A2994 RMK AO2",
    "station": "KRCE",
    "observationTime": 1750029300,
    "temperature": 28,
    "dewpoint": 20,
    "windDirection": 10,
    "windSpeed": 11,
    "visibility": 10,
    "altimeter": 1014,
    "clouds": [
      {
        "type": "CLR"
      }
    ],
    "weather": [],
    "flightCategory": "VFR"
  },
  {
    "raw": "KRBW 152315Z AUTO 19006KT 10SM CLR 24/22 A3009 RMK AO2 LTG DSNT S",
    "station": "KRBW",
    "observationTime": 1750029300,
    "temperature": 24,
    "dewpoint": 22,
    "windDirection": 190,
    "windSpeed": 6,
    "visibility": 10,
    "altimeter": 1019,
    "clouds": [
      {
        "type": "CLR"
      }
    ],
    "weather": [],
    "flightCategory": "VFR"
  },
  {
    "raw": "KRBO 152315Z AUTO 13009KT 10SM CLR 32/26 A2994 RMK AO2 LTG DSNT NW T03150259",
    "station": "KRBO",
    "observationTime": 1750029300,
    "temperature": 31.5,
    "dewpoint": 25.9,
    "windDirection": 130,
    "windSpeed": 9,
    "visibility": 10,
    "altimeter": 1014,
    "clouds": [
      {
        "type": "CLR"
      }
    ],
    "weather": [],
    "flightCategory": "VFR"
  },
  {
    "raw": "KRAW 152315Z AUTO 16004KT 10SM SCT015 BKN023 OVC047 22/21 A3001 RMK AO2",
    "station": "KRAW",
    "observationTime": 1750029300,
    "temperature": 22,
    "dewpoint": 21,
    "windDirection": 160,
    "windSpeed": 4,
    "visibility": 10,
    "altimeter": 1016.3,
    "clouds": [
      {
        "type": "SCT",
        "altitude": 1500
      },
      {
        "type": "BKN",
        "altitude": 2300
      },
      {
        "type": "OVC",
        "altitude": 4700
      }
    ],
    "weather": [],
    "flightCategory": "MVFR"
  },
  {
    "raw": "KRAS 152315Z AUTO 13012G17KT 10SM SCT014 30/26 A2996 RMK AO2 T03050257",
    "station": "KRAS",
    "observationTime": 1750029300,
    "temperature": 30.5,
    "dewpoint": 25.7,
    "windDirection": 130,
    "windSpeed": 12,
    "windGust": 17,
    "visibility": 10,
    "altimeter": 1014.6,
    "clouds": [
      {
        "type": "SCT",
        "altitude": 1400
      }
    ],
    "weather": [],
    "flightCategory": "VFR"
  },
  {
    "raw": "KPZZ 152315Z AUTO 19007KT 10SM CLR 29/25 A3004 RMK A01",
    "station": "KPZZ",
    "observationTime": 1750029300,
    "temperature": 29,
    "dewpoint": 25,
    "windDirection": 190,
    "windSpeed": 7,
    "visibility": 10,
    "altimeter": 1017.4,
    "clouds": [
      {
        "type": "CLR"
      }
    ],
    "weather": [],
    "flightCategory": "VFR"
  },
  {
    "raw": "KPZQ 152315Z AUTO 08003KT 10SM CLR 21/07 A3015 RMK AO2 T02060074",
    "station": "KPZQ",
    "observationTime": 1750029300,
    "temperature": 20.6,
    "dewpoint": 7.4,
    "windDirection": 80,
    "windSpeed": 3,
    "visibility": 10,
    "altimeter": 1021.1,
    "clouds": [
      {
        "type": "CLR"
      }
    ],
    "weather": [],
    "flightCategory": "VFR"
  },
  {
    "raw": "KPYX 152315Z AUTO 17007KT 10SM 31/17 A3001 RMK AO2 T03080168",
    "station": "KPYX",
    "observationTime": 1750029300,
    "temperature": 30.8,
    "dewpoint": 16.8,
    "windDirection": 170,
    "windSpeed": 7,
    "visibility": 10,
    "altimeter": 1016.3,
    "clouds": [],
    "weather": [],
    "flightCategory": "VFR"
  },
  {
    "raw": "KPWD 152315Z AUTO 17008G13KT 10SM FEW110 27/12 A2994 RMK AO2",
    "station": "KPWD",
    "observationTime": 1750029300,
    "temperature": 27,
    "dewpoint": 12,
    "windDirection": 170,
    "windSpeed": 8,
    "windGust": 13,
    "visibility": 10,
    "altimeter": 1014,
    "clouds": [
      {
        "type": "FEW",
        "altitude": 11000
      }
    ],
    "weather": [],
    "flightCategory": "VFR"
  },
  {
    "raw": "KPWC 152315Z AUTO 11006KT 10SM BKN018 19/14 A3008 RMK AO2",
    "station": "KPWC",
    "observationTime": 1750029300,
    "temperature": 19,
    "dewpoint": 14,
    "windDirection": 110,
    "windSpeed": 6,
    "visibility": 10,
    "altimeter": 1018.7,
    "clouds": [
      {
        "type": "BKN",
        "altitude": 1800
      }
    ],
    "weather": [],
    "flightCategory": "MVFR"
  },
  {
    "raw": "KPVJ 152315Z AUTO 06003KT 10SM CLR 27/20 A2999 RMK AO2 T02660198",
    "station": "KPVJ",
    "observationTime": 1750029300,
    "temperature": 26.6,
    "dewpoint": 19.8,
    "windDirection": 60,
    "windSpeed": 3,
    "visibility": 10,
    "altimeter": 1015.7,
    "clouds": [
      {
        "type": "CLR"
      }
    ],
    "weather": [],
    "flightCategory": "VFR"
  },
  {
    "raw": "KPVF 152315Z AUTO 25004KT 10SM CLR 29/00 A3007 RMK AO1",
    "station": "KPVF",
    "observationTime": 1750029300,
    "temperature": 29,
    "windDirection": 250,
    "windSpeed": 4,
    "visibility": 10,
    "altimeter": 1018.4,
    "clouds": [
      {
        "type": "CLR"
      }
    ],
    "weather": [],
    "flightCategory": "VFR"
  },
  {
    "raw": "KPVB 152315Z AUTO 00000KT 10SM BKN046 OVC050 24/18 A3007 RMK AO1 T02440182",
    "station": "KPVB",
    "observationTime": 1750029300,
    "temperature": 24.4,
    "dewpoint": 18.2,
    "visibility": 10,
    "altimeter": 1018.4,
    "clouds": [
      {
        "type": "BKN",
        "altitude": 4600
      },
      {
        "type": "OVC",
        "altitude": 5000
      }
    ],
    "weather": [],
    "flightCategory": "VFR"
  },
  {
    "raw": "KPUJ 152315Z AUTO 00000KT 10SM SCT050 SCT065 26/21 A3007 RMK AO2",
    "station": "KPUJ",
    "observationTime": 1750029300,
    "temperature": 26,
    "dewpoint": 21,
    "visibility": 10,
    "altimeter": 1018.4,
    "clouds": [
      {
        "type": "SCT",
        "altitude": 5000
      },
      {
        "type": "SCT",
        "altitude": 6500
      }
    ],
    "weather": [],
    "flightCategory": "VFR"
  },
  {
    "raw": "KPTT 152315Z AUTO 15006KT 10SM CLR 29/18 A3001 RMK AO2 T02860178",
    "station": "KPTT",
    "observationTime": 1750029300,
    "temperature": 28.6,
    "dewpoint": 17.8,
    "windDirection": 150,
    "windSpeed": 6,
    "visibility": 10,
    "altimeter": 1016.3,
    "clouds": [
      {
        "type": "CLR"
      }
    ],
    "weather": [],
    "flightCategory": "VFR"
  },
  {
    "raw": "KPTS 152315Z AUTO 07007KT 10SM CLR 26/22 A2996 RMK AO2",
    "station": "KPTS",
    "observationTime": 1750029300,
    "temperature": 26,
    "dewpoint": 22,
    "windDirection": 70,
    "windSpeed": 7,
    "visibility": 10,
    "altimeter": 1014.6,
    "clouds": [
      {
        "type": "CLR"
      }
    ],
    "weather": [],
    "flightCategory": "VFR"
  },
  {
    "raw": "KPTD 152315Z AUTO 36004KT 10SM CLR 22/06 A3012 RMK AO2 PNO",
    "station": "KPTD",
    "observationTime": 1750029300,
    "temperature": 22,
    "dewpoint": 6,
    "windDirection": 360,
    "windSpeed": 4,
    "visibility": 10,
    "altimeter": 1020.1,
    "clouds": [
      {
        "type": "CLR"
      }
    ],
    "weather": [],
    "flightCategory": "VFR"
  },
  {
    "raw": "KPTB 152315Z AUTO 00000KT 5SM RA OVC006 23/22 A3003 RMK AO2 T02280221",
    "station": "KPTB",
    "observationTime": 1750029300,
    "temperature": 22.8,
    "dewpoint": 22.1,
    "visibility": 5,
    "altimeter": 1017,
    "clouds": [
      {
        "type": "OVC",
        "altitude": 600
      }
    ],
    "weather": [
      "RA"
    ],
    "flightCategory": "IFR"
  },
  {
    "raw": "KPSO 152315Z AUTO 25008G20KT 10SM CLR 30/M12 A3029 RMK AO2",
    "station": "KPSO",
    "observationTime": 1750029300,
    "temperature": 30,
    "dewpoint": -12,
    "windDirection": 250,
    "windSpeed": 8,
    "windGust": 20,
    "visibility": 10,
    "altimeter": 1025.8,
    "clouds": [
      {
        "type": "CLR"
      }
    ],
    "weather": [],
    "flightCategory": "VFR"
  },
  {
    "raw": "KPSK 152315Z AUTO 00000KT 10SM SCT036 BKN047 BKN055 21/21 A3007 RMK AO2 LTG DSNT SE T02120205",
    "station": "KPSK",
    "observationTime": 1750029300,
    "temperature": 21.2,
    "dewpoint": 20.5,
    "visibility": 10,
    "altimeter": 1018.4,
    "clouds": [
      {
        "type": "SCT",
        "altitude": 3600
      },
      {
        "type": "BKN",
        "altitude": 4700
      },
      {
        "type": "BKN",
        "altitude": 5500
      }
    ],
    "weather": [],
    "flightCategory": "VFR"
  },
  {
    "raw": "KPRS 152315Z AUTO 10006G14KT 10SM CLR 40/07 A2991 RMK AO2 T04020066",
    "station": "KPRS",
    "observationTime": 1750029300,
    "temperature": 40.2,
    "dewpoint": 6.6,
    "windDirection": 100,
    "windSpeed": 6,
    "windGust": 14,
    "visibility": 10,
    "altimeter": 1013,
    "clouds": [
      {
        "type": "CLR"
      }
    ],
    "weather": [],
    "flightCategory": "VFR"
  },
  {
    "raw": "KPRO 152315Z AUTO 05008KT 10SM CLR 29/21 A2998 RMK AO2 T02930213",
    "station": "KPRO",
    "observationTime": 1750029300,
    "temperature": 29.3,
    "dewpoint": 21.3,
    "windDirection": 50,
    "windSpeed": 8,
    "visibility": 10,
    "altimeter": 1015.3,
    "clouds": [
      {
        "type": "CLR"
      }
    ],
    "weather": [],
    "flightCategory": "VFR"
  },
  {
    "raw": "KPRG 152315Z AUTO 08004KT 10SM SCT028 SCT036 26/21 A3001 RMK AO2 T02560206",
    "station": "KPRG",
    "observationTime": 1750029300,
    "temperature": 25.6,
    "dewpoint": 20.6,
    "windDirection": 80,
    "windSpeed": 4,
    "visibility": 10,
    "altimeter": 1016.3,
    "clouds": [
      {
        "type": "SCT",
        "altitude": 2800
      },
      {
        "type": "SCT",
        "altitude": 3600
      }
    ],
    "weather": [],
    "flightCategory": "VFR"
  },
  {
    "raw": "KPPQ 152315Z AUTO 07003KT 10SM CLR 26/20 A3003 RMK AO2 T02550200",
    "station": "KPPQ",
    "observationTime": 1750029300,
    "temperature": 25.5,
    "dewpoint": 20,
    "windDirection": 70,
    "windSpeed": 3,
    "visibility": 10,
    "altimeter": 1017,
    "clouds": [
      {
        "type": "CLR"
      }
    ],
    "weather": [],
    "flightCategory": "VFR"
  },
  {
    "raw": "KPPO 152315Z AUTO 36010G15KT 10SM CLR 24/18 A3006 RMK AO2",
    "station": "KPPO",
    "observationTime": 1750029300,
    "temperature": 24,
    "dewpoint": 18,
    "windDirection": 360,
    "windSpeed": 10,
    "windGust": 15,
    "visibility": 10,
    "altimeter": 1018,
    "clouds": [
      {
        "type": "CLR"
      }
    ],
    "weather": [],
    "flightCategory": "VFR"
  },
  {
    "raw": "KPPA 152315Z AUTO 10006KT 10SM CLR 31/19 A3004 RMK AO2 T03100194",
    "station": "KPPA",
    "observationTime": 1750029300,
    "temperature": 31,
    "dewpoint": 19.4,
    "windDirection": 100,
    "windSpeed": 6,
    "visibility": 10,
    "altimeter": 1017.4,
    "clouds": [
      {
        "type": "CLR"
      }
    ],
    "weather": [],
    "flightCategory": "VFR"
  },
  {
    "raw": "KPOY 152315Z AUTO 35018G22KT 10SM CLR 23/11 A2999 RMK AO2",
    "station": "KPOY",
    "observationTime": 1750029300,
    "temperature": 23,
    "dewpoint": 11,
    "windDirection": 350,
    "windSpeed": 18,
    "windGust": 22,
    "visibility": 10,
    "altimeter": 1015.7,
    "clouds": [
      {
        "type": "CLR"
      }
    ],
    "weather": [],
    "flightCategory": "VFR"
  },
  {
    "raw": "KPOV 152315Z AUTO 04006KT 10SM SCT029 24/17 A3005 RMK AO2 T02380170 PWINO",
    "station": "KPOV",
    "observationTime": 1750029300,
    "temperature": 23.8,
    "dewpoint": 17,
    "windDirection": 40,
    "windSpeed": 6,
    "visibility": 10,
    "altimeter": 1017.7,
    "clouds": [
      {
        "type": "SCT",
        "altitude": 2900
      }
    ],
    "weather": [],
    "flightCategory": "VFR"
  },
  {
    "raw": "KPNT 152315Z AUTO 08004KT 10SM SCT050 27/17 A3002 RMK AO2 T02710172",
    "station": "KPNT",
    "observationTime": 1750029300,
    "temperature": 27.1,
    "dewpoint": 17.2,
    "windDirection": 80,
    "windSpeed": 4,
    "visibility": 10,
    "altimeter": 1016.7,
    "clouds": [
      {
        "type": "SCT",
        "altitude": 5000
      }
    ],
    "weather": [],
    "flightCategory": "VFR"
  },
  {
    "raw": "KPNM 152315Z AUTO 06003KT 10SM BKN041 21/17 A3007 RMK AO2",
    "station": "KPNM",
    "observationTime": 1750029300,
    "temperature": 21,
    "dewpoint": 17,
    "windDirection": 60,
    "windSpeed": 3,
    "visibility": 10,
    "altimeter": 1018.4,
    "clouds": [
      {
        "type": "BKN",
        "altitude": 4100
      }
    ],
    "weather": [],
    "flightCategory": "VFR"
  },
  {
    "raw": "KPNA 152315Z AUTO 26014G19KT 10SM CLR 28/M06 A3019 RMK AO2",
    "station": "KPNA",
    "observationTime": 1750029300,
    "temperature": 28,
    "dewpoint": -6,
    "windDirection": 260,
    "windSpeed": 14,
    "windGust": 19,
    "visibility": 10,
    "altimeter": 1022.4,
    "clouds": [
      {
        "type": "CLR"
      }
    ],
    "weather": [],
    "flightCategory": "VFR"
  },
  {
    "raw": "KPMV 152315Z AUTO 15008KT 10SM CLR 31/19 A2996 RMK AO2 T03100194",
    "station": "KPMV",
    "observationTime": 1750029300,
    "temperature": 31,
    "dewpoint": 19.4,
    "windDirection": 150,
    "windSpeed": 8,
    "visibility": 10,
    "altimeter": 1014.6,
    "clouds": [
      {
        "type": "CLR"
      }
    ],
    "weather": [],
    "flightCategory": "VFR"
  },
  {
    "raw": "KPMU 152315Z AUTO 16006KT 10SM FEW040 FEW060 29/24 A2997 RMK AO2",
    "station": "KPMU",
    "observationTime": 1750029300,
    "temperature": 29,
    "dewpoint": 24,
    "windDirection": 160,
    "windSpeed": 6,
    "visibility": 10,
    "altimeter": 1015,
    "clouds": [
      {
        "type": "FEW",
        "altitude": 4000
      },
      {
        "type": "FEW",
        "altitude": 6000
      }
    ],
    "weather": [],
    "flightCategory": "VFR"
  }
]